{
"type": "FeatureCollection",
"name": "mi-capa",
"crs": { "type": "name", "properties": { "name": "urn:ogc:def:crs:OGC:1.3:CRS84" } },
"features": [
{ "type": "Feature", "properties": { "MUNICIPIO": "Alberti", "PUNTO": "Rio Salado Puente La Daga", "NOMBRE CON": "Río Salado - Puente Ladaga, Alberti, Provincia de Buenos Aires, Argentina", "Lat": "-35.069472", "Long": "-60.243694", "Alerta": 3, "AS2": 3, "AS3": null, "S2 Fecha": "2026-05-20", "S3 Fecha": "2026-05-20", "Dif": 0, "info": "Alerta naranja, riesgo moderado a alto, estable" }, "geometry": { "type": "Point", "coordinates": [ -60.243694, -35.069472 ] } },
{ "type": "Feature", "properties": { "MUNICIPIO": "Alberti", "PUNTO": "Río Salado Ruta 5", "NOMBRE CON": null, "Lat": "-35.061111", "Long": "-60.292083", "Alerta": 3, "AS2": 3, "AS3": 1, "S2 Fecha": "2026-05-20", "S3 Fecha": "2026-05-20", "Dif": -1, "info": "Alerta naranja, riesgo moderado a alto, en disminución" }, "geometry": { "type": "Point", "coordinates": [ -60.292083, -35.061111 ] } },
{ "type": "Feature", "properties": { "MUNICIPIO": "Alberti", "PUNTO": "Puente Achupallas", "NOMBRE CON": "Rio Salado. Municipio de Alberti (Cuenca Río Salado)", "Lat": "-35.087972", "Long": "-60.109111", "Alerta": 3, "AS2": 3, "AS3": 1, "S2 Fecha": "2026-05-20", "S3 Fecha": "2026-05-20", "Dif": -1, "info": "Alerta naranja, riesgo moderado a alto, en disminución" }, "geometry": { "type": "Point", "coordinates": [ -60.109111, -35.087972 ] } },
{ "type": "Feature", "properties": { "MUNICIPIO": "Alem", "PUNTO": "Laguna San Bartolo", "NOMBRE CON": "Balneario Municipal Leandro N. Alem, Leandro N. Alem, Provincia de Buenos Aires, Argentina", "Lat": "-34.455611", "Long": "-61.477361", "Alerta": 2, "AS2": 2, "AS3": 1, "S2 Fecha": "2026-05-20", "S3 Fecha": "2026-05-20", "Dif": -1, "info": "Alerta amarillo, riesgo bajo a moderado, en disminución" }, "geometry": { "type": "Point", "coordinates": [ -61.477361, -34.455611 ] } },
{ "type": "Feature", "properties": { "MUNICIPIO": "Avellaneda", "PUNTO": "Reserva Costanera Sur", "NOMBRE CON": null, "Lat": "-34.665583", "Long": "-58.303547", "Alerta": 1, "AS2": 1, "AS3": 1, "S2 Fecha": "2026-05-17", "S3 Fecha": "2026-05-20", "Dif": 0, "info": "Alerta verde, riesgo nulo a bajo y estable" }, "geometry": { "type": "Point", "coordinates": [ -58.303547, -34.665583 ] } },
{ "type": "Feature", "properties": { "MUNICIPIO": "Avellaneda", "PUNTO": "Laguna La Saladita", "NOMBRE CON": "Laguna La Saladita", "Lat": "-34.672417", "Long": "-58.340472", "Alerta": 4, "AS2": 4, "AS3": 1, "S2 Fecha": "2026-05-17", "S3 Fecha": "2026-05-20", "Dif": 0, "info": "Alerta roja, riesgo alto, estable" }, "geometry": { "type": "Point", "coordinates": [ -58.340472, -34.672417 ] } },
{ "type": "Feature", "properties": { "MUNICIPIO": "Balcarce", "PUNTO": "LG la brava", "NOMBRE CON": "Laguna La Brava, Provincia de Buenos Aires, Argentina", "Lat": "-37.865955", "Long": "-57.9830706", "Alerta": 4, "AS2": 4, "AS3": 4, "S2 Fecha": "2026-05-14", "S3 Fecha": "2026-05-20", "Dif": 0, "info": "Alerta roja, riesgo alto, estable" }, "geometry": { "type": "Point", "coordinates": [ -57.9830706, -37.865955 ] } },
{ "type": "Feature", "properties": { "MUNICIPIO": "Benito Juárez", "PUNTO": "Laguna San Antonio", "NOMBRE CON": "Laguna San Antonio, Benito Juárez, Provincia de Buenos Aires, Argentina", "Lat": "-37.629917", "Long": "-59.874806", "Alerta": 4, "AS2": 4, "AS3": 4, "S2 Fecha": "2026-05-17", "S3 Fecha": "2026-05-20", "Dif": 0, "info": "Alerta roja, riesgo alto, estable" }, "geometry": { "type": "Point", "coordinates": [ -59.874806, -37.629917 ] } },
{ "type": "Feature", "properties": { "MUNICIPIO": "Benito Juárez", "PUNTO": "Laguna El chifle", "NOMBRE CON": "Laguna El Chifle, Benito Juárez, Provincia de Buenos Aires, Argentina", "Lat": "-37.406806", "Long": "-59.79925", "Alerta": 4, "AS2": 4, "AS3": 4, "S2 Fecha": "2026-05-17", "S3 Fecha": "2026-05-20", "Dif": 0, "info": "Alerta roja, riesgo alto, estable" }, "geometry": { "type": "Point", "coordinates": [ -59.79925, -37.406806 ] } },
{ "type": "Feature", "properties": { "MUNICIPIO": "Berazategui", "PUNTO": "Balneario de Hudson", "NOMBRE CON": "Costanera Hudson, Provincia de Buenos Aires, Argentina", "Lat": "-34.753500", "Long": "-58.107778", "Alerta": 1, "AS2": 1, "AS3": 1, "S2 Fecha": "2026-05-19", "S3 Fecha": "2026-05-20", "Dif": 0, "info": "Alerta verde, riesgo nulo a bajo y estable" }, "geometry": { "type": "Point", "coordinates": [ -58.107778, -34.7535 ] } },
{ "type": "Feature", "properties": { "MUNICIPIO": "Berisso", "PUNTO": "Balneario Municipal", "NOMBRE CON": "Balneario Municipal Berisso, Berisso, Provincia de Buenos Aires, Argentina", "Lat": "-34.918278", "Long": "-57.740639", "Alerta": 1, "AS2": 1, "AS3": 1, "S2 Fecha": "2026-05-19", "S3 Fecha": "2026-05-20", "Dif": 0, "info": "Alerta verde, riesgo nulo a bajo y estable" }, "geometry": { "type": "Point", "coordinates": [ -57.740639, -34.918278 ] } },
{ "type": "Feature", "properties": { "MUNICIPIO": "Berisso", "PUNTO": "Palo Blanco", "NOMBRE CON": "Playa Palo Blanco Berisso, Berisso, Provincia de Buenos Aires, Argentina", "Lat": "-34.855417", "Long": "-57.837639", "Alerta": 1, "AS2": 1, "AS3": 1, "S2 Fecha": "2026-05-19", "S3 Fecha": "2026-05-20", "Dif": 0, "info": "Alerta verde, riesgo nulo a bajo y estable" }, "geometry": { "type": "Point", "coordinates": [ -57.837639, -34.855417 ] } },
{ "type": "Feature", "properties": { "MUNICIPIO": "Berisso", "PUNTO": "La Balandra", "NOMBRE CON": null, "Lat": "-34.928639", "Long": "-57.717167", "Alerta": 1, "AS2": 1, "AS3": 1, "S2 Fecha": "2026-05-19", "S3 Fecha": "2026-05-20", "Dif": 0, "info": "Alerta verde, riesgo nulo a bajo y estable" }, "geometry": { "type": "Point", "coordinates": [ -57.717167, -34.928639 ] } },
{ "type": "Feature", "properties": { "MUNICIPIO": "BRAGADO", "PUNTO": "Laguna de Bragado", "NOMBRE CON": "Laguna de Bragado, Bragado, Provincia de Buenos Aires, Argentina", "Lat": "-35.087528", "Long": "-60.470528", "Alerta": 3, "AS2": 3, "AS3": 1, "S2 Fecha": "2026-05-20", "S3 Fecha": "2026-05-20", "Dif": -1, "info": "Alerta naranja, riesgo moderado a alto, en disminución" }, "geometry": { "type": "Point", "coordinates": [ -60.470528, -35.087528 ] } },
{ "type": "Feature", "properties": { "MUNICIPIO": "Chacabuco", "PUNTO": "Laguna de Rocha", "NOMBRE CON": "Camping Laguna De Rocha, 9 de Julio, Chacabuco, Provincia de Buenos Aires, Argentina", "Lat": "-34.693056", "Long": "-60.684417", "Alerta": 3, "AS2": 3, "AS3": 3, "S2 Fecha": "2026-05-20", "S3 Fecha": "2026-05-20", "Dif": 0, "info": "Alerta naranja, riesgo moderado a alto, estable" }, "geometry": { "type": "Point", "coordinates": [ -60.684417, -34.693056 ] } },
{ "type": "Feature", "properties": { "MUNICIPIO": "Chascomús", "PUNTO": "Laguna de Chascomús-Muelle", "NOMBRE CON": null, "Lat": "-35.582747", "Long": "-58.017978", "Alerta": 3, "AS2": 3, "AS3": 4, "S2 Fecha": "2026-05-19", "S3 Fecha": "2026-05-20", "Dif": 1, "info": "Alerta naranja, riesgo moderado a alto, en aumento" }, "geometry": { "type": "Point", "coordinates": [ -58.017978, -35.582747 ] } },
{ "type": "Feature", "properties": { "MUNICIPIO": "Chascomús", "PUNTO": "Laguna de Chascomús-Puerto Aventur (Chas 2)", "NOMBRE CON": null, "Lat": "-35.584567", "Long": "-58.003828", "Alerta": 3, "AS2": 3, "AS3": 4, "S2 Fecha": "2026-05-19", "S3 Fecha": "2026-05-20", "Dif": 1, "info": "Alerta naranja, riesgo moderado a alto, en aumento" }, "geometry": { "type": "Point", "coordinates": [ -58.003828, -35.584567 ] } },
{ "type": "Feature", "properties": { "MUNICIPIO": "Chivilcoy", "PUNTO": "Parque Lagunario Martija Camping", "NOMBRE CON": null, "Lat": "-34.837361", "Long": "-60.103806", "Alerta": 4, "AS2": 4, "AS3": null, "S2 Fecha": "2026-05-20", "S3 Fecha": "2026-05-20", "Dif": 0, "info": "Alerta roja, riesgo alto, estable" }, "geometry": { "type": "Point", "coordinates": [ -60.103806, -34.837361 ] } },
{ "type": "Feature", "properties": { "MUNICIPIO": "Chivilcoy", "PUNTO": "Zona de recreo", "NOMBRE CON": "Municipio de Chivilcoy  (Cuenca Río Salado)", "Lat": "-35.12475", "Long": "-59.955694", "Alerta": 3, "AS2": 3, "AS3": null, "S2 Fecha": "2026-05-20", "S3 Fecha": "2026-05-20", "Dif": 0, "info": "Alerta naranja, riesgo moderado a alto, estable" }, "geometry": { "type": "Point", "coordinates": [ -59.955694, -35.12475 ] } },
{ "type": "Feature", "properties": { "MUNICIPIO": "Colon", "PUNTO": "Lago Municipal de Colon- Compuerta 1", "NOMBRE CON": null, "Lat": "-33.913056", "Long": "-61.108333", "Alerta": 2, "AS2": 2, "AS3": 3, "S2 Fecha": "2026-05-20", "S3 Fecha": "2026-05-20", "Dif": 1, "info": "Alerta amarillo, riesgo bajo a moderado, en aumento" }, "geometry": { "type": "Point", "coordinates": [ -61.108333, -33.913056 ] } },
{ "type": "Feature", "properties": { "MUNICIPIO": "Colon", "PUNTO": "Lago Municipal de Colon- Compuerta 2", "NOMBRE CON": null, "Lat": "-33.922278", "Long": "-61.09675", "Alerta": 2, "AS2": 2, "AS3": null, "S2 Fecha": "2026-05-20", "S3 Fecha": "2026-05-20", "Dif": 0, "info": "Alerta amarillo, riesgo bajo a moderado, estable" }, "geometry": { "type": "Point", "coordinates": [ -61.09675, -33.922278 ] } },
{ "type": "Feature", "properties": { "MUNICIPIO": "Coronel Pringles", "PUNTO": "Dique Paso de las Piedras", "NOMBRE CON": "Dique Paso de las Piedras", "Lat": "-38.356694", "Long": "-61.756389", "Alerta": 2, "AS2": 2, "AS3": null, "S2 Fecha": "2026-05-17", "S3 Fecha": "2026-05-20", "Dif": 0, "info": "Alerta amarillo, riesgo bajo a moderado, estable" }, "geometry": { "type": "Point", "coordinates": [ -61.756389, -38.356694 ] } },
{ "type": "Feature", "properties": { "MUNICIPIO": "Daireux", "PUNTO": "Laguna de Juancho", "NOMBRE CON": null, "Lat": "-36.70959092", "Long": "-61.55107271", "Alerta": 1, "AS2": null, "AS3": 1, "S2 Fecha": "2026-05-15", "S3 Fecha": "2026-05-20", "Dif": 0, "info": "Alerta verde, riesgo nulo a bajo y estable" }, "geometry": { "type": "Point", "coordinates": [ -61.55107271, -36.70959092 ] } },
{ "type": "Feature", "properties": { "MUNICIPIO": "Ensenada", "PUNTO": "La Pergola", "NOMBRE CON": null, "Lat": "-34.805917", "Long": "-57.982917", "Alerta": 1, "AS2": 1, "AS3": 1, "S2 Fecha": "2026-05-19", "S3 Fecha": "2026-05-20", "Dif": 0, "info": "Alerta verde, riesgo nulo a bajo y estable" }, "geometry": { "type": "Point", "coordinates": [ -57.982917, -34.805917 ] } },
{ "type": "Feature", "properties": { "MUNICIPIO": "Ensenada", "PUNTO": "Parador 4", "NOMBRE CON": null, "Lat": "-34.829278", "Long": "-57.950083", "Alerta": 1, "AS2": 1, "AS3": 1, "S2 Fecha": "2026-05-19", "S3 Fecha": "2026-05-20", "Dif": 0, "info": "Alerta verde, riesgo nulo a bajo y estable" }, "geometry": { "type": "Point", "coordinates": [ -57.950083, -34.829278 ] } },
{ "type": "Feature", "properties": { "MUNICIPIO": "Ensenada", "PUNTO": "Club de Pesca/ TOMA DE ABSA/ El Espigón", "NOMBRE CON": null, "Lat": "-34.828122", "Long": "-57.945578", "Alerta": 1, "AS2": 1, "AS3": 1, "S2 Fecha": "2026-05-19", "S3 Fecha": "2026-05-20", "Dif": 0, "info": "Alerta verde, riesgo nulo a bajo y estable" }, "geometry": { "type": "Point", "coordinates": [ -57.945578, -34.828122 ] } },
{ "type": "Feature", "properties": { "MUNICIPIO": "Ensenada", "PUNTO": "Rio Santiago", "NOMBRE CON": null, "Lat": "-34.833917", "Long": "-57.880278", "Alerta": 1, "AS2": 1, "AS3": 1, "S2 Fecha": "2026-05-19", "S3 Fecha": "2026-05-20", "Dif": 0, "info": "Alerta verde, riesgo nulo a bajo y estable" }, "geometry": { "type": "Point", "coordinates": [ -57.880278, -34.833917 ] } },
{ "type": "Feature", "properties": { "MUNICIPIO": "Ensenada", "PUNTO": "Club Regatas", "NOMBRE CON": null, "Lat": "-34.840444", "Long": "-57.918583", "Alerta": 1, "AS2": 1, "AS3": 1, "S2 Fecha": "2026-05-19", "S3 Fecha": "2026-05-20", "Dif": 0, "info": "Alerta verde, riesgo nulo a bajo y estable" }, "geometry": { "type": "Point", "coordinates": [ -57.918583, -34.840444 ] } },
{ "type": "Feature", "properties": { "MUNICIPIO": "Ensenada", "PUNTO": "Delta Canal Santiago", "NOMBRE CON": null, "Lat": "-34.851806", "Long": "-57.890056", "Alerta": 1, "AS2": 1, "AS3": 1, "S2 Fecha": "2026-05-19", "S3 Fecha": "2026-05-20", "Dif": 0, "info": "Alerta verde, riesgo nulo a bajo y estable" }, "geometry": { "type": "Point", "coordinates": [ -57.890056, -34.851806 ] } },
{ "type": "Feature", "properties": { "MUNICIPIO": "General Belgrano", "PUNTO": "Ruta 3 Gral Belgrano. Municipio General Belgrano (Cuenca Río Salado)", "NOMBRE CON": "Ruta 3 Gral Belgrano. Municipio General Belgrano (Cuenca Río Salado)", "Lat": "-35.650194", "Long": "-58.849917", "Alerta": 1, "AS2": 1, "AS3": null, "S2 Fecha": "2026-05-17", "S3 Fecha": "2026-05-20", "Dif": 0, "info": "Alerta verde, riesgo nulo a bajo y estable" }, "geometry": { "type": "Point", "coordinates": [ -58.849917, -35.650194 ] } },
{ "type": "Feature", "properties": { "MUNICIPIO": "General Belgrano", "PUNTO": "Camping General Belgrano", "NOMBRE CON": null, "Lat": "-35.748472", "Long": "-58.496611", "Alerta": 4, "AS2": 4, "AS3": null, "S2 Fecha": "2026-05-19", "S3 Fecha": "2026-05-20", "Dif": 0, "info": "Alerta roja, riesgo alto, estable" }, "geometry": { "type": "Point", "coordinates": [ -58.496611, -35.748472 ] } },
{ "type": "Feature", "properties": { "MUNICIPIO": "General Pueyrredon", "PUNTO": "Laguna Sierra de los Padres", "NOMBRE CON": "Laguna sierra de los padres, Mar del Plata, Provincia de Buenos Aires, Argentina", "Lat": "-37.942806", "Long": "-57.727139", "Alerta": 3, "AS2": 3, "AS3": 3, "S2 Fecha": "2026-05-14", "S3 Fecha": "2026-05-20", "Dif": 0, "info": "Alerta naranja, riesgo moderado a alto, estable" }, "geometry": { "type": "Point", "coordinates": [ -57.727139, -37.942806 ] } },
{ "type": "Feature", "properties": { "MUNICIPIO": "General Pueyrredon", "PUNTO": "Laguna de Los Padres. Punto: Compuerta Arroyo LaTapera", "NOMBRE CON": null, "Lat": "-37.9345", "Long": "-57.722861", "Alerta": 3, "AS2": 3, "AS3": 3, "S2 Fecha": "2026-05-14", "S3 Fecha": "2026-05-20", "Dif": 0, "info": "Alerta naranja, riesgo moderado a alto, estable" }, "geometry": { "type": "Point", "coordinates": [ -57.722861, -37.9345 ] } },
{ "type": "Feature", "properties": { "MUNICIPIO": "General Pueyrredon", "PUNTO": "Laguna de Los Padres: Cabecera de Pista Norte", "NOMBRE CON": null, "Lat": "-37.929139", "Long": "-57.736306", "Alerta": 2, "AS2": 2, "AS3": 1, "S2 Fecha": "2026-05-14", "S3 Fecha": "2026-05-20", "Dif": -1, "info": "Alerta amarillo, riesgo bajo a moderado, en disminución" }, "geometry": { "type": "Point", "coordinates": [ -57.736306, -37.929139 ] } },
{ "type": "Feature", "properties": { "MUNICIPIO": "General Pueyrredon", "PUNTO": "Laguna de Los Padres: Centro de Actividades Nauticas.", "NOMBRE CON": null, "Lat": "-37.942722", "Long": "-57.7265", "Alerta": 3, "AS2": 3, "AS3": 2, "S2 Fecha": "2026-05-14", "S3 Fecha": "2026-05-20", "Dif": -1, "info": "Alerta naranja, riesgo moderado a alto, en disminución" }, "geometry": { "type": "Point", "coordinates": [ -57.7265, -37.942722 ] } },
{ "type": "Feature", "properties": { "MUNICIPIO": "General Madariaga", "PUNTO": "Laguna La Larga", "NOMBRE CON": "Laguna La Larga, General Juan Madariaga, Provincia de Buenos Aires, Argentina", "Lat": "-36.949500", "Long": "-57.110417", "Alerta": 4, "AS2": 4, "AS3": 1, "S2 Fecha": "2026-05-19", "S3 Fecha": "2026-05-20", "Dif": -1, "info": "Alerta roja, riesgo alto, en disminución" }, "geometry": { "type": "Point", "coordinates": [ -57.110417, -36.9495 ] } },
{ "type": "Feature", "properties": { "MUNICIPIO": "General Madariaga", "PUNTO": "Laguna El Carbón", "NOMBRE CON": "Laguna El Carbón, General Juan Madariaga, Provincia de Buenos Aires, Argentina", "Lat": "-36.950556", "Long": "-57.079583", "Alerta": 1, "AS2": 1, "AS3": 1, "S2 Fecha": "2026-05-19", "S3 Fecha": "2026-05-20", "Dif": 0, "info": "Alerta verde, riesgo nulo a bajo y estable" }, "geometry": { "type": "Point", "coordinates": [ -57.079583, -36.950556 ] } },
{ "type": "Feature", "properties": { "MUNICIPIO": "General Madariaga", "PUNTO": "Laguna los Horcones", "NOMBRE CON": "Laguna Los Horcones, Provincia de Buenos Aires, Argentina", "Lat": "-37.066528", "Long": "-56.987333", "Alerta": 3, "AS2": 3, "AS3": 3, "S2 Fecha": "2026-05-19", "S3 Fecha": "2026-05-20", "Dif": 0, "info": "Alerta naranja, riesgo moderado a alto, estable" }, "geometry": { "type": "Point", "coordinates": [ -56.987333, -37.066528 ] } },
{ "type": "Feature", "properties": { "MUNICIPIO": "General Madariaga", "PUNTO": "Laguna La Salada Grande", "NOMBRE CON": "Reserva natural Laguna Salada Grande, General Juan Madariaga, Provincia de Buenos Aires, Argentina", "Lat": "-36.891111", "Long": "-56.961667", "Alerta": 3, "AS2": 3, "AS3": 3, "S2 Fecha": "2026-05-19", "S3 Fecha": "2026-05-20", "Dif": 0, "info": "Alerta naranja, riesgo moderado a alto, estable" }, "geometry": { "type": "Point", "coordinates": [ -56.961667, -36.891111 ] } },
{ "type": "Feature", "properties": { "MUNICIPIO": "General Pinto", "PUNTO": "Laguna La Salada", "NOMBRE CON": "Laguna La Salada, General Pinto, Provincia de Buenos Aires, Argentina", "Lat": "-34.739", "Long": "-62.211361", "Alerta": 3, "AS2": 3, "AS3": 1, "S2 Fecha": "2026-05-20", "S3 Fecha": "2026-05-20", "Dif": -1, "info": "Alerta naranja, riesgo moderado a alto, en disminución" }, "geometry": { "type": "Point", "coordinates": [ -62.211361, -34.739 ] } },
{ "type": "Feature", "properties": { "MUNICIPIO": "Guaminí", "PUNTO": "Laguna del Monte", "NOMBRE CON": "Laguna del Monte, Guaminí, Provincia de Buenos Aires, Argentina", "Lat": "-37.020806", "Long": "-62.476722", "Alerta": 1, "AS2": 1, "AS3": 1, "S2 Fecha": "2026-05-20", "S3 Fecha": "2026-05-20", "Dif": 0, "info": "Alerta verde, riesgo nulo a bajo y estable" }, "geometry": { "type": "Point", "coordinates": [ -62.476722, -37.020806 ] } },
{ "type": "Feature", "properties": { "MUNICIPIO": "Guaminí", "PUNTO": "Laguna Cochicó", "NOMBRE CON": "Laguna Cochico, Guaminí, Provincia de Buenos Aires, Argentina", "Lat": "-36.944972", "Long": "-62.314556", "Alerta": 1, "AS2": 1, "AS3": 1, "S2 Fecha": "2026-05-20", "S3 Fecha": "2026-05-20", "Dif": 0, "info": "Alerta verde, riesgo nulo a bajo y estable" }, "geometry": { "type": "Point", "coordinates": [ -62.314556, -36.944972 ] } },
{ "type": "Feature", "properties": { "MUNICIPIO": "Junín", "PUNTO": "Laguna de Gómez- Espigon 1", "NOMBRE CON": "Laguna de Gómez, Provincia de Buenos Aires, Argentina", "Lat": "-34.660444", "Long": "-61.023583", "Alerta": 3, "AS2": 3, "AS3": 3, "S2 Fecha": "2026-05-20", "S3 Fecha": "2026-05-20", "Dif": 0, "info": "Alerta naranja, riesgo moderado a alto, estable" }, "geometry": { "type": "Point", "coordinates": [ -61.023583, -34.660444 ] } },
{ "type": "Feature", "properties": { "MUNICIPIO": "Junín", "PUNTO": "laguna de Gomez, museo Mumpa", "NOMBRE CON": null, "Lat": "-34.663417", "Long": "-61.019389", "Alerta": 3, "AS2": 3, "AS3": 3, "S2 Fecha": "2026-05-20", "S3 Fecha": "2026-05-20", "Dif": 0, "info": "Alerta naranja, riesgo moderado a alto, estable" }, "geometry": { "type": "Point", "coordinates": [ -61.019389, -34.663417 ] } },
{ "type": "Feature", "properties": { "MUNICIPIO": "Junín", "PUNTO": "laguna de gomez, alquiler kayak", "NOMBRE CON": null, "Lat": "-34.659611", "Long": "-61.027583", "Alerta": 3, "AS2": 3, "AS3": 3, "S2 Fecha": "2026-05-20", "S3 Fecha": "2026-05-20", "Dif": 0, "info": "Alerta naranja, riesgo moderado a alto, estable" }, "geometry": { "type": "Point", "coordinates": [ -61.027583, -34.659611 ] } },
{ "type": "Feature", "properties": { "MUNICIPIO": "La Plata", "PUNTO": "Lago del Bosque", "NOMBRE CON": "Lago del Bosque, Avenida Iraola, La Plata, Provincia de Buenos Aires, Argentina", "Lat": "-34.910250", "Long": "-57.938028", "Alerta": 1, "AS2": 1, "AS3": null, "S2 Fecha": "2026-05-19", "S3 Fecha": "2026-05-20", "Dif": 0, "info": "Alerta verde, riesgo nulo a bajo y estable" }, "geometry": { "type": "Point", "coordinates": [ -57.938028, -34.91025 ] } },
{ "type": "Feature", "properties": { "MUNICIPIO": "Laprida", "PUNTO": "Laguna del Paraíso", "NOMBRE CON": "Laguna del Paraiso, Laprida, Provincia de Buenos Aires, Argentina", "Lat": "-37.567750", "Long": "-60.800972", "Alerta": 1, "AS2": 1, "AS3": 1, "S2 Fecha": "2026-05-17", "S3 Fecha": "2026-05-20", "Dif": 0, "info": "Alerta verde, riesgo nulo a bajo y estable" }, "geometry": { "type": "Point", "coordinates": [ -60.800972, -37.56775 ] } },
{ "type": "Feature", "properties": { "MUNICIPIO": "Las Flores", "PUNTO": "Laguna del Difunto Manuel", "NOMBRE CON": "Laguna del Difunto Manuel, Las Flores, Provincia de Buenos Aires, Argentina", "Lat": "-36.009417", "Long": "-59.075500", "Alerta": 1, "AS2": null, "AS3": 1, "S2 Fecha": "2026-05-17", "S3 Fecha": "2026-05-20", "Dif": 0, "info": "Alerta verde, riesgo nulo a bajo y estable" }, "geometry": { "type": "Point", "coordinates": [ -59.0755, -36.009417 ] } },
{ "type": "Feature", "properties": { "MUNICIPIO": "Lezama", "PUNTO": "Laguna Chis Chis", "NOMBRE CON": "Laguna Chis Chis, Provincia de Buenos Aires, Argentina", "Lat": "-35.756222", "Long": "-57.938222", "Alerta": 4, "AS2": 4, "AS3": 4, "S2 Fecha": "2026-05-19", "S3 Fecha": "2026-05-20", "Dif": 0, "info": "Alerta roja, riesgo alto, estable" }, "geometry": { "type": "Point", "coordinates": [ -57.938222, -35.756222 ] } },
{ "type": "Feature", "properties": { "MUNICIPIO": "Lezama", "PUNTO": "Laguna Tablillas", "NOMBRE CON": "Laguna la Tablilla, Provincia de Buenos Aires, Argentina", "Lat": "-35.808111", "Long": "-58.046417", "Alerta": 4, "AS2": 4, "AS3": 4, "S2 Fecha": "2026-05-19", "S3 Fecha": "2026-05-20", "Dif": 0, "info": "Alerta roja, riesgo alto, estable" }, "geometry": { "type": "Point", "coordinates": [ -58.046417, -35.808111 ] } },
{ "type": "Feature", "properties": { "MUNICIPIO": "Lezama", "PUNTO": "Laguna Las Barrancas", "NOMBRE CON": "Laguna las Barrancas, Provincia de Buenos Aires, Argentina", "Lat": "-35.907111", "Long": "-58.043944", "Alerta": 4, "AS2": 4, "AS3": 4, "S2 Fecha": "2026-05-19", "S3 Fecha": "2026-05-20", "Dif": 0, "info": "Alerta roja, riesgo alto, estable" }, "geometry": { "type": "Point", "coordinates": [ -58.043944, -35.907111 ] } },
{ "type": "Feature", "properties": { "MUNICIPIO": "Lobos", "PUNTO": "Laguna de Lobos", "NOMBRE CON": "Laguna de Lobos, Provincia de Buenos Aires, Argentina", "Lat": "-35.275611", "Long": "-59.129250", "Alerta": 4, "AS2": 4, "AS3": 4, "S2 Fecha": "2026-05-17", "S3 Fecha": "2026-05-20", "Dif": 0, "info": "Alerta roja, riesgo alto, estable" }, "geometry": { "type": "Point", "coordinates": [ -59.12925, -35.275611 ] } },
{ "type": "Feature", "properties": { "MUNICIPIO": "Magdalena", "PUNTO": "Balneario Magdalena", "NOMBRE CON": "Club de Nautica y Pesca de Magdalena, Balneario, Magdalena, Provincia de Buenos Aires, Argentina", "Lat": "-35.030750", "Long": "-57.505556", "Alerta": 1, "AS2": 1, "AS3": 1, "S2 Fecha": "2026-05-19", "S3 Fecha": "2026-05-20", "Dif": 0, "info": "Alerta verde, riesgo nulo a bajo y estable" }, "geometry": { "type": "Point", "coordinates": [ -57.505556, -35.03075 ] } },
{ "type": "Feature", "properties": { "MUNICIPIO": "Magdalena", "PUNTO": "Balneario Atalaya", "NOMBRE CON": null, "Lat": "-35.013917", "Long": "-57.534056", "Alerta": 1, "AS2": 1, "AS3": 1, "S2 Fecha": "2026-05-19", "S3 Fecha": "2026-05-20", "Dif": 0, "info": "Alerta verde, riesgo nulo a bajo y estable" }, "geometry": { "type": "Point", "coordinates": [ -57.534056, -35.013917 ] } },
{ "type": "Feature", "properties": { "MUNICIPIO": "Monte Hermoso", "PUNTO": "Laguna Sauce Grande", "NOMBRE CON": "Laguna Sauce Grande, Provincia de Buenos Aires, Argentina", "Lat": "-38.934333", "Long": "-61.383083", "Alerta": 3, "AS2": 3, "AS3": 3, "S2 Fecha": "2026-05-17", "S3 Fecha": "2026-05-20", "Dif": 0, "info": "Alerta naranja, riesgo moderado a alto, estable" }, "geometry": { "type": "Point", "coordinates": [ -61.383083, -38.934333 ] } },
{ "type": "Feature", "properties": { "MUNICIPIO": "Navarro", "PUNTO": "Club de Pesca", "NOMBRE CON": "Laguna de Navarro, Provincia de Buenos Aires, Argentina", "Lat": "-35.012528", "Long": "-59.28575", "Alerta": 3, "AS2": 3, "AS3": 1, "S2 Fecha": "2026-05-17", "S3 Fecha": "2026-05-20", "Dif": -1, "info": "Alerta naranja, riesgo moderado a alto, en disminución" }, "geometry": { "type": "Point", "coordinates": [ -59.28575, -35.012528 ] } },
{ "type": "Feature", "properties": { "MUNICIPIO": "9 de julio", "PUNTO": "Laguna del Parque Gral San Martín", "NOMBRE CON": "Parque Gral. San Martin, 9 De Julio, Buenos Aires, 9 de Julio, Provincia de Buenos Aires, Argentina", "Lat": "-35.439194", "Long": "-60.876389", "Alerta": 4, "AS2": 4, "AS3": null, "S2 Fecha": "2026-05-20", "S3 Fecha": "2026-05-20", "Dif": 0, "info": "Alerta roja, riesgo alto, estable" }, "geometry": { "type": "Point", "coordinates": [ -60.876389, -35.439194 ] } },
{ "type": "Feature", "properties": { "MUNICIPIO": "Pehuajó", "PUNTO": "Laguna La Salada", "NOMBRE CON": "Laguna: La Salada, Pehuajó, Provincia de Buenos Aires, Argentina", "Lat": "-35.778139", "Long": "-61.910389", "Alerta": 3, "AS2": 3, "AS3": 1, "S2 Fecha": "2026-05-20", "S3 Fecha": "2026-05-20", "Dif": -1, "info": "Alerta naranja, riesgo moderado a alto, en disminución" }, "geometry": { "type": "Point", "coordinates": [ -61.910389, -35.778139 ] } },
{ "type": "Feature", "properties": { "MUNICIPIO": "Pehuajó", "PUNTO": "Laguna Cañadon", "NOMBRE CON": "laguna cañadon, Deán Funes, Pehuajó, Provincia de Buenos Aires, Argentina", "Lat": "-35.766944", "Long": "-61.855167", "Alerta": 2, "AS2": 2, "AS3": 1, "S2 Fecha": "2026-05-20", "S3 Fecha": "2026-05-20", "Dif": -1, "info": "Alerta amarillo, riesgo bajo a moderado, en disminución" }, "geometry": { "type": "Point", "coordinates": [ -61.855167, -35.766944 ] } },
{ "type": "Feature", "properties": { "MUNICIPIO": "Quilmes", "PUNTO": "Pejerrey Club", "NOMBRE CON": "Buffet del Pejerrey Club, Quilmes, Provincia de Buenos Aires, Argentina", "Lat": "-34.708944", "Long": "-58.221000", "Alerta": 1, "AS2": 1, "AS3": 1, "S2 Fecha": "2026-05-17", "S3 Fecha": "2026-05-20", "Dif": 0, "info": "Alerta verde, riesgo nulo a bajo y estable" }, "geometry": { "type": "Point", "coordinates": [ -58.221, -34.708944 ] } },
{ "type": "Feature", "properties": { "MUNICIPIO": "Ramallo", "PUNTO": "Bajada Calle Gomendio", "NOMBRE CON": null, "Lat": "-33.480000", "Long": "-59.994917", "Alerta": 1, "AS2": 1, "AS3": 1, "S2 Fecha": "2026-05-20", "S3 Fecha": "2026-05-20", "Dif": 0, "info": "Alerta verde, riesgo nulo a bajo y estable" }, "geometry": { "type": "Point", "coordinates": [ -59.994917, -33.48 ] } },
{ "type": "Feature", "properties": { "MUNICIPIO": "Rivadavia", "PUNTO": "Lag Cuero de Zorro", "NOMBRE CON": null, "Lat": "-35.755333", "Long": "-62.912778", "Alerta": 2, "AS2": 2, "AS3": 4, "S2 Fecha": "2026-05-20", "S3 Fecha": "2026-05-20", "Dif": 1, "info": "Alerta amarillo, riesgo bajo a moderado, en aumento" }, "geometry": { "type": "Point", "coordinates": [ -62.912778, -35.755333 ] } },
{ "type": "Feature", "properties": { "MUNICIPIO": "Roque Pérez", "PUNTO": "Río Salado", "NOMBRE CON": null, "Lat": "-35.374833", "Long": "-59.324083", "Alerta": 3, "AS2": 3, "AS3": null, "S2 Fecha": "2026-05-17", "S3 Fecha": "2026-05-20", "Dif": 0, "info": "Alerta naranja, riesgo moderado a alto, estable" }, "geometry": { "type": "Point", "coordinates": [ -59.324083, -35.374833 ] } },
{ "type": "Feature", "properties": { "MUNICIPIO": "San Fernando", "PUNTO": "Parque Nautico", "NOMBRE CON": "Parque Nautico San Fernando, Victoria, Provincia de Buenos Aires, Argentina", "Lat": "-34.442528", "Long": "-58.530556", "Alerta": 1, "AS2": 1, "AS3": 1, "S2 Fecha": "2026-05-17", "S3 Fecha": "2026-05-20", "Dif": 0, "info": "Alerta verde, riesgo nulo a bajo y estable" }, "geometry": { "type": "Point", "coordinates": [ -58.530556, -34.442528 ] } },
{ "type": "Feature", "properties": { "MUNICIPIO": "SAN ISIDRO", "PUNTO": "ESPIG12", "NOMBRE CON": "Espigon, San Isidro", "Lat": "-34.450278", "Long": "-58.504472", "Alerta": 1, "AS2": null, "AS3": 1, "S2 Fecha": "2026-05-17", "S3 Fecha": "2026-05-20", "Dif": 0, "info": "Alerta verde, riesgo nulo a bajo y estable" }, "geometry": { "type": "Point", "coordinates": [ -58.504472, -34.450278 ] } },
{ "type": "Feature", "properties": { "MUNICIPIO": "SAN ISIDRO", "PUNTO": "PACHE2", "NOMBRE CON": "Pacheco, San Isidro", "Lat": "-34.484361", "Long": "-58.479472", "Alerta": 1, "AS2": 1, "AS3": 1, "S2 Fecha": "2026-05-17", "S3 Fecha": "2026-05-20", "Dif": 0, "info": "Alerta verde, riesgo nulo a bajo y estable" }, "geometry": { "type": "Point", "coordinates": [ -58.479472, -34.484361 ] } },
{ "type": "Feature", "properties": { "MUNICIPIO": "San Miguel del Monte", "PUNTO": "Laguna de Monte", "NOMBRE CON": "San Miguel del Monte, San Miguel del Monte, Monte, Provincia de Buenos Aires, Argentina", "Lat": "-35.461583", "Long": "-58.805472", "Alerta": 4, "AS2": 4, "AS3": 4, "S2 Fecha": "2026-05-17", "S3 Fecha": "2026-05-20", "Dif": 0, "info": "Alerta roja, riesgo alto, estable" }, "geometry": { "type": "Point", "coordinates": [ -58.805472, -35.461583 ] } },
{ "type": "Feature", "properties": { "MUNICIPIO": "Tigre", "PUNTO": "RSARC (Río Sarmiento entre Arroyo Reyes y Curubica)", "NOMBRE CON": null, "Lat": "-34.385730", "Long": "-58.57797", "Alerta": 1, "AS2": 1, "AS3": 1, "S2 Fecha": "2026-05-17", "S3 Fecha": "2026-05-20", "Dif": 0, "info": "Alerta verde, riesgo nulo a bajo y estable" }, "geometry": { "type": "Point", "coordinates": [ -58.57797, -34.38573 ] } },
{ "type": "Feature", "properties": { "MUNICIPIO": "Tigre", "PUNTO": "CA (Canal Arias y Río Paraná)", "NOMBRE CON": null, "Lat": "-34.272861", "Long": "-58.654972", "Alerta": 1, "AS2": null, "AS3": 1, "S2 Fecha": null, "S3 Fecha": "2026-05-20", "Dif": 0, "info": "Alerta verde, riesgo nulo a bajo y estable" }, "geometry": { "type": "Point", "coordinates": [ -58.654972, -34.272861 ] } },
{ "type": "Feature", "properties": { "MUNICIPIO": "Tigre", "PUNTO": "AVV (Arroyo Abravieja)", "NOMBRE CON": null, "Lat": "-34.382361", "Long": "-58.558833", "Alerta": 1, "AS2": 1, "AS3": 1, "S2 Fecha": "2026-05-17", "S3 Fecha": "2026-05-20", "Dif": 0, "info": "Alerta verde, riesgo nulo a bajo y estable" }, "geometry": { "type": "Point", "coordinates": [ -58.558833, -34.382361 ] } },
{ "type": "Feature", "properties": { "MUNICIPIO": "Tigre", "PUNTO": "RSALP (Arroyo La Perla y Río Sarmiento)", "NOMBRE CON": null, "Lat": "-34.382361", "Long": "-58.558833", "Alerta": 1, "AS2": null, "AS3": 1, "S2 Fecha": "2026-05-17", "S3 Fecha": "2026-05-20", "Dif": 0, "info": "Alerta verde, riesgo nulo a bajo y estable" }, "geometry": { "type": "Point", "coordinates": [ -58.558833, -34.382361 ] } },
{ "type": "Feature", "properties": { "MUNICIPIO": "Tigre", "PUNTO": "D5 (Arroyo Gelvez)", "NOMBRE CON": null, "Lat": "-34.368694", "Long": "-58.592250", "Alerta": 1, "AS2": 1, "AS3": 1, "S2 Fecha": "2026-05-17", "S3 Fecha": "2026-05-20", "Dif": 0, "info": "Alerta verde, riesgo nulo a bajo y estable" }, "geometry": { "type": "Point", "coordinates": [ -58.59225, -34.368694 ] } },
{ "type": "Feature", "properties": { "MUNICIPIO": "Tornquist", "PUNTO": "ZONA  21(ARROYO Sauce Grande)", "NOMBRE CON": "ZONA  21(ARROYO Sauce Grande)", "Lat": "-38.336694", "Long": "-61.736444", "Alerta": 1, "AS2": 1, "AS3": 3, "S2 Fecha": "2026-05-17", "S3 Fecha": "2026-05-20", "Dif": 1, "info": "Alerta verde, riesgo nulo a bajo pero en aumento" }, "geometry": { "type": "Point", "coordinates": [ -61.736444, -38.336694 ] } },
{ "type": "Feature", "properties": { "MUNICIPIO": "Tornquist", "PUNTO": "ZONA DE PESCA sector 2", "NOMBRE CON": "ZONA DE PESCA sector 2", "Lat": "-38.348556", "Long": "-61.737472", "Alerta": 2, "AS2": 2, "AS3": 1, "S2 Fecha": "2026-05-17", "S3 Fecha": "2026-05-20", "Dif": -1, "info": "Alerta amarillo, riesgo bajo a moderado, en disminución" }, "geometry": { "type": "Point", "coordinates": [ -61.737472, -38.348556 ] } },
{ "type": "Feature", "properties": { "MUNICIPIO": "Trenque Lauquen", "PUNTO": "Laguna Hinojo", "NOMBRE CON": "Laguna Hinojo, Trenque Lauquen, Provincia de Buenos Aires, Argentina", "Lat": "-35.906444", "Long": "-62.479306", "Alerta": 4, "AS2": 4, "AS3": 1, "S2 Fecha": "2026-05-20", "S3 Fecha": "2026-05-20", "Dif": -1, "info": "Alerta roja, riesgo alto, en disminución" }, "geometry": { "type": "Point", "coordinates": [ -62.479306, -35.906444 ] } },
{ "type": "Feature", "properties": { "MUNICIPIO": "Veinticinco de Mayo", "PUNTO": "Laguna Las Mulitas", "NOMBRE CON": "Laguna Las Mulitas, 25 de Mayo, Provincia de Buenos Aires, Argentina", "Lat": "-35.437639", "Long": "-60.156361", "Alerta": 1, "AS2": 1, "AS3": null, "S2 Fecha": "2026-05-17", "S3 Fecha": "2026-05-20", "Dif": 0, "info": "Alerta verde, riesgo nulo a bajo y estable" }, "geometry": { "type": "Point", "coordinates": [ -60.156361, -35.437639 ] } },
{ "type": "Feature", "properties": { "MUNICIPIO": "Veinticinco de Mayo", "PUNTO": "Rio Salado Ruta 30", "NOMBRE CON": "Río Salado. Puente Moquehua", "Lat": "-35.222139", "Long": "-59.717917", "Alerta": 3, "AS2": 3, "AS3": null, "S2 Fecha": "2026-05-17", "S3 Fecha": "2026-05-20", "Dif": 0, "info": "Alerta naranja, riesgo moderado a alto, estable" }, "geometry": { "type": "Point", "coordinates": [ -59.717917, -35.222139 ] } },
{ "type": "Feature", "properties": { "MUNICIPIO": "Vicente López", "PUNTO": "Bajada de Vergara", "NOMBRE CON": "Paseo de la Costa, Vicente López, Provincia de Buenos Aires, Argentina", "Lat": "-34.518306", "Long": "-58.469722", "Alerta": 1, "AS2": null, "AS3": 1, "S2 Fecha": "2026-05-17", "S3 Fecha": "2026-05-20", "Dif": 0, "info": "Alerta verde, riesgo nulo a bajo y estable" }, "geometry": { "type": "Point", "coordinates": [ -58.469722, -34.518306 ] } }
]
}
