{
"type": "FeatureCollection",
"name": "mi-capa-ada",
"crs": { "type": "name", "properties": { "name": "urn:ogc:def:crs:OGC:1.3:CRS84" } },
"features": [
{ "type": "Feature", "properties": { "CoPunto": "PUAN", "Nombre": "Laguna Puan", "Municipio": "Puan", "Tipo": "Laguna", "Laguna": "Laguna Puan", "Alerta": 1, "S2 Fecha": "5/25/2026", "S3 Fecha": "5/30/2026", "Dif": 0, "info": "Alerta verde, riesgo nulo a bajo y estable", "Acciones": "🎣✅, 🏊‍✅,🛶 ✅" }, "geometry": { "type": "Point", "coordinates": [ -62.801683474524971, -37.557180659074078 ] } },
{ "type": "Feature", "properties": { "CoPunto": "LCHIL", "Nombre": "Laguna los Chilenos", "Municipio": "Saavedra", "Tipo": "Laguna", "Laguna": "Laguna Los Chilenos", "Alerta": 1, "S2 Fecha": "5/25/2026", "S3 Fecha": "5/30/2026", "Dif": 0, "info": "Alerta verde, riesgo nulo a bajo y estable", "Acciones": "🎣✅, 🏊‍✅,🛶 ✅" }, "geometry": { "type": "Point", "coordinates": [ -62.566592, -37.882703548219169 ] } },
{ "type": "Feature", "properties": { "CoPunto": "VDO", "Nombre": "Laguna Del Venado", "Municipio": "Guamini", "Tipo": "Laguna", "Laguna": "Laguna Del Venado", "Alerta": 2, "S2 Fecha": "5/25/2026", "S3 Fecha": "5/30/2026", "Dif": -1, "info": "Alerta amarillo, riesgo bajo a moderado, en disminución", "Acciones": "🎣✅, 🐟🚫, 🏊⚠️,🛶⚠, 🚱️" }, "geometry": { "type": "Point", "coordinates": [ -62.626374472478915, -37.064198424691064 ] } },
{ "type": "Feature", "properties": { "CoPunto": "BGRDE", "Nombre": "Laguna Blanca Grande", "Municipio": "Olavarria", "Tipo": "Laguna", "Laguna": "Laguna Blanca Grande", "Alerta": 1, "S2 Fecha": "5/22/2026", "S3 Fecha": "5/30/2026", "Dif": 0, "info": "Alerta verde, riesgo nulo a bajo y estable", "Acciones": "🎣✅, 🏊‍✅,🛶 ✅" }, "geometry": { "type": "Point", "coordinates": [ -60.898894948473597, -36.486416109942553 ] } },
{ "type": "Feature", "properties": { "CoPunto": "RSN1", "Nombre": "Rio Salado Puente R3", "Municipio": "25 de Mayo", "Tipo": "Rio", "Laguna": "Rio Salado Puente Ruta Tres", "Alerta": 3, "S2 Fecha": "5/22/2026", "S3 Fecha": "5/30/2026", "Dif": 0, "info": "Alerta naranja, riesgo moderado a alto, estable", "Acciones": "🎣🚫, 🐟🚫, 🏊🚫,🛶🚫, 🚱️" }, "geometry": { "type": "Point", "coordinates": [ -59.71791297, -35.22213683 ] } },
{ "type": "Feature", "properties": { "CoPunto": "PSM1", "Nombre": "Laguna del Parque Gral. San Martín", "Municipio": "9 de Julio", "Tipo": "Laguna", "Laguna": "Gral San Martin", "Alerta": 1, "S2 Fecha": "5/22/2026", "S3 Fecha": "5/30/2026", "Dif": 0, "info": "Alerta verde, riesgo nulo a bajo y estable", "Acciones": "🎣✅, 🏊‍✅,🛶 ✅" }, "geometry": { "type": "Point", "coordinates": [ -60.876439738442791, -35.438888971259274 ] } },
{ "type": "Feature", "properties": { "CoPunto": "EPEC", "Nombre": "Epecuen Adolfo  Alsina", "Municipio": "Adolfo Alsina", "Tipo": "Laguna", "Laguna": "Laguna Epecuen", "Alerta": 1, "S2 Fecha": "5/25/2026", "S3 Fecha": "5/30/2026", "Dif": 0, "info": "Alerta verde, riesgo nulo a bajo y estable", "Acciones": "🎣✅, 🏊‍✅,🛶 ✅" }, "geometry": { "type": "Point", "coordinates": [ -62.8466267, -37.14601186 ] } },
{ "type": "Feature", "properties": { "CoPunto": "RIO2", "Nombre": "Puente Achupallas Indacochea RIo Río Salado - Alberti", "Municipio": "Alberti", "Tipo": "Rio", "Laguna": "Puente Achupallas Indacochea Rio Salado", "Alerta": 3, "S2 Fecha": "5/30/2026", "S3 Fecha": "5/30/2026", "Dif": -1, "info": "Alerta naranja, riesgo moderado a alto, en disminución", "Acciones": "🎣🚫, 🐟🚫, 🏊🚫,🛶🚫, 🚱️" }, "geometry": { "type": "Point", "coordinates": [ -60.110403, -35.0887449 ] } },
{ "type": "Feature", "properties": { "CoPunto": "RIO1", "Nombre": "Rio Salado - Puente Ladaga, Alberti_Alberti", "Municipio": "Alberti", "Tipo": "Rio", "Laguna": "Rio Salado Puente Ladaga Alberti", "Alerta": 3, "S2 Fecha": "5/30/2026", "S3 Fecha": "5/30/2026", "Dif": 0, "info": "Alerta naranja, riesgo moderado a alto, estable", "Acciones": "🎣🚫, 🐟🚫, 🏊🚫,🛶🚫, 🚱️" }, "geometry": { "type": "Point", "coordinates": [ -60.24290343, -35.06801733 ] } },
{ "type": "Feature", "properties": { "CoPunto": "RIO3", "Nombre": "Rio Salado - Ruta 5", "Municipio": "Alberti", "Tipo": "Rio", "Laguna": "Rio Salado Ruta Cinco", "Alerta": 3, "S2 Fecha": "5/30/2026", "S3 Fecha": "5/30/2026", "Dif": -1, "info": "Alerta naranja, riesgo moderado a alto, en disminución", "Acciones": "🎣🚫, 🐟🚫, 🏊🚫,🛶🚫, 🚱️" }, "geometry": { "type": "Point", "coordinates": [ -60.292083, -35.061111 ] } },
{ "type": "Feature", "properties": { "CoPunto": "RDLP", "Nombre": "Rio de La Plata  Avellaneda", "Municipio": "Avellaneda", "Tipo": "Rio", "Laguna": "Rio De La Plata", "Alerta": 1, "S2 Fecha": "5/22/2026", "S3 Fecha": "5/30/2026", "Dif": 0, "info": "Alerta verde, riesgo nulo a bajo y estable", "Acciones": "🎣✅, 🏊‍✅,🛶 ✅" }, "geometry": { "type": "Point", "coordinates": [ -58.29888937, -34.66026369 ] } },
{ "type": "Feature", "properties": { "CoPunto": "SALA2", "Nombre": "Laguna La Saladita Sur", "Municipio": "Avellaneda", "Tipo": "Laguna", "Laguna": "Laguna La Saladita Sur", "Alerta": 4, "S2 Fecha": "5/22/2026", "S3 Fecha": "5/30/2026", "Dif": -1, "info": "Alerta roja, riesgo alto, en disminución", "Acciones": "🎣🚫, 🐟🚫, 🏊🚫,🛶🚫, 🚱️" }, "geometry": { "type": "Point", "coordinates": [ -58.34046988, -34.67242443 ] } },
{ "type": "Feature", "properties": { "CoPunto": "LAB", "Nombre": "La Laguna La Brava", "Municipio": "Balcarce", "Tipo": "Laguna", "Laguna": "Laguna La Brava", "Alerta": 3, "S2 Fecha": null, "S3 Fecha": "5/30/2026", "Dif": 0, "info": "Alerta naranja, riesgo moderado a alto, estable", "Acciones": "🎣🚫, 🐟🚫, 🏊🚫,🛶🚫, 🚱️" }, "geometry": { "type": "Point", "coordinates": [ -57.97720112, -37.88000183 ] } },
{ "type": "Feature", "properties": { "CoPunto": "ELCH", "Nombre": "Laguna El Chifle", "Municipio": "Benito Juarez", "Tipo": "Laguna", "Laguna": "Laguna El Chifle", "Alerta": 4, "S2 Fecha": "5/22/2026", "S3 Fecha": "5/30/2026", "Dif": 0, "info": "Alerta roja, riesgo alto, estable", "Acciones": "🎣🚫, 🐟🚫, 🏊🚫,🛶🚫, 🚱️" }, "geometry": { "type": "Point", "coordinates": [ -59.79925, -37.406806 ] } },
{ "type": "Feature", "properties": { "CoPunto": "SANA", "Nombre": "Laguna San Antonio", "Municipio": "Benito Juarez", "Tipo": "Laguna", "Laguna": "Laguna San Antonio", "Alerta": 4, "S2 Fecha": "5/22/2026", "S3 Fecha": "5/30/2026", "Dif": 0, "info": "Alerta roja, riesgo alto, estable", "Acciones": "🎣🚫, 🐟🚫, 🏊🚫,🛶🚫, 🚱️" }, "geometry": { "type": "Point", "coordinates": [ -59.874806, -37.629917 ] } },
{ "type": "Feature", "properties": { "CoPunto": "BALN", "Nombre": "Rio de La Plata Balneario Berazategui", "Municipio": "Berazategui", "Tipo": "Rio", "Laguna": "Rio De La Plata", "Alerta": 1, "S2 Fecha": "5/22/2026", "S3 Fecha": "5/30/2026", "Dif": 0, "info": "Alerta verde, riesgo nulo a bajo y estable", "Acciones": "🎣✅, 🏊‍✅,🛶 ✅" }, "geometry": { "type": "Point", "coordinates": [ -58.09891056, -34.73645769 ] } },
{ "type": "Feature", "properties": { "CoPunto": "SGO", "Nombre": "Rio Parana Berisso", "Municipio": "Berisso", "Tipo": "Rio", "Laguna": "Rio Parana", "Alerta": 1, "S2 Fecha": null, "S3 Fecha": "5/30/2026", "Dif": 0, "info": "Alerta verde, riesgo nulo a bajo y estable", "Acciones": "🎣✅, 🏊‍✅,🛶 ✅" }, "geometry": { "type": "Point", "coordinates": [ -57.88881991, -34.85225838 ] } },
{ "type": "Feature", "properties": { "CoPunto": "BERI", "Nombre": "Rio de La Plata Balnerio Berisso-2", "Municipio": "Berisso", "Tipo": "Rio", "Laguna": "Rio De La Plata", "Alerta": 1, "S2 Fecha": "5/22/2026", "S3 Fecha": "5/30/2026", "Dif": 0, "info": "Alerta verde, riesgo nulo a bajo y estable", "Acciones": "🎣✅, 🏊‍✅,🛶 ✅" }, "geometry": { "type": "Point", "coordinates": [ -57.737605251849139, -34.910371474377911 ] } },
{ "type": "Feature", "properties": { "CoPunto": "PALO", "Nombre": "Rio de La Plata Palo Blanco Berisso-3", "Municipio": "Berisso", "Tipo": "Rio", "Laguna": "Rio De La Plata", "Alerta": 1, "S2 Fecha": "5/22/2026", "S3 Fecha": "5/30/2026", "Dif": 0, "info": "Alerta verde, riesgo nulo a bajo y estable", "Acciones": "🎣✅, 🏊‍✅,🛶 ✅" }, "geometry": { "type": "Point", "coordinates": [ -57.83581294, -34.85263799 ] } },
{ "type": "Feature", "properties": { "CoPunto": "RIO4", "Nombre": "Rio Santiago Berisso - 4", "Municipio": "Berisso", "Tipo": "Rio", "Laguna": "Rio Santiago", "Alerta": 1, "S2 Fecha": null, "S3 Fecha": "5/30/2026", "Dif": 0, "info": "Alerta verde, riesgo nulo a bajo y estable", "Acciones": "🎣✅, 🏊‍✅,🛶 ✅" }, "geometry": { "type": "Point", "coordinates": [ -57.87943121, -34.83406603 ] } },
{ "type": "Feature", "properties": { "CoPunto": "BAL", "Nombre": "Rio de La Plata - La Balandra", "Municipio": "Berisso", "Tipo": "Rio", "Laguna": "Rio De La Plata", "Alerta": 1, "S2 Fecha": "5/22/2026", "S3 Fecha": "5/30/2026", "Dif": 0, "info": "Alerta verde, riesgo nulo a bajo y estable", "Acciones": "🎣✅, 🏊‍✅,🛶 ✅" }, "geometry": { "type": "Point", "coordinates": [ -57.713183362077423, -34.918873122984017 ] } },
{ "type": "Feature", "properties": { "CoPunto": "JCHO", "Nombre": "Laguna Juancho", "Municipio": "Bolivar", "Tipo": "Laguna", "Laguna": "Laguna De Juancho", "Alerta": 3, "S2 Fecha": "5/22/2026", "S3 Fecha": "5/30/2026", "Dif": 0, "info": "Alerta naranja, riesgo moderado a alto, estable", "Acciones": "🎣🚫, 🐟🚫, 🏊🚫,🛶🚫, 🚱️" }, "geometry": { "type": "Point", "coordinates": [ -61.50824282, -36.69663593 ] } },
{ "type": "Feature", "properties": { "CoPunto": "BRAG", "Nombre": "Laguna Bragado", "Municipio": "Bragado", "Tipo": "Laguna", "Laguna": "Laguna De Bragado", "Alerta": 3, "S2 Fecha": "5/30/2026", "S3 Fecha": "5/30/2026", "Dif": -1, "info": "Alerta naranja, riesgo moderado a alto, en disminución", "Acciones": "🎣🚫, 🐟🚫, 🏊🚫,🛶🚫, 🚱️" }, "geometry": { "type": "Point", "coordinates": [ -60.47505778, -35.08147353 ] } },
{ "type": "Feature", "properties": { "CoPunto": "ROCH", "Nombre": "Camping De Rocha, Rocha", "Municipio": "Bragado", "Tipo": "Laguna", "Laguna": "Camping Laguna De Rocha", "Alerta": 3, "S2 Fecha": "5/30/2026", "S3 Fecha": "5/30/2026", "Dif": 0, "info": "Alerta naranja, riesgo moderado a alto, estable", "Acciones": "🎣🚫, 🐟🚫, 🏊🚫,🛶🚫, 🚱️" }, "geometry": { "type": "Point", "coordinates": [ -60.68567662, -34.69990796 ] } },
{ "type": "Feature", "properties": { "CoPunto": "ADE", "Nombre": "Laguna Adela", "Municipio": "Chascomus", "Tipo": "Laguna", "Laguna": "Laguna Adela", "Alerta": 4, "S2 Fecha": "5/22/2026", "S3 Fecha": "5/30/2026", "Dif": 0, "info": "Alerta roja, riesgo alto, estable", "Acciones": "🎣🚫, 🐟🚫, 🏊🚫,🛶🚫, 🚱️" }, "geometry": { "type": "Point", "coordinates": [ -57.99356866, -35.68609728 ] } },
{ "type": "Feature", "properties": { "CoPunto": "BURR", "Nombre": "Laguna del Burro", "Municipio": "Chascomus", "Tipo": "Laguna", "Laguna": "Laguna Del Burro", "Alerta": 4, "S2 Fecha": null, "S3 Fecha": "5/30/2026", "Dif": 0, "info": "Alerta roja, riesgo alto, estable", "Acciones": "🎣🚫, 🐟🚫, 🏊🚫,🛶🚫, 🚱️" }, "geometry": { "type": "Point", "coordinates": [ -57.92938006, -35.68509433 ] } },
{ "type": "Feature", "properties": { "CoPunto": "ESQ1", "Nombre": "Laguna Esquivel", "Municipio": "Chascomus", "Tipo": "Laguna", "Laguna": "Laguna Esquivel", "Alerta": 4, "S2 Fecha": "5/22/2026", "S3 Fecha": "5/30/2026", "Dif": 0, "info": "Alerta roja, riesgo alto, estable", "Acciones": "🎣🚫, 🐟🚫, 🏊🚫,🛶🚫, 🚱️" }, "geometry": { "type": "Point", "coordinates": [ -58.22290918, -35.79297381 ] } },
{ "type": "Feature", "properties": { "CoPunto": "CHAS2", "Nombre": "Laguna Chascomús", "Municipio": "Chascomus", "Tipo": "Laguna", "Laguna": "Laguna De Chascomus", "Alerta": 3, "S2 Fecha": "5/22/2026", "S3 Fecha": "5/30/2026", "Dif": 0, "info": "Alerta naranja, riesgo moderado a alto, estable", "Acciones": "🎣🚫, 🐟🚫, 🏊🚫,🛶🚫, 🚱️" }, "geometry": { "type": "Point", "coordinates": [ -58.00152607, -35.59030192 ] } },
{ "type": "Feature", "properties": { "CoPunto": "CHASMUELLE", "Nombre": "Muellle Laguna Chascomús", "Municipio": "Chascomus", "Tipo": "Laguna", "Laguna": "Laguna De Chascomus", "Alerta": 3, "S2 Fecha": "5/22/2026", "S3 Fecha": "5/30/2026", "Dif": 0, "info": "Alerta naranja, riesgo moderado a alto, estable", "Acciones": "🎣🚫, 🐟🚫, 🏊🚫,🛶🚫, 🚱️" }, "geometry": { "type": "Point", "coordinates": [ -58.027604, -35.59141631 ] } },
{ "type": "Feature", "properties": { "CoPunto": "LIM1", "Nombre": "La Laguna La Limipia", "Municipio": "Chascomus", "Tipo": "Laguna", "Laguna": "Laguna La Limpia", "Alerta": 1, "S2 Fecha": null, "S3 Fecha": "5/30/2026", "Dif": 0, "info": "Alerta verde, riesgo nulo a bajo y estable", "Acciones": "🎣✅, 🏊‍✅,🛶 ✅" }, "geometry": { "type": "Point", "coordinates": [ -57.81513465, -35.60999172 ] } },
{ "type": "Feature", "properties": { "CoPunto": "MUL1", "Nombre": "Laguna Las Mulas", "Municipio": "Chascomus", "Tipo": "Laguna", "Laguna": "Laguna Las Mulas", "Alerta": 1, "S2 Fecha": null, "S3 Fecha": "5/30/2026", "Dif": 0, "info": "Alerta verde, riesgo nulo a bajo y estable", "Acciones": "🎣✅, 🏊‍✅,🛶 ✅" }, "geometry": { "type": "Point", "coordinates": [ -57.90108163, -35.53351702 ] } },
{ "type": "Feature", "properties": { "CoPunto": "VIT1", "Nombre": "Laguna Vitel", "Municipio": "Chascomus", "Tipo": "Laguna", "Laguna": "Laguna Vitel", "Alerta": 4, "S2 Fecha": "5/22/2026", "S3 Fecha": "5/30/2026", "Dif": -1, "info": "Alerta roja, riesgo alto, en disminución", "Acciones": "🎣🚫, 🐟🚫, 🏊🚫,🛶🚫, 🚱️" }, "geometry": { "type": "Point", "coordinates": [ -58.110802, -35.52930325 ] } },
{ "type": "Feature", "properties": { "CoPunto": "YAS1", "Nombre": "Laguna Yasica", "Municipio": "Chascomus", "Tipo": "Laguna", "Laguna": "Laguna Yasica", "Alerta": 1, "S2 Fecha": null, "S3 Fecha": "5/30/2026", "Dif": 0, "info": "Alerta verde, riesgo nulo a bajo y estable", "Acciones": "🎣✅, 🏊‍✅,🛶 ✅" }, "geometry": { "type": "Point", "coordinates": [ -57.90670928, -35.5762537 ] } },
{ "type": "Feature", "properties": { "CoPunto": "RSCH", "Nombre": "Rio Salado Zona de recreo", "Municipio": "Chivilcoy", "Tipo": "Rio", "Laguna": "Rio Salado Zona De Recreo", "Alerta": 3, "S2 Fecha": "5/30/2026", "S3 Fecha": "5/30/2026", "Dif": 0, "info": "Alerta naranja, riesgo moderado a alto, estable", "Acciones": "🎣🚫, 🐟🚫, 🏊🚫,🛶🚫, 🚱️" }, "geometry": { "type": "Point", "coordinates": [ -59.95569496, -35.12473955 ] } },
{ "type": "Feature", "properties": { "CoPunto": "LGC", "Nombre": "Laguna Colón", "Municipio": "Colon", "Tipo": "Laguna", "Laguna": "Lago Colon", "Alerta": 3, "S2 Fecha": "5/22/2026", "S3 Fecha": "5/30/2026", "Dif": 0, "info": "Alerta naranja, riesgo moderado a alto, estable", "Acciones": "🎣🚫, 🐟🚫, 🏊🚫,🛶🚫, 🚱️" }, "geometry": { "type": "Point", "coordinates": [ -61.097298470306143, -33.920615779283416 ] } },
{ "type": "Feature", "properties": { "CoPunto": "DLP1", "Nombre": "Dique Las Piedras 1", "Municipio": "Coronel Pringles", "Tipo": "Dique", "Laguna": "Dique Las Piedras", "Alerta": 2, "S2 Fecha": "5/25/2026", "S3 Fecha": "5/30/2026", "Dif": -1, "info": "Alerta amarillo, riesgo bajo a moderado, en disminución", "Acciones": "🎣✅, 🐟🚫, 🏊⚠️,🛶⚠, 🚱️" }, "geometry": { "type": "Point", "coordinates": [ -61.74454826, -38.41975441 ] } },
{ "type": "Feature", "properties": { "CoPunto": "ELJ", "Nombre": "Laguna El Juancho", "Municipio": "Daireaux", "Tipo": "Laguna", "Laguna": "Laguna El Juancho", "Alerta": 1, "S2 Fecha": "5/22/2026", "S3 Fecha": "5/30/2026", "Dif": 0, "info": "Alerta verde, riesgo nulo a bajo y estable", "Acciones": "🎣✅, 🏊‍✅,🛶 ✅" }, "geometry": { "type": "Point", "coordinates": [ -61.55883592, -36.70867129 ] } },
{ "type": "Feature", "properties": { "CoPunto": "CLUB", "Nombre": "Rio de La Plata Club Pesca de Ensenada", "Municipio": "Ensenada", "Tipo": "Rio", "Laguna": "Rio De La Plata", "Alerta": 1, "S2 Fecha": "5/22/2026", "S3 Fecha": "5/30/2026", "Dif": 0, "info": "Alerta verde, riesgo nulo a bajo y estable", "Acciones": "🎣✅, 🏊‍✅,🛶 ✅" }, "geometry": { "type": "Point", "coordinates": [ -57.94353351, -34.82575485 ] } },
{ "type": "Feature", "properties": { "CoPunto": "CLUBR", "Nombre": "Rio Santiago Club Ensenada", "Municipio": "Ensenada", "Tipo": "Rio", "Laguna": "Rio Santiago", "Alerta": 2, "S2 Fecha": null, "S3 Fecha": "5/30/2026", "Dif": 0, "info": "Alerta amarillo, riesgo bajo a moderado, estable", "Acciones": "🎣✅, 🐟🚫, 🏊⚠️,🛶⚠, 🚱️" }, "geometry": { "type": "Point", "coordinates": [ -57.918268, -34.8397494 ] } },
{ "type": "Feature", "properties": { "CoPunto": "PERG", "Nombre": "Rio de La Plata Pergola Ensenada", "Municipio": "Ensenada", "Tipo": "Rio", "Laguna": "Rio De La Plata", "Alerta": 1, "S2 Fecha": "5/22/2026", "S3 Fecha": "5/30/2026", "Dif": 0, "info": "Alerta verde, riesgo nulo a bajo y estable", "Acciones": "🎣✅, 🏊‍✅,🛶 ✅" }, "geometry": { "type": "Point", "coordinates": [ -57.97633847, -34.79811973 ] } },
{ "type": "Feature", "properties": { "CoPunto": "PARA", "Nombre": "Rio de La Plata Parador Ensenada", "Municipio": "Ensenada", "Tipo": "Rio", "Laguna": "Rio De La Plata", "Alerta": 1, "S2 Fecha": "5/22/2026", "S3 Fecha": "5/30/2026", "Dif": 0, "info": "Alerta verde, riesgo nulo a bajo y estable", "Acciones": "🎣✅, 🏊‍✅,🛶 ✅" }, "geometry": { "type": "Point", "coordinates": [ -57.94851535, -34.8273528 ] } },
{ "type": "Feature", "properties": { "CoPunto": "CARI", "Nombre": "Canal Arias", "Municipio": "Escobar", "Tipo": "Rio", "Laguna": "Interseccion Canal Arias En Rio Parana", "Alerta": 1, "S2 Fecha": "5/22/2026", "S3 Fecha": "5/30/2026", "Dif": 0, "info": "Alerta verde, riesgo nulo a bajo y estable", "Acciones": "🎣✅, 🏊‍✅,🛶 ✅" }, "geometry": { "type": "Point", "coordinates": [ -58.65464648, -34.27289635 ] } },
{ "type": "Feature", "properties": { "CoPunto": "RSM2", "Nombre": "Rio Salado Puente R3", "Municipio": "General Belgrano", "Tipo": "Rio", "Laguna": "Rio Salado Puente Ruta Tres", "Alerta": 1, "S2 Fecha": "5/22/2026", "S3 Fecha": "5/30/2026", "Dif": 0, "info": "Alerta verde, riesgo nulo a bajo y estable", "Acciones": "🎣✅, 🏊‍✅,🛶 ✅" }, "geometry": { "type": "Point", "coordinates": [ -58.84991815, -35.65020014 ] } },
{ "type": "Feature", "properties": { "CoPunto": "CARB", "Nombre": "Laguna El Carbón", "Municipio": "General Juan Madariaga", "Tipo": "Laguna", "Laguna": "Laguna El Carbon", "Alerta": 1, "S2 Fecha": null, "S3 Fecha": "5/30/2026", "Dif": 0, "info": "Alerta verde, riesgo nulo a bajo y estable", "Acciones": "🎣✅, 🏊‍✅,🛶 ✅" }, "geometry": { "type": "Point", "coordinates": [ -57.08335256, -36.94859847 ] } },
{ "type": "Feature", "properties": { "CoPunto": "LARG", "Nombre": "Laguna La Larga", "Municipio": "General Juan Madariaga", "Tipo": "Laguna", "Laguna": "Laguna La Larga", "Alerta": 1, "S2 Fecha": null, "S3 Fecha": "5/30/2026", "Dif": 0, "info": "Alerta verde, riesgo nulo a bajo y estable", "Acciones": "🎣✅, 🏊‍✅,🛶 ✅" }, "geometry": { "type": "Point", "coordinates": [ -57.11466679, -36.94659258 ] } },
{ "type": "Feature", "properties": { "CoPunto": "HORC", "Nombre": "Laguna Los Horcones", "Municipio": "General Juan Madariaga", "Tipo": "Laguna", "Laguna": "Laguna Los Horcones", "Alerta": 3, "S2 Fecha": null, "S3 Fecha": "5/30/2026", "Dif": 0, "info": "Alerta naranja, riesgo moderado a alto, estable", "Acciones": "🎣🚫, 🐟🚫, 🏊🚫,🛶🚫, 🚱️" }, "geometry": { "type": "Point", "coordinates": [ -56.9915272, -37.06103997 ] } },
{ "type": "Feature", "properties": { "CoPunto": "SALG", "Nombre": "Reserva natural Salada Grande", "Municipio": "General Lavalle", "Tipo": "Laguna", "Laguna": "Reserva Natural Laguna Salada Grande", "Alerta": 3, "S2 Fecha": null, "S3 Fecha": "5/30/2026", "Dif": 0, "info": "Alerta naranja, riesgo moderado a alto, estable", "Acciones": "🎣🚫, 🐟🚫, 🏊🚫,🛶🚫, 🚱️" }, "geometry": { "type": "Point", "coordinates": [ -56.961667, -36.891111 ] } },
{ "type": "Feature", "properties": { "CoPunto": "LPD1", "Nombre": "Laguna de Los Padres", "Municipio": "General Pueyrredon", "Tipo": "Laguna", "Laguna": "Laguna De Los Padres", "Alerta": 3, "S2 Fecha": "5/26/2026", "S3 Fecha": "5/30/2026", "Dif": 0, "info": "Alerta naranja, riesgo moderado a alto, estable", "Acciones": "🎣🚫, 🐟🚫, 🏊🚫,🛶🚫, 🚱️" }, "geometry": { "type": "Point", "coordinates": [ -57.73326215, -37.93583254 ] } },
{ "type": "Feature", "properties": { "CoPunto": "SALP", "Nombre": "Laguna Salada Gral Pinto", "Municipio": "General Pinto", "Tipo": "Laguna", "Laguna": "Laguna La Salada", "Alerta": 1, "S2 Fecha": "5/30/2026", "S3 Fecha": "5/30/2026", "Dif": 0, "info": "Alerta verde, riesgo nulo a bajo y estable", "Acciones": "🎣✅, 🏊‍✅,🛶 ✅" }, "geometry": { "type": "Point", "coordinates": [ -62.187931640617414, -34.738329701347212 ] } },
{ "type": "Feature", "properties": { "CoPunto": "CARL", "Nombre": "Laguna Carlota", "Municipio": "General La Madrid", "Tipo": "Laguna", "Laguna": "Laguna La Carlota", "Alerta": 1, "S2 Fecha": "5/22/2026", "S3 Fecha": "5/30/2026", "Dif": 0, "info": "Alerta verde, riesgo nulo a bajo y estable", "Acciones": "🎣✅, 🏊‍✅,🛶 ✅" }, "geometry": { "type": "Point", "coordinates": [ -61.394456552632938, -37.676306107271003 ] } },
{ "type": "Feature", "properties": { "CoPunto": "ALS1", "Nombre": "Laguna Alsina 1", "Municipio": "Guamini", "Tipo": "Laguna", "Laguna": "Laguna Alsina", "Alerta": 3, "S2 Fecha": "5/22/2026", "S3 Fecha": "5/30/2026", "Dif": -1, "info": "Alerta naranja, riesgo moderado a alto, en disminución", "Acciones": "🎣🚫, 🐟🚫, 🏊🚫,🛶🚫, 🚱️" }, "geometry": { "type": "Point", "coordinates": [ -62.19693303, -36.876499 ] } },
{ "type": "Feature", "properties": { "CoPunto": "ALS2", "Nombre": "Laguna Alsina 2", "Municipio": "Guamini", "Tipo": "Laguna", "Laguna": "Laguna Alsina", "Alerta": 3, "S2 Fecha": "5/22/2026", "S3 Fecha": "5/30/2026", "Dif": -1, "info": "Alerta naranja, riesgo moderado a alto, en disminución", "Acciones": "🎣🚫, 🐟🚫, 🏊🚫,🛶🚫, 🚱️" }, "geometry": { "type": "Point", "coordinates": [ -62.0239804, -36.84172891 ] } },
{ "type": "Feature", "properties": { "CoPunto": "COCH", "Nombre": "Laguna Cochicó", "Municipio": "Guamini", "Tipo": "Laguna", "Laguna": "Laguna Cochico", "Alerta": 1, "S2 Fecha": "5/22/2026", "S3 Fecha": "5/30/2026", "Dif": 0, "info": "Alerta verde, riesgo nulo a bajo y estable", "Acciones": "🎣✅, 🏊‍✅,🛶 ✅" }, "geometry": { "type": "Point", "coordinates": [ -62.32571767, -36.92433273 ] } },
{ "type": "Feature", "properties": { "CoPunto": "DMONTE", "Nombre": "Laguna del Monte", "Municipio": "Guamini", "Tipo": "Laguna", "Laguna": "Laguna Del Monte", "Alerta": 1, "S2 Fecha": "5/22/2026", "S3 Fecha": "5/30/2026", "Dif": 0, "info": "Alerta verde, riesgo nulo a bajo y estable", "Acciones": "🎣✅, 🏊‍✅,🛶 ✅" }, "geometry": { "type": "Point", "coordinates": [ -62.476723, -37.020806 ] } },
{ "type": "Feature", "properties": { "CoPunto": "CAR1", "Nombre": "Laguna Carpincho", "Municipio": "Junin", "Tipo": "Laguna", "Laguna": "Laguna El Carpincho", "Alerta": 3, "S2 Fecha": "5/30/2026", "S3 Fecha": "5/30/2026", "Dif": -1, "info": "Alerta naranja, riesgo moderado a alto, en disminución", "Acciones": "🎣🚫, 🐟🚫, 🏊🚫,🛶🚫, 🚱️" }, "geometry": { "type": "Point", "coordinates": [ -60.89518109, -34.57554254 ] } },
{ "type": "Feature", "properties": { "CoPunto": "GOMP", "Nombre": "Laguna Gómez", "Municipio": "Junin", "Tipo": "Laguna", "Laguna": "Laguna Gomez", "Alerta": 3, "S2 Fecha": "5/30/2026", "S3 Fecha": "5/30/2026", "Dif": 0, "info": "Alerta naranja, riesgo moderado a alto, estable", "Acciones": "🎣🚫, 🐟🚫, 🏊🚫,🛶🚫, 🚱️" }, "geometry": { "type": "Point", "coordinates": [ -61.13782807, -34.65028994 ] } },
{ "type": "Feature", "properties": { "CoPunto": "GOMEZ1", "Nombre": "Laguna Cómez 1", "Municipio": "Junin", "Tipo": "Laguna", "Laguna": "Laguna Gomez", "Alerta": 3, "S2 Fecha": "5/30/2026", "S3 Fecha": "5/30/2026", "Dif": 0, "info": "Alerta naranja, riesgo moderado a alto, estable", "Acciones": "🎣🚫, 🐟🚫, 🏊🚫,🛶🚫, 🚱️" }, "geometry": { "type": "Point", "coordinates": [ -61.03158186, -34.66692215 ] } },
{ "type": "Feature", "properties": { "CoPunto": "GOMEZ2", "Nombre": "Laguna Gómez 2", "Municipio": "Junin", "Tipo": "Laguna", "Laguna": "Laguna Gomez", "Alerta": 3, "S2 Fecha": "5/30/2026", "S3 Fecha": "5/30/2026", "Dif": 0, "info": "Alerta naranja, riesgo moderado a alto, estable", "Acciones": "🎣🚫, 🐟🚫, 🏊🚫,🛶🚫, 🚱️" }, "geometry": { "type": "Point", "coordinates": [ -61.06077876, -34.65421815 ] } },
{ "type": "Feature", "properties": { "CoPunto": "MCHJ", "Nombre": "Laguna Mar Chiquita", "Municipio": "Junin", "Tipo": "Laguna", "Laguna": "Laguna Mar Chiquita Junin", "Alerta": 3, "S2 Fecha": "5/30/2026", "S3 Fecha": "5/30/2026", "Dif": -1, "info": "Alerta naranja, riesgo moderado a alto, en disminución", "Acciones": "🎣🚫, 🐟🚫, 🏊🚫,🛶🚫, 🚱️" }, "geometry": { "type": "Point", "coordinates": [ -61.1695184, -34.44942197 ] } },
{ "type": "Feature", "properties": { "CoPunto": "LPR1", "Nombre": "Laguna del Paraíso", "Municipio": "Laprida", "Tipo": "Laguna", "Laguna": "Laguna El Paraiso", "Alerta": 1, "S2 Fecha": "5/22/2026", "S3 Fecha": "5/30/2026", "Dif": 1, "info": "Alerta verde, riesgo nulo a bajo pero en aumento", "Acciones": "🎣✅, 🏊‍✅,🛶 ✅" }, "geometry": { "type": "Point", "coordinates": [ -60.79754351, -37.569146 ] } },
{ "type": "Feature", "properties": { "CoPunto": "LPR3", "Nombre": "Laguna Quilla Lauquen", "Municipio": "Laprida", "Tipo": "Laguna", "Laguna": "Quilla Lauquen", "Alerta": 2, "S2 Fecha": "5/22/2026", "S3 Fecha": "5/30/2026", "Dif": 1, "info": "Alerta amarillo, riesgo bajo a moderado, en aumento", "Acciones": "🎣✅, 🐟🚫, 🏊⚠️,🛶⚠, 🚱️" }, "geometry": { "type": "Point", "coordinates": [ -60.496604, -37.48183191 ] } },
{ "type": "Feature", "properties": { "CoPunto": "DIFM", "Nombre": "Laguna del Difunto Manuel", "Municipio": "Las Flores", "Tipo": "Laguna", "Laguna": "Laguna Del Difunto Manuel", "Alerta": 1, "S2 Fecha": "5/22/2026", "S3 Fecha": "5/30/2026", "Dif": 0, "info": "Alerta verde, riesgo nulo a bajo y estable", "Acciones": "🎣✅, 🏊‍✅,🛶 ✅" }, "geometry": { "type": "Point", "coordinates": [ -59.0755, -36.009417 ] } },
{ "type": "Feature", "properties": { "CoPunto": "SANB", "Nombre": "Laguna San Bartolo", "Municipio": "Leandro N. Alem", "Tipo": "Laguna", "Laguna": "Laguna San Bartolo Balneario Municipal Leandro Alem", "Alerta": 2, "S2 Fecha": "5/30/2026", "S3 Fecha": "5/30/2026", "Dif": -1, "info": "Alerta amarillo, riesgo bajo a moderado, en disminución", "Acciones": "🎣✅, 🐟🚫, 🏊⚠️,🛶⚠, 🚱️" }, "geometry": { "type": "Point", "coordinates": [ -61.48145927, -34.45842063 ] } },
{ "type": "Feature", "properties": { "CoPunto": "CCHI", "Nombre": "Laguna Chis Chis", "Municipio": "Lezama", "Tipo": "Laguna", "Laguna": "Laguna Chis Chis", "Alerta": 4, "S2 Fecha": "5/22/2026", "S3 Fecha": "5/30/2026", "Dif": 0, "info": "Alerta roja, riesgo alto, estable", "Acciones": "🎣🚫, 🐟🚫, 🏊🚫,🛶🚫, 🚱️" }, "geometry": { "type": "Point", "coordinates": [ -57.99055982, -35.76321275 ] } },
{ "type": "Feature", "properties": { "CoPunto": "CHIS", "Nombre": "Laguna Chis Chis 2", "Municipio": "Lezama", "Tipo": "Laguna", "Laguna": "Laguna Chis Chis", "Alerta": 4, "S2 Fecha": null, "S3 Fecha": "5/30/2026", "Dif": 0, "info": "Alerta roja, riesgo alto, estable", "Acciones": "🎣🚫, 🐟🚫, 🏊🚫,🛶🚫, 🚱️" }, "geometry": { "type": "Point", "coordinates": [ -57.94830023, -35.76032928 ] } },
{ "type": "Feature", "properties": { "CoPunto": "BARRC", "Nombre": "Laguna Las Barrancas", "Municipio": "Lezama", "Tipo": "Laguna", "Laguna": "Laguna Las Barrancas", "Alerta": 4, "S2 Fecha": "5/22/2026", "S3 Fecha": "5/30/2026", "Dif": 0, "info": "Alerta roja, riesgo alto, estable", "Acciones": "🎣🚫, 🐟🚫, 🏊🚫,🛶🚫, 🚱️" }, "geometry": { "type": "Point", "coordinates": [ -58.04931927, -35.89171532 ] } },
{ "type": "Feature", "properties": { "CoPunto": "TABL", "Nombre": "Laguna La Tablilla", "Municipio": "Lezama", "Tipo": "Laguna", "Laguna": "Laguna La Tablilla", "Alerta": 4, "S2 Fecha": "5/22/2026", "S3 Fecha": "5/30/2026", "Dif": 0, "info": "Alerta roja, riesgo alto, estable", "Acciones": "🎣🚫, 🐟🚫, 🏊🚫,🛶🚫, 🚱️" }, "geometry": { "type": "Point", "coordinates": [ -58.03739535, -35.80841501 ] } },
{ "type": "Feature", "properties": { "CoPunto": "LOBO", "Nombre": "Laguna de Lobos", "Municipio": "Lobos", "Tipo": "Laguna", "Laguna": "Laguna De Lobos", "Alerta": 4, "S2 Fecha": "5/22/2026", "S3 Fecha": "5/30/2026", "Dif": 0, "info": "Alerta roja, riesgo alto, estable", "Acciones": "🎣🚫, 🐟🚫, 🏊🚫,🛶🚫, 🚱️" }, "geometry": { "type": "Point", "coordinates": [ -59.12091231, -35.28236937 ] } },
{ "type": "Feature", "properties": { "CoPunto": "ATAL", "Nombre": "Rio de La Plata Atalaya", "Municipio": "Magdalena", "Tipo": "Rio", "Laguna": "Rio De La Plata", "Alerta": 1, "S2 Fecha": "5/22/2026", "S3 Fecha": "5/30/2026", "Dif": 0, "info": "Alerta verde, riesgo nulo a bajo y estable", "Acciones": "🎣✅, 🏊‍✅,🛶 ✅" }, "geometry": { "type": "Point", "coordinates": [ -57.52590481, -35.00115326 ] } },
{ "type": "Feature", "properties": { "CoPunto": "MAGD", "Nombre": "Rio de La Plata Magdalena", "Municipio": "Magdalena", "Tipo": "Rio", "Laguna": "Rio De La Plata", "Alerta": 1, "S2 Fecha": "5/22/2026", "S3 Fecha": "5/30/2026", "Dif": 0, "info": "Alerta verde, riesgo nulo a bajo y estable", "Acciones": "🎣✅, 🏊‍✅,🛶 ✅" }, "geometry": { "type": "Point", "coordinates": [ -57.49544978, -35.01544081 ] } },
{ "type": "Feature", "properties": { "CoPunto": "KHUI", "Nombre": "Laguna Kakel Huincul", "Municipio": "Maipu", "Tipo": "Laguna", "Laguna": "Kakel Huincul", "Alerta": 1, "S2 Fecha": null, "S3 Fecha": "5/30/2026", "Dif": 0, "info": "Alerta verde, riesgo nulo a bajo y estable", "Acciones": "🎣✅, 🏊‍✅,🛶 ✅" }, "geometry": { "type": "Point", "coordinates": [ -57.77552522, -36.79315564 ] } },
{ "type": "Feature", "properties": { "CoPunto": "YAM1", "Nombre": "Laguna Yamahuida", "Municipio": "Maipu", "Tipo": "Laguna", "Laguna": "Laguna Yamahuida", "Alerta": 1, "S2 Fecha": null, "S3 Fecha": "5/30/2026", "Dif": 0, "info": "Alerta verde, riesgo nulo a bajo y estable", "Acciones": "🎣✅, 🏊‍✅,🛶 ✅" }, "geometry": { "type": "Point", "coordinates": [ -57.70591791, -36.87387893 ] } },
{ "type": "Feature", "properties": { "CoPunto": "MCHIC", "Nombre": "Laguna Mar Chiquita", "Municipio": "Mar Chiquita", "Tipo": "Laguna", "Laguna": "MarChiquita MarChiquita", "Alerta": 1, "S2 Fecha": null, "S3 Fecha": "5/30/2026", "Dif": 0, "info": "Alerta verde, riesgo nulo a bajo y estable", "Acciones": "🎣✅, 🏊‍✅,🛶 ✅" }, "geometry": { "type": "Point", "coordinates": [ -57.39166781548176, -37.66800158551009 ] } },
{ "type": "Feature", "properties": { "CoPunto": "MONTE", "Nombre": "San Miguel del Monte", "Municipio": "Monte", "Tipo": "Laguna", "Laguna": "San Miguel Del Monte", "Alerta": 4, "S2 Fecha": "5/22/2026", "S3 Fecha": "5/30/2026", "Dif": 0, "info": "Alerta roja, riesgo alto, estable", "Acciones": "🎣🚫, 🐟🚫, 🏊🚫,🛶🚫, 🚱️" }, "geometry": { "type": "Point", "coordinates": [ -58.805472, -35.461583 ] } },
{ "type": "Feature", "properties": { "CoPunto": "SALB1", "Nombre": "Canal Salado en Belgrano 1", "Municipio": "Monte", "Tipo": "Canal", "Laguna": "Canal Salado En Belgrano", "Alerta": 4, "S2 Fecha": "5/22/2026", "S3 Fecha": "5/30/2026", "Dif": 0, "info": "Alerta roja, riesgo alto, estable", "Acciones": "🎣🚫, 🐟🚫, 🏊🚫,🛶🚫, 🚱️" }, "geometry": { "type": "Point", "coordinates": [ -58.49660224, -35.74848197 ] } },
{ "type": "Feature", "properties": { "CoPunto": "SALM", "Nombre": "Rio Saldao Puente R41", "Municipio": "Monte", "Tipo": "Rio", "Laguna": "Rio Salado Puente Ruta CuarentaYuno", "Alerta": 1, "S2 Fecha": "5/22/2026", "S3 Fecha": "5/30/2026", "Dif": 0, "info": "Alerta verde, riesgo nulo a bajo y estable", "Acciones": "🎣✅, 🏊‍✅,🛶 ✅" }, "geometry": { "type": "Point", "coordinates": [ -58.53728428, -35.72615944 ] } },
{ "type": "Feature", "properties": { "CoPunto": "SAGRAN", "Nombre": "Laguna Sauce Grande", "Municipio": "Monte Hermoso", "Tipo": "Laguna", "Laguna": "Laguna Sauce Grande", "Alerta": 3, "S2 Fecha": "5/25/2026", "S3 Fecha": "5/30/2026", "Dif": 0, "info": "Alerta naranja, riesgo moderado a alto, estable", "Acciones": "🎣🚫, 🐟🚫, 🏊🚫,🛶🚫, 🚱️" }, "geometry": { "type": "Point", "coordinates": [ -61.383083, -38.934333 ] } },
{ "type": "Feature", "properties": { "CoPunto": "DROG", "Nombre": "Dique Roggero", "Municipio": "Moreno", "Tipo": "Dique", "Laguna": "Dique Roggero", "Alerta": 1, "S2 Fecha": "5/22/2026", "S3 Fecha": "5/30/2026", "Dif": 0, "info": "Alerta verde, riesgo nulo a bajo y estable", "Acciones": "🎣✅, 🏊‍✅,🛶 ✅" }, "geometry": { "type": "Point", "coordinates": [ -58.86546382, -34.679654 ] } },
{ "type": "Feature", "properties": { "CoPunto": "CPNAV", "Nombre": "Club de Pesca Navarro", "Municipio": "Navarro", "Tipo": "Laguna", "Laguna": "Laguna Navarro", "Alerta": 2, "S2 Fecha": "5/22/2026", "S3 Fecha": "5/30/2026", "Dif": -1, "info": "Alerta amarillo, riesgo bajo a moderado, en disminución", "Acciones": "🎣✅, 🐟🚫, 🏊⚠️,🛶⚠, 🚱️" }, "geometry": { "type": "Point", "coordinates": [ -59.286909327885887, -35.012444336128098 ] } },
{ "type": "Feature", "properties": { "CoPunto": "CANIAD", "Nombre": "Laguna Cañadón", "Municipio": "Pehuajo", "Tipo": "Laguna", "Laguna": "Laguna Caniadon", "Alerta": 2, "S2 Fecha": "5/22/2026", "S3 Fecha": "5/30/2026", "Dif": -1, "info": "Alerta amarillo, riesgo bajo a moderado, en disminución", "Acciones": "🎣✅, 🐟🚫, 🏊⚠️,🛶⚠, 🚱️" }, "geometry": { "type": "Point", "coordinates": [ -61.84809208, -35.76604051 ] } },
{ "type": "Feature", "properties": { "CoPunto": "LASAL", "Nombre": "Laguna La Salada de Pehuajó", "Municipio": "Pehuajo", "Tipo": "Laguna", "Laguna": "Laguna La Salada Pehuajo", "Alerta": 3, "S2 Fecha": "5/22/2026", "S3 Fecha": "5/30/2026", "Dif": -1, "info": "Alerta naranja, riesgo moderado a alto, en disminución", "Acciones": "🎣🚫, 🐟🚫, 🏊🚫,🛶🚫, 🚱️" }, "geometry": { "type": "Point", "coordinates": [ -61.90826889, -35.78543081 ] } },
{ "type": "Feature", "properties": { "CoPunto": "PEJEC", "Nombre": "Rio de La Plata Club Pejerrey de Quilmes", "Municipio": "Quilmes", "Tipo": "Rio", "Laguna": "Rio De La Plata", "Alerta": 1, "S2 Fecha": "5/22/2026", "S3 Fecha": "5/30/2026", "Dif": 0, "info": "Alerta verde, riesgo nulo a bajo y estable", "Acciones": "🎣✅, 🏊‍✅,🛶 ✅" }, "geometry": { "type": "Point", "coordinates": [ -58.20996141, -34.70172 ] } },
{ "type": "Feature", "properties": { "CoPunto": "RAMPAR", "Nombre": "Bajada Calle Gomendio", "Municipio": "Ramallo", "Tipo": "Rio", "Laguna": "Rio Parana", "Alerta": 1, "S2 Fecha": "5/29/2026", "S3 Fecha": "5/30/2026", "Dif": 0, "info": "Alerta verde, riesgo nulo a bajo y estable", "Acciones": "🎣✅, 🏊‍✅,🛶 ✅" }, "geometry": { "type": "Point", "coordinates": [ -59.991528145318817, -33.478637394002334 ] } },
{ "type": "Feature", "properties": { "CoPunto": "CZ1", "Nombre": "Laguna Cuero de Zorro -1", "Municipio": "Rivadavia", "Tipo": "Laguna", "Laguna": "Cuero De Zorro", "Alerta": 2, "S2 Fecha": "5/30/2026", "S3 Fecha": "5/30/2026", "Dif": 1, "info": "Alerta amarillo, riesgo bajo a moderado, en aumento", "Acciones": "🎣✅, 🐟🚫, 🏊⚠️,🛶⚠, 🚱️" }, "geometry": { "type": "Point", "coordinates": [ -62.91277592, -35.75534241 ] } },
{ "type": "Feature", "properties": { "CoPunto": "RSALRP", "Nombre": "Rio Salado punto Roque Perez", "Municipio": "Roque Perez", "Tipo": "Rio", "Laguna": "Rio Salado", "Alerta": 3, "S2 Fecha": "5/22/2026", "S3 Fecha": "5/30/2026", "Dif": 0, "info": "Alerta naranja, riesgo moderado a alto, estable", "Acciones": "🎣🚫, 🐟🚫, 🏊🚫,🛶🚫, 🚱️" }, "geometry": { "type": "Point", "coordinates": [ -59.32361902, -35.37374897 ] } },
{ "type": "Feature", "properties": { "CoPunto": "PNAUT", "Nombre": "Parque Nautico San Fernando de San Fernando", "Municipio": "San Fernando", "Tipo": "Rio", "Laguna": "Parque Nautico San Fernando", "Alerta": 1, "S2 Fecha": "5/22/2026", "S3 Fecha": "5/30/2026", "Dif": 0, "info": "Alerta verde, riesgo nulo a bajo y estable", "Acciones": "🎣✅, 🏊‍✅,🛶 ✅" }, "geometry": { "type": "Point", "coordinates": [ -58.53016266, -34.44189987 ] } },
{ "type": "Feature", "properties": { "CoPunto": "TAN1", "Nombre": "Dique Tandil", "Municipio": "Tandil", "Tipo": "Dique", "Laguna": "Dique Tandil", "Alerta": 2, "S2 Fecha": "5/22/2026", "S3 Fecha": "5/30/2026", "Dif": 0, "info": "Alerta amarillo, riesgo bajo a moderado, estable", "Acciones": "🎣✅, 🐟🚫, 🏊⚠️,🛶⚠, 🚱️" }, "geometry": { "type": "Point", "coordinates": [ -59.130285, -37.34456748 ] } },
{ "type": "Feature", "properties": { "CoPunto": "GELVEZ", "Nombre": "D5 (Arroyo Gelvez)", "Municipio": "Tigre", "Tipo": "Arroyo", "Laguna": "Arroyo Gelvez", "Alerta": 1, "S2 Fecha": "5/22/2026", "S3 Fecha": "5/30/2026", "Dif": 0, "info": "Alerta verde, riesgo nulo a bajo y estable", "Acciones": "🎣✅, 🏊‍✅,🛶 ✅" }, "geometry": { "type": "Point", "coordinates": [ -58.59217821, -34.36870564 ] } },
{ "type": "Feature", "properties": { "CoPunto": "PERLA", "Nombre": "RSALP (Arroyo La Perla y Rio Sarmiento)", "Municipio": "Tigre", "Tipo": "Arroyo", "Laguna": "Arroyo La Perla Intereseccion Rio Sarmiento", "Alerta": 1, "S2 Fecha": "5/22/2026", "S3 Fecha": "5/30/2026", "Dif": 0, "info": "Alerta verde, riesgo nulo a bajo y estable", "Acciones": "🎣✅, 🏊‍✅,🛶 ✅" }, "geometry": { "type": "Point", "coordinates": [ -58.558833, -34.382361 ] } },
{ "type": "Feature", "properties": { "CoPunto": "SARCUR", "Nombre": "RSARC (Rio Sarmiento entre Arroyo Reyes y Curubica)", "Municipio": "Tigre", "Tipo": "Rio", "Laguna": "Rio Sarmiento Entre Arroyo Reyes Arroyo Curubica", "Alerta": 1, "S2 Fecha": "5/22/2026", "S3 Fecha": "5/30/2026", "Dif": 0, "info": "Alerta verde, riesgo nulo a bajo y estable", "Acciones": "🎣✅, 🏊‍✅,🛶 ✅" }, "geometry": { "type": "Point", "coordinates": [ -58.57761458, -34.38570002 ] } },
{ "type": "Feature", "properties": { "CoPunto": "DLP2", "Nombre": "Dique Las Piedras 2", "Municipio": "Tornquist", "Tipo": "Dique", "Laguna": "Dique Las Piedras", "Alerta": 2, "S2 Fecha": "5/25/2026", "S3 Fecha": "5/30/2026", "Dif": -1, "info": "Alerta amarillo, riesgo bajo a moderado, en disminución", "Acciones": "🎣✅, 🐟🚫, 🏊⚠️,🛶⚠, 🚱️" }, "geometry": { "type": "Point", "coordinates": [ -61.75836664, -38.37272735 ] } },
{ "type": "Feature", "properties": { "CoPunto": "CZ2", "Nombre": "Laguna Cuero de Zorro 2", "Municipio": "Trenque Lauquen", "Tipo": "Laguna", "Laguna": "Cuero De Zorro", "Alerta": 1, "S2 Fecha": "5/30/2026", "S3 Fecha": "5/30/2026", "Dif": 1, "info": "Alerta verde, riesgo nulo a bajo pero en aumento", "Acciones": "🎣✅, 🏊‍✅,🛶 ✅" }, "geometry": { "type": "Point", "coordinates": [ -62.90764975, -35.78476218 ] } },
{ "type": "Feature", "properties": { "CoPunto": "HINOJO", "Nombre": "Laguna Hinojo", "Municipio": "Trenque Lauquen", "Tipo": "Laguna", "Laguna": "Laguna Hinojo", "Alerta": 4, "S2 Fecha": "5/22/2026", "S3 Fecha": "5/30/2026", "Dif": -1, "info": "Alerta roja, riesgo alto, en disminución", "Acciones": "🎣🚫, 🐟🚫, 🏊🚫,🛶🚫, 🚱️" }, "geometry": { "type": "Point", "coordinates": [ -62.49421275, -35.9256205 ] } },
{ "type": "Feature", "properties": { "CoPunto": "TUN1", "Nombre": "Las Tunas 1", "Municipio": "Trenque Lauquen", "Tipo": "Laguna", "Laguna": "Laguna Las Tunas", "Alerta": 1, "S2 Fecha": "5/22/2026", "S3 Fecha": "5/30/2026", "Dif": 0, "info": "Alerta verde, riesgo nulo a bajo y estable", "Acciones": "🎣✅, 🏊‍✅,🛶 ✅" }, "geometry": { "type": "Point", "coordinates": [ -62.43452697, -35.97278686 ] } },
{ "type": "Feature", "properties": { "CoPunto": "TUN2", "Nombre": "Las Tunas 2", "Municipio": "Trenque Lauquen", "Tipo": "Laguna", "Laguna": "Laguna Las Tunas", "Alerta": 2, "S2 Fecha": "5/22/2026", "S3 Fecha": "5/30/2026", "Dif": -1, "info": "Alerta amarillo, riesgo bajo a moderado, en disminución", "Acciones": "🎣✅, 🐟🚫, 🏊⚠️,🛶⚠, 🚱️" }, "geometry": { "type": "Point", "coordinates": [ -62.50829928, -36.01268186 ] } },
{ "type": "Feature", "properties": { "CoPunto": "TIG", "Nombre": "Laguna Tres Arroyos", "Municipio": "Tres Arroyos", "Tipo": "Laguna", "Laguna": "La Tigra", "Alerta": 1, "S2 Fecha": "5/22/2026", "S3 Fecha": "5/30/2026", "Dif": 0, "info": "Alerta verde, riesgo nulo a bajo y estable", "Acciones": "🎣✅, 🏊‍✅,🛶 ✅" }, "geometry": { "type": "Point", "coordinates": [ -60.362609519071299, -38.346405216060184 ] } },
{ "type": "Feature", "properties": { "CoPunto": "VLZ1", "Nombre": "Rio de La Plata 2 - Vicente Lopez", "Municipio": "Vicente Lopez", "Tipo": "Rio", "Laguna": "Rio De La Plata", "Alerta": 1, "S2 Fecha": "5/22/2026", "S3 Fecha": "5/30/2026", "Dif": 0, "info": "Alerta verde, riesgo nulo a bajo y estable", "Acciones": "🎣✅, 🏊‍✅,🛶 ✅" }, "geometry": { "type": "Point", "coordinates": [ -58.46470993, -34.51650797 ] } },
{ "type": "Feature", "properties": { "CoPunto": "CHAS", "Nombre": "Laguna Chasicó", "Municipio": "Villarino", "Tipo": "Laguna", "Laguna": "Chasico", "Alerta": 1, "S2 Fecha": "5/25/2026", "S3 Fecha": "5/30/2026", "Dif": 0, "info": "Alerta verde, riesgo nulo a bajo y estable", "Acciones": "🎣✅, 🏊‍✅,🛶 ✅" }, "geometry": { "type": "Point", "coordinates": [ -63.07155844, -38.63126477 ] } }
]
}
