{
"type": "FeatureCollection",
"name": "CianoAlert_ADA_20260701",
"crs": { "type": "name", "properties": { "name": "urn:ogc:def:crs:OGC:1.3:CRS84" } },
"features": [
{ "type": "Feature", "properties": { "CodPunto": "PUAN", "Nombre": "Laguna Puan", "Municipio": "Puan", "Tipo": "Laguna", "Laguna Rio": "Laguna Puan", "Alerta": 1, "S2 Fecha": "7/1/2026", "S3 Fecha": "7/7/2026", "Fecha": "7/7/2026", "info": "Alerta verde, riesgo nulo a bajo y estable", "Dinamica": "🟰", "PACiano": "✅✅ (precisión muy alta)", "Cloro": 7.958, "Turb": 29.966, "MON": 0.764, "B5": 0.037, "E. Trofico": "oligotrofico", "A. TURB": "Media", "A. MON": "Media" }, "geometry": { "type": "Point", "coordinates": [ -62.801683474524971, -37.557180659074078 ] } },
{ "type": "Feature", "properties": { "CodPunto": "LCHIL", "Nombre": "Laguna los Chilenos", "Municipio": "Saavedra", "Tipo": "Laguna", "Laguna Rio": "Laguna Los Chilenos", "Alerta": 1, "S2 Fecha": "7/1/2026", "S3 Fecha": "7/7/2026", "Fecha": "7/7/2026", "info": "Alerta verde, riesgo nulo a bajo y estable", "Dinamica": "🟰", "PACiano": "✅✅ (precisión muy alta)", "Cloro": 11.394, "Turb": 27.986, "MON": 0.177, "B5": 0.156, "E. Trofico": "oligotrofico", "A. TURB": "Baja", "A. MON": "Baja" }, "geometry": { "type": "Point", "coordinates": [ -62.566592, -37.882703548219169 ] } },
{ "type": "Feature", "properties": { "CodPunto": "VDO", "Nombre": "Laguna Del Venado", "Municipio": "Guamini", "Tipo": "Laguna", "Laguna Rio": "Laguna Del Venado", "Alerta": 2, "S2 Fecha": "7/1/2026", "S3 Fecha": "7/7/2026", "Fecha": "7/7/2026", "info": "Alerta amarillo, riesgo bajo a moderado, en aumento", "Dinamica": "⬆️", "PACiano": "✅✅ (precisión muy alta)", "Cloro": 167.307, "Turb": 12.578, "MON": 0.503, "B5": 0.068, "E. Trofico": "Eutrofico", "A. TURB": "Baja", "A. MON": "Baja" }, "geometry": { "type": "Point", "coordinates": [ -62.626374472478915, -37.064198424691064 ] } },
{ "type": "Feature", "properties": { "CodPunto": "BGRDE", "Nombre": "Laguna Blanca Grande", "Municipio": "Olavarria", "Tipo": "Laguna", "Laguna Rio": "Laguna Blanca Grande", "Alerta": 1, "S2 Fecha": "6/29/2026", "S3 Fecha": "7/7/2026", "Fecha": "7/7/2026", "info": "Alerta verde, riesgo nulo a bajo y estable", "Dinamica": "🟰", "PACiano": "✅✅ (precisión muy alta)", "Cloro": 41.647, "Turb": 145.982, "MON": 15.903, "B5": 0.018, "E. Trofico": "Mesotrofico", "A. TURB": "Muy alta", "A. MON": "Muy Alta" }, "geometry": { "type": "Point", "coordinates": [ -60.898894948473597, -36.486416109942553 ] } },
{ "type": "Feature", "properties": { "CodPunto": "MULT", "Nombre": "Laguna Las Mulitas", "Municipio": "25 de Mayo", "Tipo": "Laguna", "Laguna Rio": "Laguna Las Mulitas", "Alerta": 1, "S2 Fecha": "6/29/2026", "S3 Fecha": "7/7/2026", "Fecha": "7/7/2026", "info": "Alerta verde, riesgo nulo a bajo y estable", "Dinamica": "🟰", "PACiano": "❓ no se estima", "Cloro": 277.598, "Turb": 45.977, "MON": 15.435, "B5": 0.029, "E. Trofico": "Hipereutrofico", "A. TURB": "Alta", "A. MON": "Muy Alta" }, "geometry": { "type": "Point", "coordinates": [ -60.156361, -35.437639 ] } },
{ "type": "Feature", "properties": { "CodPunto": "RSN1", "Nombre": "Rio Salado Puente R3", "Municipio": "25 de Mayo", "Tipo": "Rio", "Laguna Rio": "Rio Salado Puente Ruta Tres", "Alerta": 3, "S2 Fecha": "7/1/2026", "S3 Fecha": "7/7/2026", "Fecha": "7/7/2026", "info": "Alerta naranja, riesgo moderado a alto, estable", "Dinamica": "🟰", "PACiano": "❓ no se estima", "Cloro": 117.552, "Turb": 50.802, "MON": 0.403, "B5": 0.102, "E. Trofico": "Eutrofico", "A. TURB": "Alta", "A. MON": "Baja" }, "geometry": { "type": "Point", "coordinates": [ -59.71791297, -35.22213683 ] } },
{ "type": "Feature", "properties": { "CodPunto": "PSM1", "Nombre": "Laguna del Parque Gral. San Martín", "Municipio": "9 de Julio", "Tipo": "Laguna", "Laguna Rio": "Gral San Martin", "Alerta": 4, "S2 Fecha": "6/29/2026", "S3 Fecha": "7/7/2026", "Fecha": "7/7/2026", "info": "Alerta roja, riesgo alto, estable", "Dinamica": "🟰", "PACiano": "❓ no se estima", "Cloro": 456.497, "Turb": 53.152, "MON": 5.643, "B5": 0.102, "E. Trofico": "Hipereutrofico", "A. TURB": "Alta", "A. MON": "Muy Alta" }, "geometry": { "type": "Point", "coordinates": [ -60.876439738442791, -35.438888971259274 ] } },
{ "type": "Feature", "properties": { "CodPunto": "EPEC", "Nombre": "Epecuen Adolfo  Alsina", "Municipio": "Adolfo Alsina", "Tipo": "Laguna", "Laguna Rio": "Laguna Epecuen", "Alerta": 1, "S2 Fecha": "7/1/2026", "S3 Fecha": "7/7/2026", "Fecha": "7/7/2026", "info": "Alerta verde, riesgo nulo a bajo y estable", "Dinamica": "🟰", "PACiano": "✅✅ (precisión muy alta)", "Cloro": 2.9, "Turb": 7.461, "MON": 0.898, "B5": 0.014, "E. Trofico": "oligotrofico", "A. TURB": "Baja", "A. MON": "Media" }, "geometry": { "type": "Point", "coordinates": [ -62.8466267, -37.14601186 ] } },
{ "type": "Feature", "properties": { "CodPunto": "RIO2", "Nombre": "Puente Achupallas Indacochea RIo Río Salado - Alberti", "Municipio": "Alberti", "Tipo": "Rio", "Laguna Rio": "Puente Achupallas Indacochea Rio Salado", "Alerta": 3, "S2 Fecha": "7/1/2026", "S3 Fecha": "7/7/2026", "Fecha": "7/7/2026", "info": "Alerta naranja, riesgo moderado a alto, en disminución", "Dinamica": "⬇️", "PACiano": "✅ (precisión alta)", "Cloro": 112.268, "Turb": 22.636, "MON": 0.413, "B5": 0.073, "E. Trofico": "Eutrofico", "A. TURB": "Baja", "A. MON": "Baja" }, "geometry": { "type": "Point", "coordinates": [ -60.110403, -35.0887449 ] } },
{ "type": "Feature", "properties": { "CodPunto": "RIO1", "Nombre": "Rio Salado - Puente Ladaga, Alberti_Alberti", "Municipio": "Alberti", "Tipo": "Rio", "Laguna Rio": "Rio Salado Puente Ladaga Alberti", "Alerta": 3, "S2 Fecha": "7/1/2026", "S3 Fecha": "7/7/2026", "Fecha": "7/7/2026", "info": "Alerta naranja, riesgo moderado a alto, estable", "Dinamica": "🟰", "PACiano": "❓ no se estima", "Cloro": 126.36, "Turb": 36.119, "MON": 5.839, "B5": 0.058, "E. Trofico": "Eutrofico", "A. TURB": "Media", "A. MON": "Muy Alta" }, "geometry": { "type": "Point", "coordinates": [ -60.24290343, -35.06801733 ] } },
{ "type": "Feature", "properties": { "CodPunto": "RIO3", "Nombre": "Rio Salado - Ruta 5", "Municipio": "Alberti", "Tipo": "Rio", "Laguna Rio": "Rio Salado Ruta Cinco", "Alerta": 3, "S2 Fecha": "7/1/2026", "S3 Fecha": "7/7/2026", "Fecha": "7/7/2026", "info": "Alerta naranja, riesgo moderado a alto, en disminución", "Dinamica": "⬇️", "PACiano": "✅ (precisión alta)", "Cloro": 194.497, "Turb": 45.527, "MON": 12.868, "B5": 0.049, "E. Trofico": "Eutrofico", "A. TURB": "Alta", "A. MON": "Muy Alta" }, "geometry": { "type": "Point", "coordinates": [ -60.292083, -35.061111 ] } },
{ "type": "Feature", "properties": { "CodPunto": "RDLP", "Nombre": "Rio de La Plata  Avellaneda", "Municipio": "Avellaneda", "Tipo": "Rio", "Laguna Rio": "Rio De La Plata", "Alerta": 1, "S2 Fecha": "7/1/2026", "S3 Fecha": "7/8/2026", "Fecha": "7/8/2026", "info": "Alerta verde, riesgo nulo a bajo y estable", "Dinamica": "🟰", "PACiano": "✅✅ (precisión muy alta)", "Cloro": 1.752, "Turb": 72.183, "MON": 0.798, "B5": 0.07, "E. Trofico": "oligotrofico", "A. TURB": "Alta", "A. MON": "Alta" }, "geometry": { "type": "Point", "coordinates": [ -58.29888937, -34.66026369 ] } },
{ "type": "Feature", "properties": { "CodPunto": "SALA1", "Nombre": "Laguna la Saladita Norte", "Municipio": "Avellaneda", "Tipo": "Laguna", "Laguna Rio": "Laguna La Saladita Norte", "Alerta": 1, "S2 Fecha": "6/26/2026", "S3 Fecha": "7/8/2026", "Fecha": "7/8/2026", "info": "Alerta roja, riesgo alto, estable", "Dinamica": "🟰", "PACiano": "❓ no se estima", "Cloro": 2000.0, "Turb": 47.414, "MON": 16.0, "B5": 0.005, "E. Trofico": "Hipereutrofico", "A. TURB": "Alta", "A. MON": "Muy Alta" }, "geometry": { "type": "Point", "coordinates": [ -58.34021914, -34.66571025 ] } },
{ "type": "Feature", "properties": { "CodPunto": "SALA2", "Nombre": "Laguna La Saladita Sur", "Municipio": "Avellaneda", "Tipo": "Laguna", "Laguna Rio": "Laguna La Saladita Sur", "Alerta": 4, "S2 Fecha": "6/26/2026", "S3 Fecha": "7/8/2026", "Fecha": "7/8/2026", "info": "SIN DATOS", "Dinamica": "SIN DATOS", "PACiano": "⚠ (precisión media)", "Cloro": 585.677, "Turb": 86.32, "MON": 0.942, "B5": 0.128, "E. Trofico": "Hipereutrofico", "A. TURB": "Muy alta", "A. MON": "Muy Alta" }, "geometry": { "type": "Point", "coordinates": [ -58.34046988, -34.67242443 ] } },
{ "type": "Feature", "properties": { "CodPunto": "LAB", "Nombre": "La Laguna La Brava", "Municipio": "Balcarce", "Tipo": "Laguna", "Laguna Rio": "Laguna La Brava", "Alerta": 3, "S2 Fecha": "6/28/2026", "S3 Fecha": "7/7/2026", "Fecha": "7/7/2026", "info": "Alerta naranja, riesgo moderado a alto, en aumento", "Dinamica": "⬆️", "PACiano": "✅✅ (precisión muy alta)", "Cloro": 881.288, "Turb": 34.41, "MON": 1.024, "B5": 0.06, "E. Trofico": "Hipereutrofico", "A. TURB": "Media", "A. MON": "Media" }, "geometry": { "type": "Point", "coordinates": [ -57.97720112, -37.88000183 ] } },
{ "type": "Feature", "properties": { "CodPunto": "ELCH", "Nombre": "Laguna El Chifle", "Municipio": "Benito Juarez", "Tipo": "Laguna", "Laguna Rio": "Laguna El Chifle", "Alerta": 1, "S2 Fecha": "7/1/2026", "S3 Fecha": "7/7/2026", "Fecha": "7/7/2026", "info": "Alerta verde, riesgo nulo a bajo y estable", "Dinamica": "🟰", "PACiano": "✅✅ (precisión muy alta)", "Cloro": 65.562, "Turb": 35.247, "MON": 1.723, "B5": 0.05, "E. Trofico": "Eutrofico", "A. TURB": "Media", "A. MON": "Alta" }, "geometry": { "type": "Point", "coordinates": [ -59.79925, -37.406806 ] } },
{ "type": "Feature", "properties": { "CodPunto": "SANA", "Nombre": "Laguna San Antonio", "Municipio": "Benito Juarez", "Tipo": "Laguna", "Laguna Rio": "Laguna San Antonio", "Alerta": 1, "S2 Fecha": "7/1/2026", "S3 Fecha": "7/7/2026", "Fecha": "7/7/2026", "info": "Alerta verde, riesgo nulo a bajo pero en aumento", "Dinamica": "⬆️", "PACiano": "✅ (precisión alta)", "Cloro": 191.164, "Turb": 51.863, "MON": 0.706, "B5": 0.026, "E. Trofico": "Eutrofico", "A. TURB": "Alta", "A. MON": "Baja" }, "geometry": { "type": "Point", "coordinates": [ -59.874806, -37.629917 ] } },
{ "type": "Feature", "properties": { "CodPunto": "BALN", "Nombre": "Rio de La Plata Balneario Berazategui", "Municipio": "Berazategui", "Tipo": "Rio", "Laguna Rio": "Rio De La Plata", "Alerta": 1, "S2 Fecha": "7/1/2026", "S3 Fecha": "7/8/2026", "Fecha": "7/8/2026", "info": "Alerta verde, riesgo nulo a bajo y estable", "Dinamica": "🟰", "PACiano": "✅✅ (precisión muy alta)", "Cloro": 1.825, "Turb": 76.957, "MON": 1.64, "B5": 0.045, "E. Trofico": "oligotrofico", "A. TURB": "Muy alta", "A. MON": "Muy Alta" }, "geometry": { "type": "Point", "coordinates": [ -58.09891056, -34.73645769 ] } },
{ "type": "Feature", "properties": { "CodPunto": "SGO", "Nombre": "Rio Parana Berisso", "Municipio": "Berisso", "Tipo": "Rio", "Laguna Rio": "Rio Parana", "Alerta": 1, "S2 Fecha": "6/26/2026", "S3 Fecha": "7/8/2026", "Fecha": "7/8/2026", "info": "Alerta verde, riesgo nulo a bajo y estable", "Dinamica": "🟰", "PACiano": "✅✅ (precisión muy alta)", "Cloro": 11.655, "Turb": 24.786, "MON": 0.494, "B5": 0.051, "E. Trofico": "oligotrofico", "A. TURB": "Baja", "A. MON": "Baja" }, "geometry": { "type": "Point", "coordinates": [ -57.88881991, -34.85225838 ] } },
{ "type": "Feature", "properties": { "CodPunto": "BERI", "Nombre": "Rio de La Plata Balnerio Berisso-2", "Municipio": "Berisso", "Tipo": "Rio", "Laguna Rio": "Rio De La Plata", "Alerta": 1, "S2 Fecha": "7/1/2026", "S3 Fecha": "7/8/2026", "Fecha": "7/8/2026", "info": "Alerta verde, riesgo nulo a bajo y estable", "Dinamica": "🟰", "PACiano": "✅✅ (precisión muy alta)", "Cloro": 1.53, "Turb": 73.743, "MON": 0.65, "B5": 0.093, "E. Trofico": "oligotrofico", "A. TURB": "Alta", "A. MON": "Media" }, "geometry": { "type": "Point", "coordinates": [ -57.737605251849139, -34.910371474377911 ] } },
{ "type": "Feature", "properties": { "CodPunto": "PALO", "Nombre": "Rio de La Plata Palo Blanco Berisso-3", "Municipio": "Berisso", "Tipo": "Rio", "Laguna Rio": "Rio De La Plata", "Alerta": 1, "S2 Fecha": "7/1/2026", "S3 Fecha": "7/8/2026", "Fecha": "7/8/2026", "info": "Alerta verde, riesgo nulo a bajo y estable", "Dinamica": "🟰", "PACiano": "✅✅ (precisión muy alta)", "Cloro": 1.521, "Turb": 70.106, "MON": 0.664, "B5": 0.086, "E. Trofico": "oligotrofico", "A. TURB": "Alta", "A. MON": "Media" }, "geometry": { "type": "Point", "coordinates": [ -57.83581294, -34.85263799 ] } },
{ "type": "Feature", "properties": { "CodPunto": "RIO4", "Nombre": "Rio Santiago Berisso - 4", "Municipio": "Berisso", "Tipo": "Rio", "Laguna Rio": "Rio Santiago", "Alerta": 1, "S2 Fecha": "6/26/2026", "S3 Fecha": "7/8/2026", "Fecha": "7/8/2026", "info": "Alerta verde, riesgo nulo a bajo y estable", "Dinamica": "🟰", "PACiano": "✅✅ (precisión muy alta)", "Cloro": 4.185, "Turb": 53.557, "MON": 0.46, "B5": 0.097, "E. Trofico": "oligotrofico", "A. TURB": "Alta", "A. MON": "Baja" }, "geometry": { "type": "Point", "coordinates": [ -57.87943121, -34.83406603 ] } },
{ "type": "Feature", "properties": { "CodPunto": "BAL", "Nombre": "Rio de La Plata - La Balandra", "Municipio": "Berisso", "Tipo": "Rio", "Laguna Rio": "Rio De La Plata", "Alerta": 1, "S2 Fecha": "7/1/2026", "S3 Fecha": "7/8/2026", "Fecha": "7/8/2026", "info": "Alerta verde, riesgo nulo a bajo y estable", "Dinamica": "🟰", "PACiano": "✅✅ (precisión muy alta)", "Cloro": 1.769, "Turb": 81.019, "MON": 0.63, "B5": 0.102, "E. Trofico": "oligotrofico", "A. TURB": "Muy alta", "A. MON": "Media" }, "geometry": { "type": "Point", "coordinates": [ -57.713183362077423, -34.918873122984017 ] } },
{ "type": "Feature", "properties": { "CodPunto": "JCHO", "Nombre": "Laguna Juancho", "Municipio": "Bolivar", "Tipo": "Laguna", "Laguna Rio": "Laguna De Juancho", "Alerta": 2, "S2 Fecha": "6/29/2026", "S3 Fecha": "7/7/2026", "Fecha": "7/7/2026", "info": "Alerta amarillo, riesgo bajo a moderado, en aumento", "Dinamica": "⬆️", "PACiano": "✅✅ (precisión muy alta)", "Cloro": 128.141, "Turb": 23.685, "MON": 2.547, "B5": 0.045, "E. Trofico": "Eutrofico", "A. TURB": "Baja", "A. MON": "Alta" }, "geometry": { "type": "Point", "coordinates": [ -61.50824282, -36.69663593 ] } },
{ "type": "Feature", "properties": { "CodPunto": "BRAG", "Nombre": "Laguna Bragado", "Municipio": "Bragado", "Tipo": "Laguna", "Laguna Rio": "Laguna De Bragado", "Alerta": 2, "S2 Fecha": "6/29/2026", "S3 Fecha": "7/7/2026", "Fecha": "7/7/2026", "info": "Alerta amarillo, riesgo bajo a moderado, en disminución", "Dinamica": "⬇️", "PACiano": "✅✅ (precisión muy alta)", "Cloro": 114.908, "Turb": 26.083, "MON": 8.684, "B5": 0.034, "E. Trofico": "Eutrofico", "A. TURB": "Baja", "A. MON": "Muy Alta" }, "geometry": { "type": "Point", "coordinates": [ -60.47505778, -35.08147353 ] } },
{ "type": "Feature", "properties": { "CodPunto": "ROCH", "Nombre": "Camping De Rocha, Rocha", "Municipio": "Bragado", "Tipo": "Laguna", "Laguna Rio": "Camping Laguna De Rocha", "Alerta": 4, "S2 Fecha": "6/29/2026", "S3 Fecha": "7/7/2026", "Fecha": "7/7/2026", "info": "Alerta roja, riesgo alto, en disminución", "Dinamica": "⬇️", "PACiano": "✅ (precisión alta)", "Cloro": 363.558, "Turb": 56.426, "MON": 7.392, "B5": 0.042, "E. Trofico": "Hipereutrofico", "A. TURB": "Alta", "A. MON": "Muy Alta" }, "geometry": { "type": "Point", "coordinates": [ -60.68567662, -34.69990796 ] } },
{ "type": "Feature", "properties": { "CodPunto": "CCAR1", "Nombre": "Compuerta Balneario C. Areco", "Municipio": "Carmen de Areco", "Tipo": "Rio", "Laguna Rio": "Rio Areco", "Alerta": null, "S2 Fecha": "7/1/2026", "S3 Fecha": "7/7/2026", "Fecha": "7/7/2026", "info": "SIN DATOS", "Dinamica": "SIN DATOS", "PACiano": "❓ no se estima", "Cloro": null, "Turb": null, "MON": null, "B5": null, "E. Trofico": "sin datos", "A. TURB": "sin datos", "A. MON": "sin datos" }, "geometry": { "type": "Point", "coordinates": [ -59.817297872105193, -34.351939932340258 ] } },
{ "type": "Feature", "properties": { "CodPunto": "ADE", "Nombre": "Laguna Adela", "Municipio": "Chascomus", "Tipo": "Laguna", "Laguna Rio": "Laguna Adela", "Alerta": 4, "S2 Fecha": "7/1/2026", "S3 Fecha": "7/7/2026", "Fecha": "7/7/2026", "info": "Alerta roja, riesgo alto, estable", "Dinamica": "🟰", "PACiano": "✅✅ (precisión muy alta)", "Cloro": 486.449, "Turb": 87.59, "MON": 0.557, "B5": 0.126, "E. Trofico": "Hipereutrofico", "A. TURB": "Muy alta", "A. MON": "Media" }, "geometry": { "type": "Point", "coordinates": [ -57.99356866, -35.68609728 ] } },
{ "type": "Feature", "properties": { "CodPunto": "BURR", "Nombre": "Laguna del Burro", "Municipio": "Chascomus", "Tipo": "Laguna", "Laguna Rio": "Laguna Del Burro", "Alerta": 3, "S2 Fecha": "7/1/2026", "S3 Fecha": "7/7/2026", "Fecha": "7/7/2026", "info": "Alerta naranja, riesgo moderado a alto, en aumento", "Dinamica": "⬆️", "PACiano": "✅✅ (precisión muy alta)", "Cloro": 429.405, "Turb": 64.104, "MON": 8.213, "B5": 0.078, "E. Trofico": "Hipereutrofico", "A. TURB": "Alta", "A. MON": "Muy Alta" }, "geometry": { "type": "Point", "coordinates": [ -57.92938006, -35.68509433 ] } },
{ "type": "Feature", "properties": { "CodPunto": "ESQ1", "Nombre": "Laguna Esquivel", "Municipio": "Chascomus", "Tipo": "Laguna", "Laguna Rio": "Laguna Esquivel", "Alerta": 3, "S2 Fecha": "7/1/2026", "S3 Fecha": "7/7/2026", "Fecha": "7/7/2026", "info": "Alerta naranja, riesgo moderado a alto, estable", "Dinamica": "🟰", "PACiano": "❓ no se estima", "Cloro": 105.651, "Turb": 47.668, "MON": 0.798, "B5": 0.059, "E. Trofico": "Eutrofico", "A. TURB": "Alta", "A. MON": "Media" }, "geometry": { "type": "Point", "coordinates": [ -58.22290918, -35.79297381 ] } },
{ "type": "Feature", "properties": { "CodPunto": "CHAS2", "Nombre": "Laguna Chascomús", "Municipio": "Chascomus", "Tipo": "Laguna", "Laguna Rio": "Laguna De Chascomus", "Alerta": 3, "S2 Fecha": "7/1/2026", "S3 Fecha": "7/7/2026", "Fecha": "7/7/2026", "info": "Alerta naranja, riesgo moderado a alto, estable", "Dinamica": "🟰", "PACiano": "✅✅ (precisión muy alta)", "Cloro": 233.134, "Turb": 11.167, "MON": 0.637, "B5": 0.065, "E. Trofico": "Eutrofico", "A. TURB": "Baja", "A. MON": "Baja" }, "geometry": { "type": "Point", "coordinates": [ -58.00152607, -35.59030192 ] } },
{ "type": "Feature", "properties": { "CodPunto": "CHASMUELLE", "Nombre": "Muellle Laguna Chascomús", "Municipio": "Chascomus", "Tipo": "Laguna", "Laguna Rio": "Laguna De Chascomus", "Alerta": 2, "S2 Fecha": "7/1/2026", "S3 Fecha": "7/7/2026", "Fecha": "7/7/2026", "info": "Alerta amarillo, riesgo bajo a moderado, en aumento", "Dinamica": "⬆️", "PACiano": "✅✅ (precisión muy alta)", "Cloro": 227.327, "Turb": 10.72, "MON": 0.503, "B5": 0.069, "E. Trofico": "Eutrofico", "A. TURB": "Baja", "A. MON": "Baja" }, "geometry": { "type": "Point", "coordinates": [ -58.027604, -35.59141631 ] } },
{ "type": "Feature", "properties": { "CodPunto": "LIM1", "Nombre": "La Laguna La Limipia", "Municipio": "Chascomus", "Tipo": "Laguna", "Laguna Rio": "Laguna La Limpia", "Alerta": 1, "S2 Fecha": "7/1/2026", "S3 Fecha": "7/7/2026", "Fecha": "7/7/2026", "info": "Alerta verde, riesgo nulo a bajo y estable", "Dinamica": "🟰", "PACiano": "✅✅ (precisión muy alta)", "Cloro": 23.159, "Turb": 25.573, "MON": 0.258, "B5": 0.114, "E. Trofico": "Mesotrofico", "A. TURB": "Baja", "A. MON": "Baja" }, "geometry": { "type": "Point", "coordinates": [ -57.81513465, -35.60999172 ] } },
{ "type": "Feature", "properties": { "CodPunto": "MUL1", "Nombre": "Laguna Las Mulas", "Municipio": "Chascomus", "Tipo": "Laguna", "Laguna Rio": "Laguna Las Mulas", "Alerta": 4, "S2 Fecha": "7/1/2026", "S3 Fecha": "7/7/2026", "Fecha": "7/7/2026", "info": "SIN DATOS", "Dinamica": "SIN DATOS", "PACiano": "⚠ (precisión media)", "Cloro": 191.003, "Turb": 42.546, "MON": 0.475, "B5": 0.122, "E. Trofico": "Eutrofico", "A. TURB": "Media", "A. MON": "Baja" }, "geometry": { "type": "Point", "coordinates": [ -57.90108163, -35.53351702 ] } },
{ "type": "Feature", "properties": { "CodPunto": "VIT1", "Nombre": "Laguna Vitel", "Municipio": "Chascomus", "Tipo": "Laguna", "Laguna Rio": "Laguna Vitel", "Alerta": 3, "S2 Fecha": "7/1/2026", "S3 Fecha": "7/7/2026", "Fecha": "7/7/2026", "info": "Alerta naranja, riesgo moderado a alto, en aumento", "Dinamica": "⬆️", "PACiano": "✅✅ (precisión muy alta)", "Cloro": 370.925, "Turb": 56.905, "MON": 1.091, "B5": 0.048, "E. Trofico": "Hipereutrofico", "A. TURB": "Alta", "A. MON": "Media" }, "geometry": { "type": "Point", "coordinates": [ -58.110802, -35.52930325 ] } },
{ "type": "Feature", "properties": { "CodPunto": "YAS1", "Nombre": "Laguna Yasica", "Municipio": "Chascomus", "Tipo": "Laguna", "Laguna Rio": "Laguna Yasica", "Alerta": 4, "S2 Fecha": "7/1/2026", "S3 Fecha": "7/7/2026", "Fecha": "7/7/2026", "info": "SIN DATOS", "Dinamica": "SIN DATOS", "PACiano": "⚠ (precisión media)", "Cloro": 226.816, "Turb": 56.888, "MON": 0.765, "B5": 0.096, "E. Trofico": "Eutrofico", "A. TURB": "Alta", "A. MON": "Media" }, "geometry": { "type": "Point", "coordinates": [ -57.90670928, -35.5762537 ] } },
{ "type": "Feature", "properties": { "CodPunto": "RSCH", "Nombre": "Rio Salado Zona de recreo", "Municipio": "Chivilcoy", "Tipo": "Rio", "Laguna Rio": "Rio Salado Zona De Recreo", "Alerta": 3, "S2 Fecha": "7/1/2026", "S3 Fecha": "7/7/2026", "Fecha": "7/7/2026", "info": "Alerta naranja, riesgo moderado a alto, estable", "Dinamica": "🟰", "PACiano": "❓ no se estima", "Cloro": 110.098, "Turb": 48.149, "MON": 0.802, "B5": 0.077, "E. Trofico": "Eutrofico", "A. TURB": "Alta", "A. MON": "Media" }, "geometry": { "type": "Point", "coordinates": [ -59.95569496, -35.12473955 ] } },
{ "type": "Feature", "properties": { "CodPunto": "CHIM", "Nombre": "Parque Lagunario Martija Campiing", "Municipio": "Chivilcoy", "Tipo": "Laguna", "Laguna Rio": "Laguna Chivilcoy", "Alerta": 4, "S2 Fecha": "7/1/2026", "S3 Fecha": "7/7/2026", "Fecha": "7/7/2026", "info": "Alerta roja, riesgo alto, estable", "Dinamica": "🟰", "PACiano": "❓ no se estima", "Cloro": 140.822, "Turb": 40.812, "MON": 0.828, "B5": 0.036, "E. Trofico": "Eutrofico", "A. TURB": "Media", "A. MON": "Media" }, "geometry": { "type": "Point", "coordinates": [ -60.104328395370629, -34.83785094859256 ] } },
{ "type": "Feature", "properties": { "CodPunto": "LGC", "Nombre": "Laguna Colón", "Municipio": "Colon", "Tipo": "Laguna", "Laguna Rio": "Lago Colon", "Alerta": 1, "S2 Fecha": "6/29/2026", "S3 Fecha": "7/7/2026", "Fecha": "7/7/2026", "info": "Alerta verde, riesgo nulo a bajo y estable", "Dinamica": "🟰", "PACiano": "❓ no se estima", "Cloro": null, "Turb": null, "MON": null, "B5": null, "E. Trofico": "sin datos", "A. TURB": "sin datos", "A. MON": "sin datos" }, "geometry": { "type": "Point", "coordinates": [ -61.097298470306143, -33.920615779283416 ] } },
{ "type": "Feature", "properties": { "CodPunto": "DLP1", "Nombre": "Dique Las Piedras 1", "Municipio": "Coronel Pringles", "Tipo": "Dique", "Laguna Rio": "Dique Las Piedras", "Alerta": 1, "S2 Fecha": "7/1/2026", "S3 Fecha": "7/7/2026", "Fecha": "7/7/2026", "info": "Alerta verde, riesgo nulo a bajo y estable", "Dinamica": "🟰", "PACiano": "✅✅ (precisión muy alta)", "Cloro": 40.354, "Turb": 18.438, "MON": 0.233, "B5": 0.068, "E. Trofico": "Mesotrofico", "A. TURB": "Baja", "A. MON": "Baja" }, "geometry": { "type": "Point", "coordinates": [ -61.74454826, -38.41975441 ] } },
{ "type": "Feature", "properties": { "CodPunto": "ELJ", "Nombre": "Laguna El Juancho", "Municipio": "Daireaux", "Tipo": "Laguna", "Laguna Rio": "Laguna El Juancho", "Alerta": 1, "S2 Fecha": "6/29/2026", "S3 Fecha": "7/7/2026", "Fecha": "7/7/2026", "info": "Alerta verde, riesgo nulo a bajo y estable", "Dinamica": "🟰", "PACiano": "✅✅ (precisión muy alta)", "Cloro": 0.687, "Turb": 12.683, "MON": 3.573, "B5": 0.014, "E. Trofico": "oligotrofico", "A. TURB": "Baja", "A. MON": "Muy Alta" }, "geometry": { "type": "Point", "coordinates": [ -61.55883592, -36.70867129 ] } },
{ "type": "Feature", "properties": { "CodPunto": "CLUB", "Nombre": "Rio de La Plata Club Pesca de Ensenada", "Municipio": "Ensenada", "Tipo": "Rio", "Laguna Rio": "Rio De La Plata", "Alerta": 1, "S2 Fecha": "7/1/2026", "S3 Fecha": "7/8/2026", "Fecha": "7/8/2026", "info": "Alerta verde, riesgo nulo a bajo y estable", "Dinamica": "🟰", "PACiano": "✅✅ (precisión muy alta)", "Cloro": 2.439, "Turb": 64.944, "MON": 0.693, "B5": 0.083, "E. Trofico": "oligotrofico", "A. TURB": "Alta", "A. MON": "Media" }, "geometry": { "type": "Point", "coordinates": [ -57.94353351, -34.82575485 ] } },
{ "type": "Feature", "properties": { "CodPunto": "CLUBR", "Nombre": "Rio Santiago Club Ensenada", "Municipio": "Ensenada", "Tipo": "Rio", "Laguna Rio": "Rio Santiago", "Alerta": 1, "S2 Fecha": "6/26/2026", "S3 Fecha": "7/8/2026", "Fecha": "7/8/2026", "info": "Alerta verde, riesgo nulo a bajo pero en aumento", "Dinamica": "⬆️", "PACiano": "✅✅ (precisión muy alta)", "Cloro": 18.214, "Turb": 20.868, "MON": 0.57, "B5": 0.041, "E. Trofico": "Mesotrofico", "A. TURB": "Baja", "A. MON": "Baja" }, "geometry": { "type": "Point", "coordinates": [ -57.918268, -34.8397494 ] } },
{ "type": "Feature", "properties": { "CodPunto": "PERG", "Nombre": "Rio de La Plata Pergola Ensenada", "Municipio": "Ensenada", "Tipo": "Rio", "Laguna Rio": "Rio De La Plata", "Alerta": 1, "S2 Fecha": "7/1/2026", "S3 Fecha": "7/8/2026", "Fecha": "7/8/2026", "info": "Alerta verde, riesgo nulo a bajo y estable", "Dinamica": "🟰", "PACiano": "✅✅ (precisión muy alta)", "Cloro": 2.352, "Turb": 66.456, "MON": 0.571, "B5": 0.077, "E. Trofico": "oligotrofico", "A. TURB": "Alta", "A. MON": "Media" }, "geometry": { "type": "Point", "coordinates": [ -57.97633847, -34.79811973 ] } },
{ "type": "Feature", "properties": { "CodPunto": "PARA", "Nombre": "Rio de La Plata Parador Ensenada", "Municipio": "Ensenada", "Tipo": "Rio", "Laguna Rio": "Rio De La Plata", "Alerta": 1, "S2 Fecha": "7/1/2026", "S3 Fecha": "7/8/2026", "Fecha": "7/8/2026", "info": "Alerta verde, riesgo nulo a bajo y estable", "Dinamica": "🟰", "PACiano": "✅✅ (precisión muy alta)", "Cloro": 2.618, "Turb": 67.6, "MON": 0.677, "B5": 0.086, "E. Trofico": "oligotrofico", "A. TURB": "Alta", "A. MON": "Media" }, "geometry": { "type": "Point", "coordinates": [ -57.94851535, -34.8273528 ] } },
{ "type": "Feature", "properties": { "CodPunto": "CARI", "Nombre": "Canal Arias", "Municipio": "Escobar", "Tipo": "Rio", "Laguna Rio": "Interseccion Canal Arias En Rio Parana", "Alerta": 1, "S2 Fecha": "6/26/2026", "S3 Fecha": "7/8/2026", "Fecha": "7/8/2026", "info": "Alerta verde, riesgo nulo a bajo y estable", "Dinamica": "🟰", "PACiano": "✅✅ (precisión muy alta)", "Cloro": 9.071, "Turb": 36.305, "MON": 0.458, "B5": 0.083, "E. Trofico": "oligotrofico", "A. TURB": "Media", "A. MON": "Baja" }, "geometry": { "type": "Point", "coordinates": [ -58.65464648, -34.27289635 ] } },
{ "type": "Feature", "properties": { "CodPunto": "RSM2", "Nombre": "Rio Salado Puente R3", "Municipio": "General Belgrano", "Tipo": "Rio", "Laguna Rio": "Rio Salado Puente Ruta Tres", "Alerta": 1, "S2 Fecha": "7/1/2026", "S3 Fecha": "7/7/2026", "Fecha": "7/7/2026", "info": "Alerta verde, riesgo nulo a bajo y estable", "Dinamica": "🟰", "PACiano": "❓ no se estima", "Cloro": 85.132, "Turb": 46.451, "MON": 4.945, "B5": 0.056, "E. Trofico": "Eutrofico", "A. TURB": "Alta", "A. MON": "Muy Alta" }, "geometry": { "type": "Point", "coordinates": [ -58.84991815, -35.65020014 ] } },
{ "type": "Feature", "properties": { "CodPunto": "CARB", "Nombre": "Laguna El Carbón", "Municipio": "General Juan Madariaga", "Tipo": "Laguna", "Laguna Rio": "Laguna El Carbon", "Alerta": 2, "S2 Fecha": null, "S3 Fecha": "7/7/2026", "Fecha": "7/7/2026", "info": "Alerta amarillo, riesgo bajo a moderado, estable", "Dinamica": "🟰", "PACiano": "❓ no se estima", "Cloro": null, "Turb": null, "MON": null, "B5": null, "E. Trofico": "sin datos", "A. TURB": "sin datos", "A. MON": "sin datos" }, "geometry": { "type": "Point", "coordinates": [ -57.08335256, -36.94859847 ] } },
{ "type": "Feature", "properties": { "CodPunto": "LARG", "Nombre": "Laguna La Larga", "Municipio": "General Juan Madariaga", "Tipo": "Laguna", "Laguna Rio": "Laguna La Larga", "Alerta": 2, "S2 Fecha": null, "S3 Fecha": "7/7/2026", "Fecha": "7/7/2026", "info": "Alerta amarillo, riesgo bajo a moderado, estable", "Dinamica": "🟰", "PACiano": "❓ no se estima", "Cloro": null, "Turb": null, "MON": null, "B5": null, "E. Trofico": "sin datos", "A. TURB": "sin datos", "A. MON": "sin datos" }, "geometry": { "type": "Point", "coordinates": [ -57.11466679, -36.94659258 ] } },
{ "type": "Feature", "properties": { "CodPunto": "HORC", "Nombre": "Laguna Los Horcones", "Municipio": "General Juan Madariaga", "Tipo": "Laguna", "Laguna Rio": "Laguna Los Horcones", "Alerta": 3, "S2 Fecha": "6/28/2026", "S3 Fecha": "7/7/2026", "Fecha": "7/7/2026", "info": "Alerta naranja, riesgo moderado a alto, estable", "Dinamica": "🟰", "PACiano": "❓ no se estima", "Cloro": null, "Turb": null, "MON": null, "B5": null, "E. Trofico": "sin datos", "A. TURB": "sin datos", "A. MON": "sin datos" }, "geometry": { "type": "Point", "coordinates": [ -56.9915272, -37.06103997 ] } },
{ "type": "Feature", "properties": { "CodPunto": "CNAL", "Nombre": "Canal 2 Puente R11_General Lavalle", "Municipio": "General Lavalle", "Tipo": "Canal", "Laguna Rio": "Canal Dos Puente Ruta Once", "Alerta": null, "S2 Fecha": null, "S3 Fecha": "7/7/2026", "Fecha": "7/7/2026", "info": "SIN DATOS", "Dinamica": "SIN DATOS", "PACiano": "❓ no se estima", "Cloro": null, "Turb": null, "MON": null, "B5": null, "E. Trofico": "sin datos", "A. TURB": "sin datos", "A. MON": "sin datos" }, "geometry": { "type": "Point", "coordinates": [ -57.00668284, -36.48851052 ] } },
{ "type": "Feature", "properties": { "CodPunto": "SALG", "Nombre": "Reserva natural Salada Grande", "Municipio": "General Lavalle", "Tipo": "Laguna", "Laguna Rio": "Reserva Natural Laguna Salada Grande", "Alerta": 3, "S2 Fecha": null, "S3 Fecha": "7/7/2026", "Fecha": "7/7/2026", "info": "Alerta naranja, riesgo moderado a alto, estable", "Dinamica": "🟰", "PACiano": "❓ no se estima", "Cloro": null, "Turb": null, "MON": null, "B5": null, "E. Trofico": "sin datos", "A. TURB": "sin datos", "A. MON": "sin datos" }, "geometry": { "type": "Point", "coordinates": [ -56.961667, -36.891111 ] } },
{ "type": "Feature", "properties": { "CodPunto": "RGUI1", "Nombre": "Rio Guido", "Municipio": "General Lavalle", "Tipo": "Rio", "Laguna Rio": "Rio Guido", "Alerta": null, "S2 Fecha": null, "S3 Fecha": "7/7/2026", "Fecha": "7/7/2026", "info": "SIN DATOS", "Dinamica": "SIN DATOS", "PACiano": "❓ no se estima", "Cloro": null, "Turb": null, "MON": null, "B5": null, "E. Trofico": "sin datos", "A. TURB": "sin datos", "A. MON": "sin datos" }, "geometry": { "type": "Point", "coordinates": [ -57.07616477, -36.49732809 ] } },
{ "type": "Feature", "properties": { "CodPunto": "RGUI2", "Nombre": "Rio Guido al mar", "Municipio": "General Lavalle", "Tipo": "Rio", "Laguna Rio": "Rio Guido Al Mar", "Alerta": null, "S2 Fecha": null, "S3 Fecha": "7/7/2026", "Fecha": "7/7/2026", "info": "SIN DATOS", "Dinamica": "SIN DATOS", "PACiano": "❓ no se estima", "Cloro": null, "Turb": null, "MON": null, "B5": null, "E. Trofico": "sin datos", "A. TURB": "sin datos", "A. MON": "sin datos" }, "geometry": { "type": "Point", "coordinates": [ -57.04262177, -36.48696431 ] } },
{ "type": "Feature", "properties": { "CodPunto": "RANC", "Nombre": "Laguna de Ranchos", "Municipio": "General Paz", "Tipo": "Laguna", "Laguna Rio": "Laguna De Ranchos", "Alerta": 4, "S2 Fecha": "7/1/2026", "S3 Fecha": "7/7/2026", "Fecha": "7/7/2026", "info": "Alerta roja, riesgo alto, estable", "Dinamica": "🟰", "PACiano": "❓ no se estima", "Cloro": 419.657, "Turb": 52.322, "MON": 1.302, "B5": 0.113, "E. Trofico": "Hipereutrofico", "A. TURB": "Alta", "A. MON": "Media" }, "geometry": { "type": "Point", "coordinates": [ -58.32590974, -35.506641 ] } },
{ "type": "Feature", "properties": { "CodPunto": "LPD1", "Nombre": "Laguna de Los Padres", "Municipio": "General Pueyrredon", "Tipo": "Laguna", "Laguna Rio": "Laguna De Los Padres", "Alerta": 1, "S2 Fecha": "6/28/2026", "S3 Fecha": "7/7/2026", "Fecha": "7/7/2026", "info": "Alerta verde, riesgo nulo a bajo y estable", "Dinamica": "🟰", "PACiano": "✅✅ (precisión muy alta)", "Cloro": 2000.0, "Turb": 2.569, "MON": 15.4, "B5": 0.009, "E. Trofico": "Hipereutrofico", "A. TURB": "Baja", "A. MON": "Muy Alta" }, "geometry": { "type": "Point", "coordinates": [ -57.73326215, -37.93583254 ] } },
{ "type": "Feature", "properties": { "CodPunto": "SALP", "Nombre": "Laguna Salada Gral Pinto", "Municipio": "General Pinto", "Tipo": "Laguna", "Laguna Rio": "Laguna La Salada", "Alerta": 1, "S2 Fecha": "6/29/2026", "S3 Fecha": "7/7/2026", "Fecha": "7/7/2026", "info": "Alerta verde, riesgo nulo a bajo y estable", "Dinamica": "🟰", "PACiano": "❓ no se estima", "Cloro": null, "Turb": null, "MON": null, "B5": null, "E. Trofico": "sin datos", "A. TURB": "sin datos", "A. MON": "sin datos" }, "geometry": { "type": "Point", "coordinates": [ -62.187931640617414, -34.738329701347212 ] } },
{ "type": "Feature", "properties": { "CodPunto": "CARL", "Nombre": "Laguna Carlota", "Municipio": "General La Madrid", "Tipo": "Laguna", "Laguna Rio": "Laguna La Carlota", "Alerta": 1, "S2 Fecha": "7/1/2026", "S3 Fecha": "7/7/2026", "Fecha": "7/7/2026", "info": "Alerta verde, riesgo nulo a bajo y estable", "Dinamica": "🟰", "PACiano": "✅✅ (precisión muy alta)", "Cloro": 16.365, "Turb": 25.995, "MON": 0.269, "B5": 0.09, "E. Trofico": "Mesotrofico", "A. TURB": "Baja", "A. MON": "Baja" }, "geometry": { "type": "Point", "coordinates": [ -61.394456552632938, -37.676306107271003 ] } },
{ "type": "Feature", "properties": { "CodPunto": "ALS1", "Nombre": "Laguna Alsina 1", "Municipio": "Guamini", "Tipo": "Laguna", "Laguna Rio": "Laguna Alsina", "Alerta": 3, "S2 Fecha": "6/29/2026", "S3 Fecha": "7/7/2026", "Fecha": "7/7/2026", "info": "Alerta naranja, riesgo moderado a alto, en disminución", "Dinamica": "⬇️", "PACiano": "✅ (precisión alta)", "Cloro": 88.829, "Turb": 36.265, "MON": 1.104, "B5": 0.05, "E. Trofico": "Eutrofico", "A. TURB": "Media", "A. MON": "Media" }, "geometry": { "type": "Point", "coordinates": [ -62.19693303, -36.876499 ] } },
{ "type": "Feature", "properties": { "CodPunto": "ALS2", "Nombre": "Laguna Alsina 2", "Municipio": "Guamini", "Tipo": "Laguna", "Laguna Rio": "Laguna Alsina", "Alerta": 1, "S2 Fecha": "6/29/2026", "S3 Fecha": "7/7/2026", "Fecha": "7/7/2026", "info": "Alerta verde, riesgo nulo a bajo y estable", "Dinamica": "🟰", "PACiano": "✅✅ (precisión muy alta)", "Cloro": 78.043, "Turb": 35.144, "MON": 1.26, "B5": 0.05, "E. Trofico": "Eutrofico", "A. TURB": "Media", "A. MON": "Media" }, "geometry": { "type": "Point", "coordinates": [ -62.0239804, -36.84172891 ] } },
{ "type": "Feature", "properties": { "CodPunto": "COCH", "Nombre": "Laguna Cochicó", "Municipio": "Guamini", "Tipo": "Laguna", "Laguna Rio": "Laguna Cochico", "Alerta": 1, "S2 Fecha": "6/29/2026", "S3 Fecha": "7/7/2026", "Fecha": "7/7/2026", "info": "Alerta verde, riesgo nulo a bajo y estable", "Dinamica": "🟰", "PACiano": "✅✅ (precisión muy alta)", "Cloro": 24.934, "Turb": 12.741, "MON": 0.768, "B5": 0.039, "E. Trofico": "Mesotrofico", "A. TURB": "Baja", "A. MON": "Media" }, "geometry": { "type": "Point", "coordinates": [ -62.32571767, -36.92433273 ] } },
{ "type": "Feature", "properties": { "CodPunto": "DMONTE", "Nombre": "Laguna del Monte", "Municipio": "Guamini", "Tipo": "Laguna", "Laguna Rio": "Laguna Del Monte", "Alerta": 1, "S2 Fecha": "6/29/2026", "S3 Fecha": "7/7/2026", "Fecha": "7/7/2026", "info": "Alerta verde, riesgo nulo a bajo y estable", "Dinamica": "🟰", "PACiano": "✅✅ (precisión muy alta)", "Cloro": 3.868, "Turb": 6.308, "MON": 1.28, "B5": 0.017, "E. Trofico": "oligotrofico", "A. TURB": "Baja", "A. MON": "Media" }, "geometry": { "type": "Point", "coordinates": [ -62.476723, -37.020806 ] } },
{ "type": "Feature", "properties": { "CodPunto": "CAR1", "Nombre": "Laguna Carpincho", "Municipio": "Junin", "Tipo": "Laguna", "Laguna Rio": "Laguna El Carpincho", "Alerta": 4, "S2 Fecha": "6/29/2026", "S3 Fecha": "7/7/2026", "Fecha": "7/7/2026", "info": "Alerta roja, riesgo alto, en disminución", "Dinamica": "⬇️", "PACiano": "✅✅ (precisión muy alta)", "Cloro": 372.795, "Turb": 58.892, "MON": 2.595, "B5": 0.053, "E. Trofico": "Hipereutrofico", "A. TURB": "Alta", "A. MON": "Alta" }, "geometry": { "type": "Point", "coordinates": [ -60.89518109, -34.57554254 ] } },
{ "type": "Feature", "properties": { "CodPunto": "GOMP", "Nombre": "Laguna Gómez", "Municipio": "Junin", "Tipo": "Laguna", "Laguna Rio": "Laguna Gomez", "Alerta": 2, "S2 Fecha": "6/29/2026", "S3 Fecha": "7/7/2026", "Fecha": "7/7/2026", "info": "Alerta amarillo, riesgo bajo a moderado, estable", "Dinamica": "🟰", "PACiano": "❓ no se estima", "Cloro": null, "Turb": null, "MON": null, "B5": null, "E. Trofico": "sin datos", "A. TURB": "sin datos", "A. MON": "sin datos" }, "geometry": { "type": "Point", "coordinates": [ -61.13782807, -34.65028994 ] } },
{ "type": "Feature", "properties": { "CodPunto": "GOMEZ1", "Nombre": "Laguna Cómez 1", "Municipio": "Junin", "Tipo": "Laguna", "Laguna Rio": "Laguna Gomez", "Alerta": 3, "S2 Fecha": "6/29/2026", "S3 Fecha": "7/7/2026", "Fecha": "7/7/2026", "info": "Alerta naranja, riesgo moderado a alto, en disminución", "Dinamica": "⬇️", "PACiano": "✅✅ (precisión muy alta)", "Cloro": 270.478, "Turb": 60.051, "MON": 1.089, "B5": 0.063, "E. Trofico": "Hipereutrofico", "A. TURB": "Alta", "A. MON": "Muy Alta" }, "geometry": { "type": "Point", "coordinates": [ -61.03158186, -34.66692215 ] } },
{ "type": "Feature", "properties": { "CodPunto": "GOMEZ2", "Nombre": "Laguna Gómez 2", "Municipio": "Junin", "Tipo": "Laguna", "Laguna Rio": "Laguna Gomez", "Alerta": 3, "S2 Fecha": "6/29/2026", "S3 Fecha": "7/7/2026", "Fecha": "7/7/2026", "info": "Alerta naranja, riesgo moderado a alto, en disminución", "Dinamica": "⬇️", "PACiano": "✅✅ (precisión muy alta)", "Cloro": 288.826, "Turb": 59.968, "MON": 2.585, "B5": 0.06, "E. Trofico": "Hipereutrofico", "A. TURB": "Alta", "A. MON": "Alta" }, "geometry": { "type": "Point", "coordinates": [ -61.06077876, -34.65421815 ] } },
{ "type": "Feature", "properties": { "CodPunto": "MCHJ", "Nombre": "Laguna Mar Chiquita", "Municipio": "Junin", "Tipo": "Laguna", "Laguna Rio": "Laguna Mar Chiquita Junin", "Alerta": 3, "S2 Fecha": "6/29/2026", "S3 Fecha": "7/7/2026", "Fecha": "7/7/2026", "info": "Alerta naranja, riesgo moderado a alto, estable", "Dinamica": "🟰", "PACiano": "✅✅ (precisión muy alta)", "Cloro": 216.136, "Turb": 61.811, "MON": 1.171, "B5": 0.069, "E. Trofico": "Eutrofico", "A. TURB": "Alta", "A. MON": "Muy Alta" }, "geometry": { "type": "Point", "coordinates": [ -61.1695184, -34.44942197 ] } },
{ "type": "Feature", "properties": { "CodPunto": "LAGO1", "Nombre": "Lago del Bosque de La Plata", "Municipio": "La Plata", "Tipo": "Laguna", "Laguna Rio": "Lago Del Bosque", "Alerta": 3, "S2 Fecha": "6/26/2026", "S3 Fecha": "7/8/2026", "Fecha": "7/8/2026", "info": "Alerta naranja, riesgo moderado a alto, estable", "Dinamica": "🟰", "PACiano": "❓ no se estima", "Cloro": 310.506, "Turb": 47.19, "MON": 0.994, "B5": 0.049, "E. Trofico": "Hipereutrofico", "A. TURB": "Alta", "A. MON": "Media" }, "geometry": { "type": "Point", "coordinates": [ -57.93792252, -34.91049894 ] } },
{ "type": "Feature", "properties": { "CodPunto": "LAGO2", "Nombre": "Lago Republica Ninios de La Plata", "Municipio": "La Plata", "Tipo": "Laguna", "Laguna Rio": "Lago Republica Ninios", "Alerta": null, "S2 Fecha": "6/26/2026", "S3 Fecha": "7/8/2026", "Fecha": "7/8/2026", "info": "SIN DATOS", "Dinamica": "SIN DATOS", "PACiano": "❓ no se estima", "Cloro": null, "Turb": null, "MON": null, "B5": null, "E. Trofico": "sin datos", "A. TURB": "sin datos", "A. MON": "sin datos" }, "geometry": { "type": "Point", "coordinates": [ -58.017611, -34.882361 ] } },
{ "type": "Feature", "properties": { "CodPunto": "SAAV", "Nombre": "Parque Saavedra de La Plata", "Municipio": "La Plata", "Tipo": "Laguna", "Laguna Rio": "Laguna Parque Saavedra", "Alerta": null, "S2 Fecha": "6/26/2026", "S3 Fecha": "7/8/2026", "Fecha": "7/8/2026", "info": "SIN DATOS", "Dinamica": "SIN DATOS", "PACiano": "❓ no se estima", "Cloro": null, "Turb": null, "MON": null, "B5": null, "E. Trofico": "sin datos", "A. TURB": "sin datos", "A. MON": "sin datos" }, "geometry": { "type": "Point", "coordinates": [ -57.94185072, -34.93064494 ] } },
{ "type": "Feature", "properties": { "CodPunto": "LPR1", "Nombre": "Laguna del Paraíso", "Municipio": "Laprida", "Tipo": "Laguna", "Laguna Rio": "Laguna El Paraiso", "Alerta": 1, "S2 Fecha": "7/1/2026", "S3 Fecha": "7/7/2026", "Fecha": "7/7/2026", "info": "Alerta verde, riesgo nulo a bajo pero en aumento", "Dinamica": "⬆️", "PACiano": "✅✅ (precisión muy alta)", "Cloro": 37.834, "Turb": 19.775, "MON": 0.852, "B5": 0.032, "E. Trofico": "Mesotrofico", "A. TURB": "Baja", "A. MON": "Media" }, "geometry": { "type": "Point", "coordinates": [ -60.79754351, -37.569146 ] } },
{ "type": "Feature", "properties": { "CodPunto": "LPR3", "Nombre": "Laguna Quilla Lauquen", "Municipio": "Laprida", "Tipo": "Laguna", "Laguna Rio": "Quilla Lauquen", "Alerta": 1, "S2 Fecha": "7/1/2026", "S3 Fecha": "7/7/2026", "Fecha": "7/7/2026", "info": "Alerta verde, riesgo nulo a bajo pero en aumento", "Dinamica": "⬆️", "PACiano": "✅ (precisión alta)", "Cloro": 319.209, "Turb": 12.82, "MON": 15.808, "B5": 0.053, "E. Trofico": "Hipereutrofico", "A. TURB": "Baja", "A. MON": "Muy Alta" }, "geometry": { "type": "Point", "coordinates": [ -60.496604, -37.48183191 ] } },
{ "type": "Feature", "properties": { "CodPunto": "DIFM", "Nombre": "Laguna del Difunto Manuel", "Municipio": "Las Flores", "Tipo": "Laguna", "Laguna Rio": "Laguna Del Difunto Manuel", "Alerta": 1, "S2 Fecha": "7/1/2026", "S3 Fecha": "7/7/2026", "Fecha": "7/7/2026", "info": "Alerta verde, riesgo nulo a bajo y estable", "Dinamica": "🟰", "PACiano": "✅✅ (precisión muy alta)", "Cloro": 197.469, "Turb": 11.681, "MON": 1.152, "B5": 0.014, "E. Trofico": "Eutrofico", "A. TURB": "Baja", "A. MON": "Media" }, "geometry": { "type": "Point", "coordinates": [ -59.0755, -36.009417 ] } },
{ "type": "Feature", "properties": { "CodPunto": "SANB", "Nombre": "Laguna San Bartolo", "Municipio": "Leandro N. Alem", "Tipo": "Laguna", "Laguna Rio": "Laguna San Bartolo Balneario Municipal Leandro Alem", "Alerta": 1, "S2 Fecha": "6/29/2026", "S3 Fecha": "7/7/2026", "Fecha": "7/7/2026", "info": "Alerta verde, riesgo nulo a bajo y estable", "Dinamica": "🟰", "PACiano": "✅✅ (precisión muy alta)", "Cloro": 16.663, "Turb": 31.535, "MON": 1.393, "B5": 0.042, "E. Trofico": "Mesotrofico", "A. TURB": "Media", "A. MON": "Media" }, "geometry": { "type": "Point", "coordinates": [ -61.48145927, -34.45842063 ] } },
{ "type": "Feature", "properties": { "CodPunto": "CCHI", "Nombre": "Laguna Chis Chis", "Municipio": "Lezama", "Tipo": "Laguna", "Laguna Rio": "Laguna Chis Chis", "Alerta": 4, "S2 Fecha": "7/1/2026", "S3 Fecha": "7/7/2026", "Fecha": "7/7/2026", "info": "Alerta roja, riesgo alto, estable", "Dinamica": "🟰", "PACiano": "✅✅ (precisión muy alta)", "Cloro": 648.37, "Turb": 91.767, "MON": 2.296, "B5": 0.13, "E. Trofico": "Hipereutrofico", "A. TURB": "Muy alta", "A. MON": "Muy Alta" }, "geometry": { "type": "Point", "coordinates": [ -57.99055982, -35.76321275 ] } },
{ "type": "Feature", "properties": { "CodPunto": "CHIS", "Nombre": "Laguna Chis Chis 2", "Municipio": "Lezama", "Tipo": "Laguna", "Laguna Rio": "Laguna Chis Chis", "Alerta": 4, "S2 Fecha": "7/1/2026", "S3 Fecha": "7/7/2026", "Fecha": "7/7/2026", "info": "Alerta roja, riesgo alto, estable", "Dinamica": "🟰", "PACiano": "✅✅ (precisión muy alta)", "Cloro": 673.052, "Turb": 94.031, "MON": 5.019, "B5": 0.133, "E. Trofico": "Hipereutrofico", "A. TURB": "Muy alta", "A. MON": "Muy Alta" }, "geometry": { "type": "Point", "coordinates": [ -57.94830023, -35.76032928 ] } },
{ "type": "Feature", "properties": { "CodPunto": "BARRC", "Nombre": "Laguna Las Barrancas", "Municipio": "Lezama", "Tipo": "Laguna", "Laguna Rio": "Laguna Las Barrancas", "Alerta": 4, "S2 Fecha": "7/1/2026", "S3 Fecha": "7/7/2026", "Fecha": "7/7/2026", "info": "Alerta roja, riesgo alto, estable", "Dinamica": "🟰", "PACiano": "✅✅ (precisión muy alta)", "Cloro": 291.854, "Turb": 77.009, "MON": 0.543, "B5": 0.112, "E. Trofico": "Hipereutrofico", "A. TURB": "Muy alta", "A. MON": "Media" }, "geometry": { "type": "Point", "coordinates": [ -58.04931927, -35.89171532 ] } },
{ "type": "Feature", "properties": { "CodPunto": "TABL", "Nombre": "Laguna La Tablilla", "Municipio": "Lezama", "Tipo": "Laguna", "Laguna Rio": "Laguna La Tablilla", "Alerta": 4, "S2 Fecha": "7/1/2026", "S3 Fecha": "7/7/2026", "Fecha": "7/7/2026", "info": "Alerta roja, riesgo alto, estable", "Dinamica": "🟰", "PACiano": "✅✅ (precisión muy alta)", "Cloro": 462.241, "Turb": 87.877, "MON": 0.638, "B5": 0.132, "E. Trofico": "Hipereutrofico", "A. TURB": "Muy alta", "A. MON": "Media" }, "geometry": { "type": "Point", "coordinates": [ -58.03739535, -35.80841501 ] } },
{ "type": "Feature", "properties": { "CodPunto": "LOBO", "Nombre": "Laguna de Lobos", "Municipio": "Lobos", "Tipo": "Laguna", "Laguna Rio": "Laguna De Lobos", "Alerta": 4, "S2 Fecha": "7/1/2026", "S3 Fecha": "7/7/2026", "Fecha": "7/7/2026", "info": "Alerta roja, riesgo alto, estable", "Dinamica": "🟰", "PACiano": "✅✅ (precisión muy alta)", "Cloro": 424.175, "Turb": 79.205, "MON": 0.504, "B5": 0.11, "E. Trofico": "Hipereutrofico", "A. TURB": "Muy alta", "A. MON": "Media" }, "geometry": { "type": "Point", "coordinates": [ -59.12091231, -35.28236937 ] } },
{ "type": "Feature", "properties": { "CodPunto": "LUJ1", "Nombre": "Club Náutico Luján", "Municipio": "Lujan", "Tipo": "Rio", "Laguna Rio": "Club Nautico El Timon Rio Lujan", "Alerta": null, "S2 Fecha": "7/1/2026", "S3 Fecha": "7/7/2026", "Fecha": "7/7/2026", "info": "SIN DATOS", "Dinamica": "SIN DATOS", "PACiano": "❓ no se estima", "Cloro": null, "Turb": null, "MON": null, "B5": null, "E. Trofico": "sin datos", "A. TURB": "sin datos", "A. MON": "sin datos" }, "geometry": { "type": "Point", "coordinates": [ -59.195639, -34.593889 ] } },
{ "type": "Feature", "properties": { "CodPunto": "LUJ2", "Nombre": "Reserva Natural Quinta Cigordia", "Municipio": "Lujan", "Tipo": "Rio", "Laguna Rio": "Reserva Natural Quinta Cigordia", "Alerta": null, "S2 Fecha": "7/1/2026", "S3 Fecha": "7/7/2026", "Fecha": "7/7/2026", "info": "SIN DATOS", "Dinamica": "SIN DATOS", "PACiano": "❓ no se estima", "Cloro": null, "Turb": null, "MON": null, "B5": null, "E. Trofico": "sin datos", "A. TURB": "sin datos", "A. MON": "sin datos" }, "geometry": { "type": "Point", "coordinates": [ -59.133314, -34.577689 ] } },
{ "type": "Feature", "properties": { "CodPunto": "ATAL", "Nombre": "Rio de La Plata Atalaya", "Municipio": "Magdalena", "Tipo": "Rio", "Laguna Rio": "Rio De La Plata", "Alerta": 1, "S2 Fecha": "7/1/2026", "S3 Fecha": "7/8/2026", "Fecha": "7/8/2026", "info": "Alerta verde, riesgo nulo a bajo y estable", "Dinamica": "🟰", "PACiano": "✅✅ (precisión muy alta)", "Cloro": 1.959, "Turb": 64.853, "MON": 0.492, "B5": 0.094, "E. Trofico": "oligotrofico", "A. TURB": "Alta", "A. MON": "Baja" }, "geometry": { "type": "Point", "coordinates": [ -57.52590481, -35.00115326 ] } },
{ "type": "Feature", "properties": { "CodPunto": "MAGD", "Nombre": "Rio de La Plata Magdalena", "Municipio": "Magdalena", "Tipo": "Rio", "Laguna Rio": "Rio De La Plata", "Alerta": 1, "S2 Fecha": "7/1/2026", "S3 Fecha": "7/8/2026", "Fecha": "7/8/2026", "info": "Alerta verde, riesgo nulo a bajo y estable", "Dinamica": "🟰", "PACiano": "✅✅ (precisión muy alta)", "Cloro": 2.211, "Turb": 70.629, "MON": 0.419, "B5": 0.116, "E. Trofico": "oligotrofico", "A. TURB": "Alta", "A. MON": "Baja" }, "geometry": { "type": "Point", "coordinates": [ -57.49544978, -35.01544081 ] } },
{ "type": "Feature", "properties": { "CodPunto": "KHUI", "Nombre": "Laguna Kakel Huincul", "Municipio": "Maipu", "Tipo": "Laguna", "Laguna Rio": "Kakel Huincul", "Alerta": 1, "S2 Fecha": null, "S3 Fecha": "7/7/2026", "Fecha": "7/7/2026", "info": "Alerta verde, riesgo nulo a bajo y estable", "Dinamica": "🟰", "PACiano": "❓ no se estima", "Cloro": null, "Turb": null, "MON": null, "B5": null, "E. Trofico": "sin datos", "A. TURB": "sin datos", "A. MON": "sin datos" }, "geometry": { "type": "Point", "coordinates": [ -57.77552522, -36.79315564 ] } },
{ "type": "Feature", "properties": { "CodPunto": "YAM1", "Nombre": "Laguna Yamahuida", "Municipio": "Maipu", "Tipo": "Laguna", "Laguna Rio": "Laguna Yamahuida", "Alerta": 1, "S2 Fecha": null, "S3 Fecha": "7/7/2026", "Fecha": "7/7/2026", "info": "Alerta verde, riesgo nulo a bajo y estable", "Dinamica": "🟰", "PACiano": "❓ no se estima", "Cloro": null, "Turb": null, "MON": null, "B5": null, "E. Trofico": "sin datos", "A. TURB": "sin datos", "A. MON": "sin datos" }, "geometry": { "type": "Point", "coordinates": [ -57.70591791, -36.87387893 ] } },
{ "type": "Feature", "properties": { "CodPunto": "MCHIC", "Nombre": "Laguna Mar Chiquita", "Municipio": "Mar Chiquita", "Tipo": "Laguna", "Laguna Rio": "MarChiquita MarChiquita", "Alerta": 2, "S2 Fecha": "6/28/2026", "S3 Fecha": "7/7/2026", "Fecha": "7/7/2026", "info": "Alerta amarillo, riesgo bajo a moderado, en disminución", "Dinamica": "⬇️", "PACiano": "✅✅ (precisión muy alta)", "Cloro": 196.529, "Turb": 12.637, "MON": 0.712, "B5": 0.053, "E. Trofico": "Eutrofico", "A. TURB": "Baja", "A. MON": "Baja" }, "geometry": { "type": "Point", "coordinates": [ -57.39166781548176, -37.66800158551009 ] } },
{ "type": "Feature", "properties": { "CodPunto": "PMM", "Nombre": "Parque Municipal Merdeces", "Municipio": "Mercedes", "Tipo": "Rio", "Laguna Rio": "Rio Lujan", "Alerta": null, "S2 Fecha": "7/1/2026", "S3 Fecha": "7/7/2026", "Fecha": "7/7/2026", "info": "SIN DATOS", "Dinamica": "SIN DATOS", "PACiano": "❓ no se estima", "Cloro": null, "Turb": null, "MON": null, "B5": null, "E. Trofico": "sin datos", "A. TURB": "sin datos", "A. MON": "sin datos" }, "geometry": { "type": "Point", "coordinates": [ -59.439779813687586, -34.635556849256211 ] } },
{ "type": "Feature", "properties": { "CodPunto": "MONTE", "Nombre": "San Miguel del Monte", "Municipio": "Monte", "Tipo": "Laguna", "Laguna Rio": "San Miguel Del Monte", "Alerta": 4, "S2 Fecha": "7/1/2026", "S3 Fecha": "7/7/2026", "Fecha": "7/7/2026", "info": "Alerta roja, riesgo alto, estable", "Dinamica": "🟰", "PACiano": "✅✅ (precisión muy alta)", "Cloro": 322.166, "Turb": 71.55, "MON": 1.3, "B5": 0.091, "E. Trofico": "Hipereutrofico", "A. TURB": "Alta", "A. MON": "Muy Alta" }, "geometry": { "type": "Point", "coordinates": [ -58.805472, -35.461583 ] } },
{ "type": "Feature", "properties": { "CodPunto": "SALB1", "Nombre": "Canal Salado en Belgrano 1", "Municipio": "Monte", "Tipo": "Canal", "Laguna Rio": "Canal Salado En Belgrano", "Alerta": null, "S2 Fecha": "7/1/2026", "S3 Fecha": "7/7/2026", "Fecha": "7/7/2026", "info": "SIN DATOS", "Dinamica": "SIN DATOS", "PACiano": "❓ no se estima", "Cloro": 1200.0, "Turb": 52.963, "MON": 16.0, "B5": 0.045, "E. Trofico": "Hipereutrofico", "A. TURB": "Alta", "A. MON": "Muy Alta" }, "geometry": { "type": "Point", "coordinates": [ -58.49660224, -35.74848197 ] } },
{ "type": "Feature", "properties": { "CodPunto": "SALB2", "Nombre": "Canal Salado en Belgrano 2", "Municipio": "Monte", "Tipo": "Canal", "Laguna Rio": "Canal Salado Aliviador En Belgrano", "Alerta": null, "S2 Fecha": "7/1/2026", "S3 Fecha": "7/7/2026", "Fecha": "7/7/2026", "info": "SIN DATOS", "Dinamica": "SIN DATOS", "PACiano": "❓ no se estima", "Cloro": null, "Turb": null, "MON": null, "B5": null, "E. Trofico": "sin datos", "A. TURB": "sin datos", "A. MON": "sin datos" }, "geometry": { "type": "Point", "coordinates": [ -58.50434722, -35.74558457 ] } },
{ "type": "Feature", "properties": { "CodPunto": "SALM", "Nombre": "Rio Saldao Puente R41", "Municipio": "Monte", "Tipo": "Rio", "Laguna Rio": "Rio Salado Puente Ruta CuarentaYuno", "Alerta": 1, "S2 Fecha": "7/1/2026", "S3 Fecha": "7/7/2026", "Fecha": "7/7/2026", "info": "Alerta verde, riesgo nulo a bajo y estable", "Dinamica": "🟰", "PACiano": "❓ no se estima", "Cloro": 187.027, "Turb": 49.853, "MON": 16.0, "B5": 0.056, "E. Trofico": "Eutrofico", "A. TURB": "Alta", "A. MON": "Muy Alta" }, "geometry": { "type": "Point", "coordinates": [ -58.53728428, -35.72615944 ] } },
{ "type": "Feature", "properties": { "CodPunto": "SAGRAN", "Nombre": "Laguna Sauce Grande", "Municipio": "Monte Hermoso", "Tipo": "Laguna", "Laguna Rio": "Laguna Sauce Grande", "Alerta": 3, "S2 Fecha": "7/1/2026", "S3 Fecha": "7/7/2026", "Fecha": "7/7/2026", "info": "Alerta naranja, riesgo moderado a alto, estable", "Dinamica": "🟰", "PACiano": "✅✅ (precisión muy alta)", "Cloro": 89.497, "Turb": 54.164, "MON": 0.223, "B5": 0.101, "E. Trofico": "Eutrofico", "A. TURB": "Alta", "A. MON": "Baja" }, "geometry": { "type": "Point", "coordinates": [ -61.383083, -38.934333 ] } },
{ "type": "Feature", "properties": { "CodPunto": "DROG", "Nombre": "Dique Roggero", "Municipio": "Moreno", "Tipo": "Dique", "Laguna Rio": "Dique Roggero", "Alerta": 1, "S2 Fecha": "6/26/2026", "S3 Fecha": "7/7/2026", "Fecha": "7/7/2026", "info": "Alerta verde, riesgo nulo a bajo y estable", "Dinamica": "🟰", "PACiano": "✅✅ (precisión muy alta)", "Cloro": 7.821, "Turb": 38.041, "MON": 0.671, "B5": 0.054, "E. Trofico": "oligotrofico", "A. TURB": "Media", "A. MON": "Baja" }, "geometry": { "type": "Point", "coordinates": [ -58.86546382, -34.679654 ] } },
{ "type": "Feature", "properties": { "CodPunto": "CPNAV", "Nombre": "Club de Pesca Navarro", "Municipio": "Navarro", "Tipo": "Laguna", "Laguna Rio": "Laguna Navarro", "Alerta": 2, "S2 Fecha": "7/1/2026", "S3 Fecha": "7/7/2026", "Fecha": "7/7/2026", "info": "Alerta amarillo, riesgo bajo a moderado, estable", "Dinamica": "🟰", "PACiano": "✅✅ (precisión muy alta)", "Cloro": 113.234, "Turb": 26.274, "MON": 1.098, "B5": 0.023, "E. Trofico": "Eutrofico", "A. TURB": "Baja", "A. MON": "Media" }, "geometry": { "type": "Point", "coordinates": [ -59.286909327885887, -35.012444336128098 ] } },
{ "type": "Feature", "properties": { "CodPunto": "CANIAD", "Nombre": "Laguna Cañadón", "Municipio": "Pehuajo", "Tipo": "Laguna", "Laguna Rio": "Laguna Caniadon", "Alerta": 3, "S2 Fecha": "6/29/2026", "S3 Fecha": "7/7/2026", "Fecha": "7/7/2026", "info": "Alerta naranja, riesgo moderado a alto, en disminución", "Dinamica": "⬇️", "PACiano": "✅ (precisión alta)", "Cloro": 263.544, "Turb": 58.927, "MON": 0.863, "B5": 0.061, "E. Trofico": "Hipereutrofico", "A. TURB": "Alta", "A. MON": "Media" }, "geometry": { "type": "Point", "coordinates": [ -61.84809208, -35.76604051 ] } },
{ "type": "Feature", "properties": { "CodPunto": "LASAL", "Nombre": "Laguna La Salada de Pehuajó", "Municipio": "Pehuajo", "Tipo": "Laguna", "Laguna Rio": "Laguna La Salada Pehuajo", "Alerta": 4, "S2 Fecha": "6/29/2026", "S3 Fecha": "7/7/2026", "Fecha": "7/7/2026", "info": "SIN DATOS", "Dinamica": "SIN DATOS", "PACiano": "⚠ (precisión media)", "Cloro": 745.006, "Turb": 60.041, "MON": 10.187, "B5": 0.053, "E. Trofico": "Hipereutrofico", "A. TURB": "Alta", "A. MON": "Muy Alta" }, "geometry": { "type": "Point", "coordinates": [ -61.90826889, -35.78543081 ] } },
{ "type": "Feature", "properties": { "CodPunto": "PEJEC", "Nombre": "Rio de La Plata Club Pejerrey de Quilmes", "Municipio": "Quilmes", "Tipo": "Rio", "Laguna Rio": "Rio De La Plata", "Alerta": 1, "S2 Fecha": "7/1/2026", "S3 Fecha": "7/8/2026", "Fecha": "7/8/2026", "info": "Alerta verde, riesgo nulo a bajo y estable", "Dinamica": "🟰", "PACiano": "✅✅ (precisión muy alta)", "Cloro": 1.725, "Turb": 80.897, "MON": 0.644, "B5": 0.092, "E. Trofico": "oligotrofico", "A. TURB": "Muy alta", "A. MON": "Media" }, "geometry": { "type": "Point", "coordinates": [ -58.20996141, -34.70172 ] } },
{ "type": "Feature", "properties": { "CodPunto": "RAMPAR", "Nombre": "Bajada Calle Gomendio", "Municipio": "Ramallo", "Tipo": "Rio", "Laguna Rio": "Rio Parana", "Alerta": 1, "S2 Fecha": "6/29/2026", "S3 Fecha": "7/7/2026", "Fecha": "7/7/2026", "info": "Alerta verde, riesgo nulo a bajo y estable", "Dinamica": "🟰", "PACiano": "✅✅ (precisión muy alta)", "Cloro": 8.354, "Turb": 36.976, "MON": 0.567, "B5": 0.074, "E. Trofico": "oligotrofico", "A. TURB": "Media", "A. MON": "Baja" }, "geometry": { "type": "Point", "coordinates": [ -59.991528145318817, -33.478637394002334 ] } },
{ "type": "Feature", "properties": { "CodPunto": "CZ1", "Nombre": "Laguna Cuero de Zorro -1", "Municipio": "Rivadavia", "Tipo": "Laguna", "Laguna Rio": "Cuero De Zorro", "Alerta": 1, "S2 Fecha": "7/2/2026", "S3 Fecha": "7/7/2026", "Fecha": "7/7/2026", "info": "Alerta verde, riesgo nulo a bajo pero en aumento", "Dinamica": "⬆️", "PACiano": "✅ (precisión alta)", "Cloro": 99.498, "Turb": 23.044, "MON": 2.435, "B5": 0.023, "E. Trofico": "Eutrofico", "A. TURB": "Baja", "A. MON": "Alta" }, "geometry": { "type": "Point", "coordinates": [ -62.91277592, -35.75534241 ] } },
{ "type": "Feature", "properties": { "CodPunto": "RSALRP", "Nombre": "Rio Salado punto Roque Perez", "Municipio": "Roque Perez", "Tipo": "Rio", "Laguna Rio": "Rio Salado", "Alerta": 2, "S2 Fecha": "6/26/2026", "S3 Fecha": "7/7/2026", "Fecha": "7/7/2026", "info": "Alerta amarillo, riesgo bajo a moderado, estable", "Dinamica": "🟰", "PACiano": "❓ no se estima", "Cloro": 138.89, "Turb": 19.559, "MON": 0.974, "B5": 0.074, "E. Trofico": "Eutrofico", "A. TURB": "Baja", "A. MON": "Media" }, "geometry": { "type": "Point", "coordinates": [ -59.32361902, -35.37374897 ] } },
{ "type": "Feature", "properties": { "CodPunto": "ARECOP", "Nombre": "club de pescadores, San Antonio de Areco, Rio Areco de San Antonio de Areco", "Municipio": "San Antonio de Areco", "Tipo": "Rio", "Laguna Rio": "Rio Areco Club De Pescadores", "Alerta": null, "S2 Fecha": "6/26/2026", "S3 Fecha": "7/7/2026", "Fecha": "7/7/2026", "info": "SIN DATOS", "Dinamica": "SIN DATOS", "PACiano": "❓ no se estima", "Cloro": null, "Turb": null, "MON": null, "B5": null, "E. Trofico": "sin datos", "A. TURB": "sin datos", "A. MON": "sin datos" }, "geometry": { "type": "Point", "coordinates": [ -59.49925, -34.240528 ] } },
{ "type": "Feature", "properties": { "CodPunto": "RPBAL", "Nombre": "Balneario San Antonio de Areco, Rio Areco de San Antonio de Areco", "Municipio": "San Antonio de Areco", "Tipo": "Rio", "Laguna Rio": "Rio Areco Balneario San Antonio De Areco", "Alerta": null, "S2 Fecha": "6/26/2026", "S3 Fecha": "7/7/2026", "Fecha": "7/7/2026", "info": "SIN DATOS", "Dinamica": "SIN DATOS", "PACiano": "❓ no se estima", "Cloro": null, "Turb": null, "MON": null, "B5": null, "E. Trofico": "sin datos", "A. TURB": "sin datos", "A. MON": "sin datos" }, "geometry": { "type": "Point", "coordinates": [ -59.476444, -34.240611 ] } },
{ "type": "Feature", "properties": { "CodPunto": "BORCH", "Nombre": "Destacamento Guardaparques A° Borches,_San Fernando", "Municipio": "San Fernando", "Tipo": "Arroyo", "Laguna Rio": "Destacamento Guardaparques Arroyo Borches", "Alerta": 1, "S2 Fecha": "6/26/2026", "S3 Fecha": "7/8/2026", "Fecha": "7/8/2026", "info": "Alerta verde, riesgo nulo a bajo y estable", "Dinamica": "🟰", "PACiano": "❓ no se estima", "Cloro": 13.779, "Turb": 37.824, "MON": 0.759, "B5": 0.06, "E. Trofico": "oligotrofico", "A. TURB": "Media", "A. MON": "Media" }, "geometry": { "type": "Point", "coordinates": [ -58.443278, -34.074917 ] } },
{ "type": "Feature", "properties": { "CodPunto": "NESP", "Nombre": "Nueva Esperanza San Fernando", "Municipio": "San Fernando", "Tipo": "Rio", "Laguna Rio": "Rio Carabelas Grande En Nueva Esperanza", "Alerta": null, "S2 Fecha": "6/26/2026", "S3 Fecha": "7/8/2026", "Fecha": "7/8/2026", "info": "SIN DATOS", "Dinamica": "SIN DATOS", "PACiano": "❓ no se estima", "Cloro": null, "Turb": null, "MON": null, "B5": null, "E. Trofico": "sin datos", "A. TURB": "sin datos", "A. MON": "sin datos" }, "geometry": { "type": "Point", "coordinates": [ -58.783194, -34.108083 ] } },
{ "type": "Feature", "properties": { "CodPunto": "PNAUT", "Nombre": "Parque Nautico San Fernando de San Fernando", "Municipio": "San Fernando", "Tipo": "Rio", "Laguna Rio": "Parque Nautico San Fernando", "Alerta": 1, "S2 Fecha": "6/26/2026", "S3 Fecha": "7/8/2026", "Fecha": "7/8/2026", "info": "Alerta verde, riesgo nulo a bajo y estable", "Dinamica": "🟰", "PACiano": "✅✅ (precisión muy alta)", "Cloro": 2.052, "Turb": 83.923, "MON": 0.871, "B5": 0.079, "E. Trofico": "oligotrofico", "A. TURB": "Muy alta", "A. MON": "Alta" }, "geometry": { "type": "Point", "coordinates": [ -58.53016266, -34.44189987 ] } },
{ "type": "Feature", "properties": { "CodPunto": "TAN1", "Nombre": "Dique Tandil", "Municipio": "Tandil", "Tipo": "Dique", "Laguna Rio": "Dique Tandil", "Alerta": 1, "S2 Fecha": "7/1/2026", "S3 Fecha": "7/7/2026", "Fecha": "7/7/2026", "info": "Alerta verde, riesgo nulo a bajo pero en aumento", "Dinamica": "⬆️", "PACiano": "✅ (precisión alta)", "Cloro": 118.135, "Turb": 24.352, "MON": 12.513, "B5": 0.025, "E. Trofico": "Eutrofico", "A. TURB": "Baja", "A. MON": "Muy Alta" }, "geometry": { "type": "Point", "coordinates": [ -59.130285, -37.34456748 ] } },
{ "type": "Feature", "properties": { "CodPunto": "TAP2", "Nombre": "Balneario sitio 3 Tapalque", "Municipio": "Tapalque", "Tipo": "Arroyo", "Laguna Rio": "Arroyo Tapalque Balneario Sitio Tres", "Alerta": null, "S2 Fecha": "6/26/2026", "S3 Fecha": "7/7/2026", "Fecha": "7/7/2026", "info": "SIN DATOS", "Dinamica": "SIN DATOS", "PACiano": "❓ no se estima", "Cloro": null, "Turb": null, "MON": null, "B5": null, "E. Trofico": "sin datos", "A. TURB": "sin datos", "A. MON": "sin datos" }, "geometry": { "type": "Point", "coordinates": [ -60.034861, -36.348417 ] } },
{ "type": "Feature", "properties": { "CodPunto": "PTELLO", "Nombre": "Punta Tello sitio 2", "Municipio": "Tapalque", "Tipo": "Arroyo", "Laguna Rio": "Arroyo Tapalque Punta Tello Sitio Dos", "Alerta": null, "S2 Fecha": "6/26/2026", "S3 Fecha": "7/7/2026", "Fecha": "7/7/2026", "info": "SIN DATOS", "Dinamica": "SIN DATOS", "PACiano": "❓ no se estima", "Cloro": null, "Turb": null, "MON": null, "B5": null, "E. Trofico": "sin datos", "A. TURB": "sin datos", "A. MON": "sin datos" }, "geometry": { "type": "Point", "coordinates": [ -60.031889, -36.372889 ] } },
{ "type": "Feature", "properties": { "CodPunto": "ABRV", "Nombre": "AVV (Arroyo Abravieja)", "Municipio": "Tigre", "Tipo": "Arroyo", "Laguna Rio": "Avv Arroyo Abravieja", "Alerta": null, "S2 Fecha": "6/26/2026", "S3 Fecha": "7/8/2026", "Fecha": "7/8/2026", "info": "SIN DATOS", "Dinamica": "SIN DATOS", "PACiano": "❓ no se estima", "Cloro": null, "Turb": null, "MON": null, "B5": null, "E. Trofico": "sin datos", "A. TURB": "sin datos", "A. MON": "sin datos" }, "geometry": { "type": "Point", "coordinates": [ -58.557389, -34.411222 ] } },
{ "type": "Feature", "properties": { "CodPunto": "GELVEZ", "Nombre": "D5 (Arroyo Gelvez)", "Municipio": "Tigre", "Tipo": "Arroyo", "Laguna Rio": "Arroyo Gelvez", "Alerta": 1, "S2 Fecha": "6/26/2026", "S3 Fecha": "7/8/2026", "Fecha": "7/8/2026", "info": "Alerta verde, riesgo nulo a bajo y estable", "Dinamica": "🟰", "PACiano": "✅✅ (precisión muy alta)", "Cloro": 159.846, "Turb": 49.415, "MON": 6.319, "B5": 0.042, "E. Trofico": "Eutrofico", "A. TURB": "Alta", "A. MON": "Muy Alta" }, "geometry": { "type": "Point", "coordinates": [ -58.59217821, -34.36870564 ] } },
{ "type": "Feature", "properties": { "CodPunto": "ANQ", "Nombre": "RA (Rio Anquetera)", "Municipio": "Tigre", "Tipo": "Rio", "Laguna Rio": "Rio Anquetera", "Alerta": null, "S2 Fecha": "6/26/2026", "S3 Fecha": "7/8/2026", "Fecha": "7/8/2026", "info": "SIN DATOS", "Dinamica": "SIN DATOS", "PACiano": "❓ no se estima", "Cloro": null, "Turb": null, "MON": null, "B5": null, "E. Trofico": "sin datos", "A. TURB": "sin datos", "A. MON": "sin datos" }, "geometry": { "type": "Point", "coordinates": [ -58.583167, -34.318306 ] } },
{ "type": "Feature", "properties": { "CodPunto": "RCAP", "Nombre": "RCARA (Rio Carapachay)", "Municipio": "Tigre", "Tipo": "Rio", "Laguna Rio": "Rio Carapachay", "Alerta": null, "S2 Fecha": "6/26/2026", "S3 Fecha": "7/8/2026", "Fecha": "7/8/2026", "info": "SIN DATOS", "Dinamica": "SIN DATOS", "PACiano": "❓ no se estima", "Cloro": null, "Turb": null, "MON": null, "B5": null, "E. Trofico": "sin datos", "A. TURB": "sin datos", "A. MON": "sin datos" }, "geometry": { "type": "Point", "coordinates": [ -58.62675, -34.361611 ] } },
{ "type": "Feature", "properties": { "CodPunto": "PERLA", "Nombre": "RSALP (Arroyo La Perla y Rio Sarmiento)", "Municipio": "Tigre", "Tipo": "Arroyo", "Laguna Rio": "Arroyo La Perla Intereseccion Rio Sarmiento", "Alerta": 1, "S2 Fecha": "6/26/2026", "S3 Fecha": "7/8/2026", "Fecha": "7/8/2026", "info": "Alerta verde, riesgo nulo a bajo y estable", "Dinamica": "🟰", "PACiano": "❓ no se estima", "Cloro": null, "Turb": null, "MON": null, "B5": null, "E. Trofico": "sin datos", "A. TURB": "sin datos", "A. MON": "sin datos" }, "geometry": { "type": "Point", "coordinates": [ -58.558833, -34.382361 ] } },
{ "type": "Feature", "properties": { "CodPunto": "SARCUR", "Nombre": "RSARC (Rio Sarmiento entre Arroyo Reyes y Curubica)", "Municipio": "Tigre", "Tipo": "Rio", "Laguna Rio": "Rio Sarmiento Entre Arroyo Reyes Arroyo Curubica", "Alerta": 1, "S2 Fecha": "7/1/2026", "S3 Fecha": "7/8/2026", "Fecha": "7/8/2026", "info": "Alerta verde, riesgo nulo a bajo y estable", "Dinamica": "🟰", "PACiano": "✅✅ (precisión muy alta)", "Cloro": 3.105, "Turb": 62.194, "MON": 0.8, "B5": 0.078, "E. Trofico": "oligotrofico", "A. TURB": "Alta", "A. MON": "Alta" }, "geometry": { "type": "Point", "coordinates": [ -58.57761458, -34.38570002 ] } },
{ "type": "Feature", "properties": { "CodPunto": "DPLP", "Nombre": "Dique Paso de las Piedras", "Municipio": "Tornquist", "Tipo": "Dique", "Laguna Rio": "Dique Paso De Las Piedras", "Alerta": null, "S2 Fecha": "7/1/2026", "S3 Fecha": "7/7/2026", "Fecha": "7/7/2026", "info": "SIN DATOS", "Dinamica": "SIN DATOS", "PACiano": "❓ no se estima", "Cloro": null, "Turb": null, "MON": null, "B5": null, "E. Trofico": "sin datos", "A. TURB": "sin datos", "A. MON": "sin datos" }, "geometry": { "type": "Point", "coordinates": [ -62.1857487, -38.263378 ] } },
{ "type": "Feature", "properties": { "CodPunto": "DLP2", "Nombre": "Dique Las Piedras 2", "Municipio": "Tornquist", "Tipo": "Dique", "Laguna Rio": "Dique Las Piedras", "Alerta": 1, "S2 Fecha": "7/1/2026", "S3 Fecha": "7/7/2026", "Fecha": "7/7/2026", "info": "Alerta verde, riesgo nulo a bajo y estable", "Dinamica": "🟰", "PACiano": "✅✅ (precisión muy alta)", "Cloro": 42.863, "Turb": 19.819, "MON": 1.193, "B5": 0.034, "E. Trofico": "Mesotrofico", "A. TURB": "Baja", "A. MON": "Media" }, "geometry": { "type": "Point", "coordinates": [ -61.75836664, -38.37272735 ] } },
{ "type": "Feature", "properties": { "CodPunto": "CZ2", "Nombre": "Laguna Cuero de Zorro 2", "Municipio": "Trenque Lauquen", "Tipo": "Laguna", "Laguna Rio": "Cuero De Zorro", "Alerta": 1, "S2 Fecha": "7/2/2026", "S3 Fecha": "7/7/2026", "Fecha": "7/7/2026", "info": "Alerta verde, riesgo nulo a bajo pero en aumento", "Dinamica": "⬆️", "PACiano": "✅✅ (precisión muy alta)", "Cloro": 101.389, "Turb": 28.004, "MON": 10.855, "B5": 0.02, "E. Trofico": "Eutrofico", "A. TURB": "Baja", "A. MON": "Muy Alta" }, "geometry": { "type": "Point", "coordinates": [ -62.90764975, -35.78476218 ] } },
{ "type": "Feature", "properties": { "CodPunto": "HINOJO", "Nombre": "Laguna Hinojo", "Municipio": "Trenque Lauquen", "Tipo": "Laguna", "Laguna Rio": "Laguna Hinojo", "Alerta": 4, "S2 Fecha": "6/29/2026", "S3 Fecha": "7/7/2026", "Fecha": "7/7/2026", "info": "Alerta roja, riesgo alto, en disminución", "Dinamica": "⬇️", "PACiano": "✅✅ (precisión muy alta)", "Cloro": 545.123, "Turb": 62.56, "MON": 1.768, "B5": 0.07, "E. Trofico": "Hipereutrofico", "A. TURB": "Alta", "A. MON": "Muy Alta" }, "geometry": { "type": "Point", "coordinates": [ -62.49421275, -35.9256205 ] } },
{ "type": "Feature", "properties": { "CodPunto": "TUN1", "Nombre": "Las Tunas 1", "Municipio": "Trenque Lauquen", "Tipo": "Laguna", "Laguna Rio": "Laguna Las Tunas", "Alerta": 2, "S2 Fecha": "6/29/2026", "S3 Fecha": "7/7/2026", "Fecha": "7/7/2026", "info": "Alerta amarillo, riesgo bajo a moderado, en disminución", "Dinamica": "⬇️", "PACiano": "✅✅ (precisión muy alta)", "Cloro": 245.808, "Turb": 13.357, "MON": 1.15, "B5": 0.039, "E. Trofico": "Eutrofico", "A. TURB": "Baja", "A. MON": "Media" }, "geometry": { "type": "Point", "coordinates": [ -62.43452697, -35.97278686 ] } },
{ "type": "Feature", "properties": { "CodPunto": "TUN2", "Nombre": "Las Tunas 2", "Municipio": "Trenque Lauquen", "Tipo": "Laguna", "Laguna Rio": "Laguna Las Tunas", "Alerta": 3, "S2 Fecha": "6/29/2026", "S3 Fecha": "7/7/2026", "Fecha": "7/7/2026", "info": "Alerta naranja, riesgo moderado a alto, en disminución", "Dinamica": "⬇️", "PACiano": "✅ (precisión alta)", "Cloro": 323.03, "Turb": 18.108, "MON": 1.206, "B5": 0.045, "E. Trofico": "Hipereutrofico", "A. TURB": "Baja", "A. MON": "Media" }, "geometry": { "type": "Point", "coordinates": [ -62.50829928, -36.01268186 ] } },
{ "type": "Feature", "properties": { "CodPunto": "TIG", "Nombre": "Laguna Tres Arroyos", "Municipio": "Tres Arroyos", "Tipo": "Laguna", "Laguna Rio": "La Tigra", "Alerta": 1, "S2 Fecha": "7/1/2026", "S3 Fecha": "7/7/2026", "Fecha": "7/7/2026", "info": "Alerta verde, riesgo nulo a bajo y estable", "Dinamica": "🟰", "PACiano": "✅✅ (precisión muy alta)", "Cloro": 31.167, "Turb": 44.031, "MON": 0.386, "B5": 0.077, "E. Trofico": "Mesotrofico", "A. TURB": "Media", "A. MON": "Baja" }, "geometry": { "type": "Point", "coordinates": [ -60.362609519071299, -38.346405216060184 ] } },
{ "type": "Feature", "properties": { "CodPunto": "VLZ1", "Nombre": "Rio de La Plata 2 - Vicente Lopez", "Municipio": "Vicente Lopez", "Tipo": "Rio", "Laguna Rio": "Rio De La Plata", "Alerta": 1, "S2 Fecha": "7/1/2026", "S3 Fecha": "7/8/2026", "Fecha": "7/8/2026", "info": "Alerta verde, riesgo nulo a bajo y estable", "Dinamica": "🟰", "PACiano": "✅✅ (precisión muy alta)", "Cloro": 1.112, "Turb": 69.674, "MON": 0.919, "B5": 0.059, "E. Trofico": "oligotrofico", "A. TURB": "Alta", "A. MON": "Muy Alta" }, "geometry": { "type": "Point", "coordinates": [ -58.46470993, -34.51650797 ] } },
{ "type": "Feature", "properties": { "CodPunto": "CHAS", "Nombre": "Laguna Chasicó", "Municipio": "Villarino", "Tipo": "Laguna", "Laguna Rio": "Chasico", "Alerta": 1, "S2 Fecha": "7/1/2026", "S3 Fecha": "7/7/2026", "Fecha": "7/7/2026", "info": "Alerta verde, riesgo nulo a bajo y estable", "Dinamica": "🟰", "PACiano": "✅✅ (precisión muy alta)", "Cloro": 1.589, "Turb": 9.208, "MON": 0.984, "B5": 0.017, "E. Trofico": "oligotrofico", "A. TURB": "Baja", "A. MON": "Media" }, "geometry": { "type": "Point", "coordinates": [ -63.07155844, -38.63126477 ] } },
{ "type": "Feature", "properties": { "CodPunto": "GALL", "Nombre": "Laguna Las Gallaretas", "Municipio": "Mercedes", "Tipo": "Laguna", "Laguna Rio": "Laguna de las Gallaretas", "Alerta": null, "S2 Fecha": "7/1/2026", "S3 Fecha": "7/7/2026", "Fecha": "7/7/2026", "info": "SIN DATOS", "Dinamica": "SIN DATOS", "PACiano": "❓ no se estima", "Cloro": null, "Turb": null, "MON": null, "B5": null, "E. Trofico": "sin datos", "A. TURB": "sin datos", "A. MON": "sin datos" }, "geometry": { "type": "Point", "coordinates": [ -59.301559488831074, -34.642917019552833 ] } },
{ "type": "Feature", "properties": { "CodPunto": "GLI", "Nombre": "Laguna Gloptodontes", "Municipio": "Mercedes", "Tipo": "Laguna", "Laguna Rio": "Laguna Gliptodontes", "Alerta": null, "S2 Fecha": "7/1/2026", "S3 Fecha": "7/7/2026", "Fecha": "7/7/2026", "info": "SIN DATOS", "Dinamica": "SIN DATOS", "PACiano": "❓ no se estima", "Cloro": null, "Turb": null, "MON": null, "B5": null, "E. Trofico": "sin datos", "A. TURB": "sin datos", "A. MON": "sin datos" }, "geometry": { "type": "Point", "coordinates": [ -59.300483640201364, -34.644440421212508 ] } },
{ "type": "Feature", "properties": { "CodPunto": "RMUN", "Nombre": "Balneario Municiipal Rauch - Laguna", "Municipio": "Rauch", "Tipo": "Arroyo", "Laguna Rio": "Lago del balneario", "Alerta": null, "S2 Fecha": "6/26/2026", "S3 Fecha": "7/7/2026", "Fecha": "7/7/2026", "info": "SIN DATOS", "Dinamica": "SIN DATOS", "PACiano": "❓ no se estima", "Cloro": null, "Turb": null, "MON": null, "B5": null, "E. Trofico": "sin datos", "A. TURB": "sin datos", "A. MON": "sin datos" }, "geometry": { "type": "Point", "coordinates": [ -59.103861544634825, -36.768410909755545 ] } }
]
}
