{
"type": "FeatureCollection",
"name": "CianoAlert_ADA_20260325",
"crs": { "type": "name", "properties": { "name": "urn:ogc:def:crs:OGC:1.3:CRS84" } },
"features": [
{ "type": "Feature", "properties": { "CodPunto": "PUAN", "Nombre": "PUAN", "Municipio": "Puan", "Tipo": "Laguna", "Laguna Rio": "Laguna Puan", "PtoGeo": "-37.55718065907408 -62.80168347452497 0 0", "Alerta": 1, "Dif": 0, "S2 Fecha": null, "S3 Fecha": "3/25/2026", "info": "Alerta verde, riesgo nulo a bajo y estable", "Acciones": "🎣✅, 🏊‍✅,🛶 ✅" }, "geometry": { "type": "Point", "coordinates": [ -62.801683474524971, -37.557180659074078 ] } },
{ "type": "Feature", "properties": { "CodPunto": "LCHIL", "Nombre": "Lag los Chilenos", "Municipio": "Saavedra", "Tipo": "Laguna", "Laguna Rio": "Laguna Los Chilenos", "PtoGeo": "-37.88270354821917 -62.566592 0 0", "Alerta": 1, "Dif": 0, "S2 Fecha": null, "S3 Fecha": "3/25/2026", "info": "Alerta verde, riesgo nulo a bajo y estable", "Acciones": "🎣✅, 🏊‍✅,🛶 ✅" }, "geometry": { "type": "Point", "coordinates": [ -62.566592, -37.882703548219169 ] } },
{ "type": "Feature", "properties": { "CodPunto": "VDO", "Nombre": "Del Venado", "Municipio": "Guamini", "Tipo": "Laguna", "Laguna Rio": "Laguna Del Venado", "PtoGeo": "-37.064198424691064 -62.626374472478915 0 0", "Alerta": 1, "Dif": 0, "S2 Fecha": null, "S3 Fecha": "3/25/2026", "info": "Alerta verde, riesgo nulo a bajo y estable", "Acciones": "🎣✅, 🏊‍✅,🛶 ✅" }, "geometry": { "type": "Point", "coordinates": [ -62.626374472478915, -37.064198424691064 ] } },
{ "type": "Feature", "properties": { "CodPunto": "BGRDE", "Nombre": "Lag. Blanca Grande", "Municipio": "Olavarria", "Tipo": "Laguna", "Laguna Rio": "Laguna Blanca Grande", "PtoGeo": "-36.48641610994255 -60.8988949484736 0 0", "Alerta": 3, "Dif": -1, "S2 Fecha": "3/23/2026", "S3 Fecha": "3/25/2026", "info": "Alerta naranja, riesgo moderado a alto, en disminución", "Acciones": "🎣🚫, 🐟🚫, 🏊🚫,🛶🚫, 🚱️" }, "geometry": { "type": "Point", "coordinates": [ -60.898894948473597, -36.486416109942553 ] } },
{ "type": "Feature", "properties": { "CodPunto": "MULT", "Nombre": "Las Mulitas_25 de Mayo", "Municipio": "25 de Mayo", "Tipo": "Laguna", "Laguna Rio": "Laguna Las Mulitas", "PtoGeo": "-35.437639 -60.156361 0 0", "Alerta": 4, "Dif": 0, "S2 Fecha": "3/23/2026", "S3 Fecha": "3/25/2026", "info": "Alerta roja, riesgo alto, estable", "Acciones": "🎣🚫, 🐟🚫, 🏊🚫,🛶🚫, 🚱️" }, "geometry": { "type": "Point", "coordinates": [ -60.156361, -35.437639 ] } },
{ "type": "Feature", "properties": { "CodPunto": "RSN1", "Nombre": "Rio Salado Puente R3_2_25 de Mayo", "Municipio": "25 de Mayo", "Tipo": "Rio", "Laguna Rio": "Rio Salado Puente Ruta Tres", "PtoGeo": "-35.22213683 -59.71791297 0 0", "Alerta": 3, "Dif": 0, "S2 Fecha": "3/23/2026", "S3 Fecha": "3/25/2026", "info": "Alerta naranja, riesgo moderado a alto, estable", "Acciones": "🎣🚫, 🐟🚫, 🏊🚫,🛶🚫, 🚱️" }, "geometry": { "type": "Point", "coordinates": [ -59.71791297, -35.22213683 ] } },
{ "type": "Feature", "properties": { "CodPunto": "PSM1", "Nombre": "Laguna del Parque Gral. San Martín", "Municipio": "9 de Julio", "Tipo": "Laguna", "Laguna Rio": "Gral San Martin", "PtoGeo": "-35.438888971259274 -60.87643973844279 0 0", "Alerta": 1, "Dif": 0, "S2 Fecha": "3/23/2026", "S3 Fecha": "3/25/2026", "info": "Alerta verde, riesgo nulo a bajo y estable", "Acciones": "🎣✅, 🏊‍✅,🛶 ✅" }, "geometry": { "type": "Point", "coordinates": [ -60.876439738442791, -35.438888971259274 ] } },
{ "type": "Feature", "properties": { "CodPunto": "EPEC", "Nombre": "Epecuen_Adolfo Alsina", "Municipio": "Adolfo Alsina", "Tipo": "Laguna", "Laguna Rio": "Laguna Epecuen", "PtoGeo": "-37.14601186 -62.8466267 0 0", "Alerta": 1, "Dif": 0, "S2 Fecha": null, "S3 Fecha": "3/25/2026", "info": "Alerta verde, riesgo nulo a bajo y estable", "Acciones": "🎣✅, 🏊‍✅,🛶 ✅" }, "geometry": { "type": "Point", "coordinates": [ -62.8466267, -37.14601186 ] } },
{ "type": "Feature", "properties": { "CodPunto": "RIO2", "Nombre": "Puente Achupallas Indacochea RIo Salado_Alberti", "Municipio": "Alberti", "Tipo": "Rio", "Laguna Rio": "Puente Achupallas Indacochea Rio Salado", "PtoGeo": "-35.0887449 -60.110403 0 0", "Alerta": 3, "Dif": -1, "S2 Fecha": "3/23/2026", "S3 Fecha": "3/25/2026", "info": "Alerta naranja, riesgo moderado a alto, en disminución", "Acciones": "🎣🚫, 🐟🚫, 🏊🚫,🛶🚫, 🚱️" }, "geometry": { "type": "Point", "coordinates": [ -60.110403, -35.0887449 ] } },
{ "type": "Feature", "properties": { "CodPunto": "RIO1", "Nombre": "Rio Salado - Puente Ladaga, Alberti_Alberti", "Municipio": "Alberti", "Tipo": "Rio", "Laguna Rio": "Rio Salado Puente Ladaga Alberti", "PtoGeo": "-35.06801733 -60.24290343 0 0", "Alerta": 3, "Dif": 0, "S2 Fecha": "3/23/2026", "S3 Fecha": "3/25/2026", "info": "Alerta naranja, riesgo moderado a alto, estable", "Acciones": "🎣🚫, 🐟🚫, 🏊🚫,🛶🚫, 🚱️" }, "geometry": { "type": "Point", "coordinates": [ -60.24290343, -35.06801733 ] } },
{ "type": "Feature", "properties": { "CodPunto": "RIO3", "Nombre": "Rio Salado Ruta 5_Alberti", "Municipio": "Alberti", "Tipo": "Rio", "Laguna Rio": "Rio Salado Ruta Cinco", "PtoGeo": "-35.061111 -60.292083 0 0", "Alerta": 3, "Dif": -1, "S2 Fecha": "3/23/2026", "S3 Fecha": "3/25/2026", "info": "Alerta naranja, riesgo moderado a alto, en disminución", "Acciones": "🎣🚫, 🐟🚫, 🏊🚫,🛶🚫, 🚱️" }, "geometry": { "type": "Point", "coordinates": [ -60.292083, -35.061111 ] } },
{ "type": "Feature", "properties": { "CodPunto": "RDLP", "Nombre": "Rio de La Plata 1_Avellaneda", "Municipio": "Avellaneda", "Tipo": "Rio", "Laguna Rio": "Rio De La Plata", "PtoGeo": "-34.66026369 -58.29888937 0 0", "Alerta": 1, "Dif": 0, "S2 Fecha": null, "S3 Fecha": "3/25/2026", "info": "Alerta verde, riesgo nulo a bajo y estable", "Acciones": "🎣✅, 🏊‍✅,🛶 ✅" }, "geometry": { "type": "Point", "coordinates": [ -58.29888937, -34.66026369 ] } },
{ "type": "Feature", "properties": { "CodPunto": "SALA1", "Nombre": "La Saladita Norte_Avellaneda", "Municipio": "Avellaneda", "Tipo": "Laguna", "Laguna Rio": "Laguna La Saladita Norte", "PtoGeo": "-34.66571025 -58.34021914 0 0", "Alerta": 1, "Dif": 0, "S2 Fecha": null, "S3 Fecha": "3/25/2026", "info": "Alerta verde, riesgo nulo a bajo y estable", "Acciones": "🎣✅, 🏊‍✅,🛶 ✅" }, "geometry": { "type": "Point", "coordinates": [ -58.34021914, -34.66571025 ] } },
{ "type": "Feature", "properties": { "CodPunto": "SALA2", "Nombre": "La Saladita Sur_Avellaneda", "Municipio": "Avellaneda", "Tipo": "Laguna", "Laguna Rio": "Laguna La Saladita Sur", "PtoGeo": "-34.67242443 -58.34046988 0 0", "Alerta": 3, "Dif": 0, "S2 Fecha": null, "S3 Fecha": "3/25/2026", "info": "Alerta naranja, riesgo moderado a alto, estable", "Acciones": "🎣🚫, 🐟🚫, 🏊🚫,🛶🚫, 🚱️" }, "geometry": { "type": "Point", "coordinates": [ -58.34046988, -34.67242443 ] } },
{ "type": "Feature", "properties": { "CodPunto": "LAB", "Nombre": "La Brava_Balcarce", "Municipio": "Balcarce", "Tipo": "Laguna", "Laguna Rio": "Laguna La Brava", "PtoGeo": "-37.88000183 -57.97720112 0 0", "Alerta": 4, "Dif": 0, "S2 Fecha": null, "S3 Fecha": "3/25/2026", "info": "Alerta roja, riesgo alto, estable", "Acciones": "🎣🚫, 🐟🚫, 🏊🚫,🛶🚫, 🚱️" }, "geometry": { "type": "Point", "coordinates": [ -57.97720112, -37.88000183 ] } },
{ "type": "Feature", "properties": { "CodPunto": "ELCH", "Nombre": "El Chifle_Benito Juarez", "Municipio": "Benito Juarez", "Tipo": "Laguna", "Laguna Rio": "Laguna El Chifle", "PtoGeo": "-37.406806 -59.79925 0 0", "Alerta": 4, "Dif": 0, "S2 Fecha": "3/23/2026", "S3 Fecha": "3/25/2026", "info": "Alerta roja, riesgo alto, estable", "Acciones": "🎣🚫, 🐟🚫, 🏊🚫,🛶🚫, 🚱️" }, "geometry": { "type": "Point", "coordinates": [ -59.79925, -37.406806 ] } },
{ "type": "Feature", "properties": { "CodPunto": "SANA", "Nombre": "San Antonio,_Benito Juarez", "Municipio": "Benito Juarez", "Tipo": "Laguna", "Laguna Rio": "Laguna San Antonio", "PtoGeo": "-37.629917 -59.874806 0 0", "Alerta": 4, "Dif": -1, "S2 Fecha": "3/23/2026", "S3 Fecha": "3/25/2026", "info": "Alerta roja, riesgo alto, en disminución", "Acciones": "🎣🚫, 🐟🚫, 🏊🚫,🛶🚫, 🚱️" }, "geometry": { "type": "Point", "coordinates": [ -59.874806, -37.629917 ] } },
{ "type": "Feature", "properties": { "CodPunto": "BALN", "Nombre": "Rio de La Plata Balneario_Berazategui", "Municipio": "Berazategui", "Tipo": "Rio", "Laguna Rio": "Rio De La Plata", "PtoGeo": "-34.73645769 -58.09891056 0 0", "Alerta": 1, "Dif": 0, "S2 Fecha": "3/20/2026", "S3 Fecha": "3/25/2026", "info": "Alerta verde, riesgo nulo a bajo y estable", "Acciones": "🎣✅, 🏊‍✅,🛶 ✅" }, "geometry": { "type": "Point", "coordinates": [ -58.09891056, -34.73645769 ] } },
{ "type": "Feature", "properties": { "CodPunto": "SGO", "Nombre": "Rio Parana 1_Berisso", "Municipio": "Berisso", "Tipo": "Rio", "Laguna Rio": "Rio Parana", "PtoGeo": "-34.85225838 -57.88881991 0 0", "Alerta": 1, "Dif": 0, "S2 Fecha": null, "S3 Fecha": "3/25/2026", "info": "Alerta verde, riesgo nulo a bajo y estable", "Acciones": "🎣✅, 🏊‍✅,🛶 ✅" }, "geometry": { "type": "Point", "coordinates": [ -57.88881991, -34.85225838 ] } },
{ "type": "Feature", "properties": { "CodPunto": "BERI", "Nombre": "Rio de La Plata Balnerio2_Berisso", "Municipio": "Berisso", "Tipo": "Rio", "Laguna Rio": "Rio De La Plata", "PtoGeo": "-34.91037147437791 -57.73760525184914 0 0", "Alerta": 1, "Dif": 0, "S2 Fecha": "3/20/2026", "S3 Fecha": "3/25/2026", "info": "Alerta verde, riesgo nulo a bajo y estable", "Acciones": "🎣✅, 🏊‍✅,🛶 ✅" }, "geometry": { "type": "Point", "coordinates": [ -57.737605251849139, -34.910371474377911 ] } },
{ "type": "Feature", "properties": { "CodPunto": "PALO", "Nombre": "Rio de La Plata Palo Blanco_Berisso", "Municipio": "Berisso", "Tipo": "Rio", "Laguna Rio": "Rio De La Plata", "PtoGeo": "-34.85263799 -57.83581294 0 0", "Alerta": 1, "Dif": 0, "S2 Fecha": "3/20/2026", "S3 Fecha": "3/25/2026", "info": "Alerta verde, riesgo nulo a bajo y estable", "Acciones": "🎣✅, 🏊‍✅,🛶 ✅" }, "geometry": { "type": "Point", "coordinates": [ -57.83581294, -34.85263799 ] } },
{ "type": "Feature", "properties": { "CodPunto": "RIO4", "Nombre": "Rio Santiago_Berisso", "Municipio": "Berisso", "Tipo": "Rio", "Laguna Rio": "Rio Santiago", "PtoGeo": "-34.83406603 -57.87943121 0 0", "Alerta": 1, "Dif": 0, "S2 Fecha": null, "S3 Fecha": "3/25/2026", "info": "Alerta verde, riesgo nulo a bajo y estable", "Acciones": "🎣✅, 🏊‍✅,🛶 ✅" }, "geometry": { "type": "Point", "coordinates": [ -57.87943121, -34.83406603 ] } },
{ "type": "Feature", "properties": { "CodPunto": "BAL", "Nombre": "Rio_de_la_Plata_LaBalandra", "Municipio": "Berisso", "Tipo": "Rio", "Laguna Rio": "Rio De La Plata", "PtoGeo": "-34.91887312298402 -57.71318336207742 0 0", "Alerta": 1, "Dif": 0, "S2 Fecha": "3/20/2026", "S3 Fecha": "3/25/2026", "info": "Alerta verde, riesgo nulo a bajo y estable", "Acciones": "🎣✅, 🏊‍✅,🛶 ✅" }, "geometry": { "type": "Point", "coordinates": [ -57.713183362077423, -34.918873122984017 ] } },
{ "type": "Feature", "properties": { "CodPunto": "JCHO", "Nombre": "Juancho_Bolivar", "Municipio": "Bolivar", "Tipo": "Laguna", "Laguna Rio": "Laguna De Juancho", "PtoGeo": "-36.69663593 -61.50824282 0 0", "Alerta": 4, "Dif": 0, "S2 Fecha": null, "S3 Fecha": "3/25/2026", "info": "Alerta roja, riesgo alto, estable", "Acciones": "🎣🚫, 🐟🚫, 🏊🚫,🛶🚫, 🚱️" }, "geometry": { "type": "Point", "coordinates": [ -61.50824282, -36.69663593 ] } },
{ "type": "Feature", "properties": { "CodPunto": "BRAG", "Nombre": "de Bragado_Bragado", "Municipio": "Bragado", "Tipo": "Laguna", "Laguna Rio": "Laguna De Bragado", "PtoGeo": "-35.08147353 -60.47505778 0 0", "Alerta": 3, "Dif": -1, "S2 Fecha": "3/23/2026", "S3 Fecha": "3/25/2026", "info": "Alerta naranja, riesgo moderado a alto, en disminución", "Acciones": "🎣🚫, 🐟🚫, 🏊🚫,🛶🚫, 🚱️" }, "geometry": { "type": "Point", "coordinates": [ -60.47505778, -35.08147353 ] } },
{ "type": "Feature", "properties": { "CodPunto": "ROCH", "Nombre": "Camping De Rocha, Rocha_Bragado", "Municipio": "Bragado", "Tipo": "Laguna", "Laguna Rio": "Camping Laguna De Rocha", "PtoGeo": "-34.69990796 -60.68567662 0 0", "Alerta": 3, "Dif": 0, "S2 Fecha": "3/23/2026", "S3 Fecha": "3/25/2026", "info": "Alerta naranja, riesgo moderado a alto, estable", "Acciones": "🎣🚫, 🐟🚫, 🏊🚫,🛶🚫, 🚱️" }, "geometry": { "type": "Point", "coordinates": [ -60.68567662, -34.69990796 ] } },
{ "type": "Feature", "properties": { "CodPunto": "ADE", "Nombre": "Adela_Chascomús", "Municipio": "Chascomus", "Tipo": "Laguna", "Laguna Rio": "Laguna Adela", "PtoGeo": "-35.68609728 -57.99356866 0 0", "Alerta": 4, "Dif": 0, "S2 Fecha": null, "S3 Fecha": "3/25/2026", "info": "Alerta roja, riesgo alto, estable", "Acciones": "🎣🚫, 🐟🚫, 🏊🚫,🛶🚫, 🚱️" }, "geometry": { "type": "Point", "coordinates": [ -57.99356866, -35.68609728 ] } },
{ "type": "Feature", "properties": { "CodPunto": "BURR", "Nombre": "del Burro_Chascomús", "Municipio": "Chascomus", "Tipo": "Laguna", "Laguna Rio": "Laguna Del Burro", "PtoGeo": "-35.68509433 -57.92938006 0 0", "Alerta": 4, "Dif": 0, "S2 Fecha": null, "S3 Fecha": "3/25/2026", "info": "Alerta roja, riesgo alto, estable", "Acciones": "🎣🚫, 🐟🚫, 🏊🚫,🛶🚫, 🚱️" }, "geometry": { "type": "Point", "coordinates": [ -57.92938006, -35.68509433 ] } },
{ "type": "Feature", "properties": { "CodPunto": "CHAS2", "Nombre": "de Chascomus 2_Chascomús", "Municipio": "Chascomus", "Tipo": "Laguna", "Laguna Rio": "Laguna De Chascomus", "PtoGeo": "-35.59030192 -58.00152607 0 0", "Alerta": 3, "Dif": 0, "S2 Fecha": null, "S3 Fecha": "3/25/2026", "info": "Alerta naranja, riesgo moderado a alto, estable", "Acciones": "🎣🚫, 🐟🚫, 🏊🚫,🛶🚫, 🚱️" }, "geometry": { "type": "Point", "coordinates": [ -58.00152607, -35.59030192 ] } },
{ "type": "Feature", "properties": { "CodPunto": "CHASMUELLE", "Nombre": "de Chascomus Muelle_Chascomús", "Municipio": "Chascomus", "Tipo": "Laguna", "Laguna Rio": "Laguna De Chascomus", "PtoGeo": "-35.59141631 -58.027604 0 0", "Alerta": 4, "Dif": 0, "S2 Fecha": null, "S3 Fecha": "3/25/2026", "info": "Alerta roja, riesgo alto, estable", "Acciones": "🎣🚫, 🐟🚫, 🏊🚫,🛶🚫, 🚱️" }, "geometry": { "type": "Point", "coordinates": [ -58.027604, -35.59141631 ] } },
{ "type": "Feature", "properties": { "CodPunto": "LIM1", "Nombre": "La Limpia_Chascomús", "Municipio": "Chascomus", "Tipo": "Laguna", "Laguna Rio": "Laguna La Limpia", "PtoGeo": "-35.60999172 -57.81513465 0 0", "Alerta": 1, "Dif": 0, "S2 Fecha": null, "S3 Fecha": "3/25/2026", "info": "Alerta verde, riesgo nulo a bajo y estable", "Acciones": "🎣✅, 🏊‍✅,🛶 ✅" }, "geometry": { "type": "Point", "coordinates": [ -57.81513465, -35.60999172 ] } },
{ "type": "Feature", "properties": { "CodPunto": "MUL1", "Nombre": "Las Mulas_Chascomús", "Municipio": "Chascomus", "Tipo": "Laguna", "Laguna Rio": "Laguna Las Mulas", "PtoGeo": "-35.53351702 -57.90108163 0 0", "Alerta": 1, "Dif": 0, "S2 Fecha": null, "S3 Fecha": "3/25/2026", "info": "Alerta verde, riesgo nulo a bajo y estable", "Acciones": "🎣✅, 🏊‍✅,🛶 ✅" }, "geometry": { "type": "Point", "coordinates": [ -57.90108163, -35.53351702 ] } },
{ "type": "Feature", "properties": { "CodPunto": "VIT1", "Nombre": "Vitel_Chascomús", "Municipio": "Chascomus", "Tipo": "Laguna", "Laguna Rio": "Laguna Vitel", "PtoGeo": "-35.52930325 -58.110802 0 0", "Alerta": 4, "Dif": 0, "S2 Fecha": null, "S3 Fecha": "3/25/2026", "info": "Alerta roja, riesgo alto, estable", "Acciones": "🎣🚫, 🐟🚫, 🏊🚫,🛶🚫, 🚱️" }, "geometry": { "type": "Point", "coordinates": [ -58.110802, -35.52930325 ] } },
{ "type": "Feature", "properties": { "CodPunto": "YAS1", "Nombre": "Yasica_Chascomús", "Municipio": "Chascomus", "Tipo": "Laguna", "Laguna Rio": "Laguna Yasica", "PtoGeo": "-35.5762537 -57.90670928 0 0", "Alerta": 3, "Dif": 0, "S2 Fecha": null, "S3 Fecha": "3/25/2026", "info": "Alerta naranja, riesgo moderado a alto, estable", "Acciones": "🎣🚫, 🐟🚫, 🏊🚫,🛶🚫, 🚱️" }, "geometry": { "type": "Point", "coordinates": [ -57.90670928, -35.5762537 ] } },
{ "type": "Feature", "properties": { "CodPunto": "RSCH", "Nombre": "Rio Salado Zona de recreo_Chivilcoy", "Municipio": "Chivilcoy", "Tipo": "Rio", "Laguna Rio": "Rio Salado Zona De Recreo", "PtoGeo": "-35.12473955 -59.95569496 0 0", "Alerta": 3, "Dif": 0, "S2 Fecha": "3/23/2026", "S3 Fecha": "3/25/2026", "info": "Alerta naranja, riesgo moderado a alto, estable", "Acciones": "🎣🚫, 🐟🚫, 🏊🚫,🛶🚫, 🚱️" }, "geometry": { "type": "Point", "coordinates": [ -59.95569496, -35.12473955 ] } },
{ "type": "Feature", "properties": { "CodPunto": "DLP1", "Nombre": "Dique Las Piedras 1_Coronel Pringles", "Municipio": "Coronel Pringles", "Tipo": "Dique", "Laguna Rio": "Dique Las Piedras", "PtoGeo": "-38.41975441 -61.74454826 0 0", "Alerta": 1, "Dif": 0, "S2 Fecha": null, "S3 Fecha": "3/25/2026", "info": "Alerta verde, riesgo nulo a bajo y estable", "Acciones": "🎣✅, 🏊‍✅,🛶 ✅" }, "geometry": { "type": "Point", "coordinates": [ -61.74454826, -38.41975441 ] } },
{ "type": "Feature", "properties": { "CodPunto": "ELJ", "Nombre": "El Juancho_Daireaux", "Municipio": "Daireaux", "Tipo": "Laguna", "Laguna Rio": "Laguna El Juancho", "PtoGeo": "-36.70867129 -61.55883592 0 0", "Alerta": 1, "Dif": 0, "S2 Fecha": null, "S3 Fecha": "3/25/2026", "info": "Alerta verde, riesgo nulo a bajo y estable", "Acciones": "🎣✅, 🏊‍✅,🛶 ✅" }, "geometry": { "type": "Point", "coordinates": [ -61.55883592, -36.70867129 ] } },
{ "type": "Feature", "properties": { "CodPunto": "CLUB", "Nombre": "Rio de La Plata Club Pesca_Ensenada", "Municipio": "Ensenada", "Tipo": "Rio", "Laguna Rio": "Rio De La Plata", "PtoGeo": "-34.82575485 -57.94353351 0 0", "Alerta": 1, "Dif": 0, "S2 Fecha": "3/20/2026", "S3 Fecha": "3/25/2026", "info": "Alerta verde, riesgo nulo a bajo y estable", "Acciones": "🎣✅, 🏊‍✅,🛶 ✅" }, "geometry": { "type": "Point", "coordinates": [ -57.94353351, -34.82575485 ] } },
{ "type": "Feature", "properties": { "CodPunto": "CLUBR", "Nombre": "Rio Santiago Club_Ensenada", "Municipio": "Ensenada", "Tipo": "Rio", "Laguna Rio": "Rio Santiago", "PtoGeo": "-34.8397494 -57.918268 0 0", "Alerta": 1, "Dif": 1, "S2 Fecha": null, "S3 Fecha": "3/25/2026", "info": "Alerta verde, riesgo nulo a bajo pero en aumento", "Acciones": "🎣✅, 🏊‍✅,🛶 ✅" }, "geometry": { "type": "Point", "coordinates": [ -57.918268, -34.8397494 ] } },
{ "type": "Feature", "properties": { "CodPunto": "PERG", "Nombre": "Rio de La Plata Pergola_Ensenada", "Municipio": "Ensenada", "Tipo": "Rio", "Laguna Rio": "Rio De La Plata", "PtoGeo": "-34.79811973 -57.97633847 0 0", "Alerta": 1, "Dif": 0, "S2 Fecha": "3/20/2026", "S3 Fecha": "3/25/2026", "info": "Alerta verde, riesgo nulo a bajo y estable", "Acciones": "🎣✅, 🏊‍✅,🛶 ✅" }, "geometry": { "type": "Point", "coordinates": [ -57.97633847, -34.79811973 ] } },
{ "type": "Feature", "properties": { "CodPunto": "PARA", "Nombre": "Rio de La Plata Parador_Ensenada", "Municipio": "Ensenada", "Tipo": "Rio", "Laguna Rio": "Rio De La Plata", "PtoGeo": "-34.8273528 -57.94851535 0 0", "Alerta": 1, "Dif": 0, "S2 Fecha": "3/20/2026", "S3 Fecha": "3/25/2026", "info": "Alerta verde, riesgo nulo a bajo y estable", "Acciones": "🎣✅, 🏊‍✅,🛶 ✅" }, "geometry": { "type": "Point", "coordinates": [ -57.94851535, -34.8273528 ] } },
{ "type": "Feature", "properties": { "CodPunto": "CARI", "Nombre": "CA (Canal Arias y Rio Parana)_Escobar", "Municipio": "Escobar", "Tipo": "Rio", "Laguna Rio": "Interseccion Canal Arias En Rio Parana", "PtoGeo": "-34.27289635 -58.65464648 0 0", "Alerta": 1, "Dif": 0, "S2 Fecha": null, "S3 Fecha": "3/25/2026", "info": "Alerta verde, riesgo nulo a bajo y estable", "Acciones": "🎣✅, 🏊‍✅,🛶 ✅" }, "geometry": { "type": "Point", "coordinates": [ -58.65464648, -34.27289635 ] } },
{ "type": "Feature", "properties": { "CodPunto": "CARB", "Nombre": "El Carbon_General Juan Madariaga", "Municipio": "General Juan Madariaga", "Tipo": "Laguna", "Laguna Rio": "Laguna El Carbon", "PtoGeo": "-36.94859847 -57.08335256 0 0", "Alerta": 3, "Dif": -1, "S2 Fecha": null, "S3 Fecha": "3/25/2026", "info": "Alerta naranja, riesgo moderado a alto, en disminución", "Acciones": "🎣🚫, 🐟🚫, 🏊🚫,🛶🚫, 🚱️" }, "geometry": { "type": "Point", "coordinates": [ -57.08335256, -36.94859847 ] } },
{ "type": "Feature", "properties": { "CodPunto": "LARG", "Nombre": "La Larga_General Juan Madariaga", "Municipio": "General Juan Madariaga", "Tipo": "Laguna", "Laguna Rio": "Laguna La Larga", "PtoGeo": "-36.94659258 -57.11466679 0 0", "Alerta": 3, "Dif": -1, "S2 Fecha": null, "S3 Fecha": "3/25/2026", "info": "Alerta naranja, riesgo moderado a alto, en disminución", "Acciones": "🎣🚫, 🐟🚫, 🏊🚫,🛶🚫, 🚱️" }, "geometry": { "type": "Point", "coordinates": [ -57.11466679, -36.94659258 ] } },
{ "type": "Feature", "properties": { "CodPunto": "HORC", "Nombre": "Los Horcones_General Juan Madariaga", "Municipio": "General Juan Madariaga", "Tipo": "Laguna", "Laguna Rio": "Laguna Los Horcones", "PtoGeo": "-37.06103997 -56.9915272 0 0", "Alerta": 3, "Dif": -1, "S2 Fecha": "3/20/2026", "S3 Fecha": "3/25/2026", "info": "Alerta naranja, riesgo moderado a alto, en disminución", "Acciones": "🎣🚫, 🐟🚫, 🏊🚫,🛶🚫, 🚱️" }, "geometry": { "type": "Point", "coordinates": [ -56.9915272, -37.06103997 ] } },
{ "type": "Feature", "properties": { "CodPunto": "CNAL", "Nombre": "Canal2 Puente R11_General Lavalle", "Municipio": "General Lavalle", "Tipo": "Canal", "Laguna Rio": "Canal Dos Puente Ruta Once", "PtoGeo": "-36.48851052 -57.00668284 0 0", "Alerta": 1, "Dif": 0, "S2 Fecha": "3/20/2026", "S3 Fecha": "3/25/2026", "info": "Alerta verde, riesgo nulo a bajo y estable", "Acciones": "🎣✅, 🏊‍✅,🛶 ✅" }, "geometry": { "type": "Point", "coordinates": [ -57.00668284, -36.48851052 ] } },
{ "type": "Feature", "properties": { "CodPunto": "SALG", "Nombre": "Reserva natural Salada Grande_General Lavalle", "Municipio": "General Lavalle", "Tipo": "Laguna", "Laguna Rio": "Reserva Natural Laguna Salada Grande", "PtoGeo": "-36.891111 -56.961667 0 0", "Alerta": 3, "Dif": -1, "S2 Fecha": "3/20/2026", "S3 Fecha": "3/25/2026", "info": "Alerta naranja, riesgo moderado a alto, en disminución", "Acciones": "🎣🚫, 🐟🚫, 🏊🚫,🛶🚫, 🚱️" }, "geometry": { "type": "Point", "coordinates": [ -56.961667, -36.891111 ] } },
{ "type": "Feature", "properties": { "CodPunto": "RGUI1", "Nombre": "Rio Guido_General Lavalle", "Municipio": "General Lavalle", "Tipo": "Rio", "Laguna Rio": "Rio Guido", "PtoGeo": "-36.49732809 -57.07616477 -0.2 0", "Alerta": 1, "Dif": 0, "S2 Fecha": null, "S3 Fecha": "3/25/2026", "info": "Alerta verde, riesgo nulo a bajo y estable", "Acciones": "🎣✅, 🏊‍✅,🛶 ✅" }, "geometry": { "type": "Point", "coordinates": [ -57.07616477, -36.49732809 ] } },
{ "type": "Feature", "properties": { "CodPunto": "RGUI2", "Nombre": "Rio Guido al mar_General Lavalle", "Municipio": "General Lavalle", "Tipo": "Rio", "Laguna Rio": "Rio Guido Al Mar", "PtoGeo": "-36.48696431 -57.04262177 0 0", "Alerta": 1, "Dif": 0, "S2 Fecha": null, "S3 Fecha": "3/25/2026", "info": "Alerta verde, riesgo nulo a bajo y estable", "Acciones": "🎣✅, 🏊‍✅,🛶 ✅" }, "geometry": { "type": "Point", "coordinates": [ -57.04262177, -36.48696431 ] } },
{ "type": "Feature", "properties": { "CodPunto": "LPD1", "Nombre": "Los Padres_General Pueyrredon", "Municipio": "General Pueyrredon", "Tipo": "Laguna", "Laguna Rio": "Laguna De Los Padres", "PtoGeo": "-37.93583254 -57.73326215 0 0", "Alerta": 2, "Dif": 1, "S2 Fecha": null, "S3 Fecha": "3/25/2026", "info": "Alerta amarillo, riesgo bajo a moderado, en aumento", "Acciones": "🎣✅, 🐟🚫, 🏊⚠️,🛶⚠, 🚱️" }, "geometry": { "type": "Point", "coordinates": [ -57.73326215, -37.93583254 ] } },
{ "type": "Feature", "properties": { "CodPunto": "SALP", "Nombre": "Salada Gral Pinto", "Municipio": "General Pinto", "Tipo": "Laguna", "Laguna Rio": "Laguna La Salada", "PtoGeo": "-34.73832970134721 -62.187931640617414 0 0", "Alerta": 4, "Dif": 0, "S2 Fecha": null, "S3 Fecha": "3/25/2026", "info": "Alerta roja, riesgo alto, estable", "Acciones": "🎣🚫, 🐟🚫, 🏊🚫,🛶🚫, 🚱️" }, "geometry": { "type": "Point", "coordinates": [ -62.187931640617414, -34.738329701347212 ] } },
{ "type": "Feature", "properties": { "CodPunto": "CARL", "Nombre": "Carlota", "Municipio": "General La Madrid", "Tipo": "Laguna", "Laguna Rio": "Laguna La Carlota", "PtoGeo": "-37.676306107271 -61.39445655263294 0 0", "Alerta": 1, "Dif": 0, "S2 Fecha": "3/23/2026", "S3 Fecha": "3/25/2026", "info": "Alerta verde, riesgo nulo a bajo y estable", "Acciones": "🎣✅, 🏊‍✅,🛶 ✅" }, "geometry": { "type": "Point", "coordinates": [ -61.394456552632938, -37.676306107271003 ] } },
{ "type": "Feature", "properties": { "CodPunto": "ALS1", "Nombre": "Alsina1_Guaminí", "Municipio": "Guamini", "Tipo": "Laguna", "Laguna Rio": "Laguna Alsina", "PtoGeo": "-36.876499 -62.19693303 0 0", "Alerta": 3, "Dif": 0, "S2 Fecha": null, "S3 Fecha": "3/25/2026", "info": "Alerta naranja, riesgo moderado a alto, estable", "Acciones": "🎣🚫, 🐟🚫, 🏊🚫,🛶🚫, 🚱️" }, "geometry": { "type": "Point", "coordinates": [ -62.19693303, -36.876499 ] } },
{ "type": "Feature", "properties": { "CodPunto": "ALS2", "Nombre": "Alsina2_Guaminí", "Municipio": "Guamini", "Tipo": "Laguna", "Laguna Rio": "Laguna Alsina", "PtoGeo": "-36.84172891 -62.0239804 0 0", "Alerta": 3, "Dif": 0, "S2 Fecha": null, "S3 Fecha": "3/25/2026", "info": "Alerta naranja, riesgo moderado a alto, estable", "Acciones": "🎣🚫, 🐟🚫, 🏊🚫,🛶🚫, 🚱️" }, "geometry": { "type": "Point", "coordinates": [ -62.0239804, -36.84172891 ] } },
{ "type": "Feature", "properties": { "CodPunto": "COCH", "Nombre": "Cochico_Guaminí", "Municipio": "Guamini", "Tipo": "Laguna", "Laguna Rio": "Laguna Cochico", "PtoGeo": "-36.92433273 -62.32571767 -0.2 0", "Alerta": 1, "Dif": 0, "S2 Fecha": null, "S3 Fecha": "3/25/2026", "info": "Alerta verde, riesgo nulo a bajo y estable", "Acciones": "🎣✅, 🏊‍✅,🛶 ✅" }, "geometry": { "type": "Point", "coordinates": [ -62.32571767, -36.92433273 ] } },
{ "type": "Feature", "properties": { "CodPunto": "DMONTE", "Nombre": "del Monte_Guaminí", "Municipio": "Guamini", "Tipo": "Laguna", "Laguna Rio": "Laguna Del Monte", "PtoGeo": "-37.020806 -62.476723 0 0", "Alerta": 1, "Dif": 0, "S2 Fecha": null, "S3 Fecha": "3/25/2026", "info": "Alerta verde, riesgo nulo a bajo y estable", "Acciones": "🎣✅, 🏊‍✅,🛶 ✅" }, "geometry": { "type": "Point", "coordinates": [ -62.476723, -37.020806 ] } },
{ "type": "Feature", "properties": { "CodPunto": "CAR1", "Nombre": "Carpincho_Junin", "Municipio": "Junin", "Tipo": "Laguna", "Laguna Rio": "Laguna El Carpincho", "PtoGeo": "-34.57554254 -60.89518109 0 0", "Alerta": 3, "Dif": 0, "S2 Fecha": null, "S3 Fecha": "3/25/2026", "info": "Alerta naranja, riesgo moderado a alto, estable", "Acciones": "🎣🚫, 🐟🚫, 🏊🚫,🛶🚫, 🚱️" }, "geometry": { "type": "Point", "coordinates": [ -60.89518109, -34.57554254 ] } },
{ "type": "Feature", "properties": { "CodPunto": "GOMP", "Nombre": "Gomez_Junin", "Municipio": "Junin", "Tipo": "Laguna", "Laguna Rio": "Laguna Gomez", "PtoGeo": "-34.65028994 -61.13782807 0 0", "Alerta": 2, "Dif": 0, "S2 Fecha": null, "S3 Fecha": "3/25/2026", "info": "Alerta amarillo, riesgo bajo a moderado, estable", "Acciones": "🎣✅, 🐟🚫, 🏊⚠️,🛶⚠, 🚱️" }, "geometry": { "type": "Point", "coordinates": [ -61.13782807, -34.65028994 ] } },
{ "type": "Feature", "properties": { "CodPunto": "GOMEZ1", "Nombre": "Gomez 1_Junin", "Municipio": "Junin", "Tipo": "Laguna", "Laguna Rio": "Laguna Gomez", "PtoGeo": "-34.66692215 -61.03158186 0 0", "Alerta": 3, "Dif": 0, "S2 Fecha": null, "S3 Fecha": "3/25/2026", "info": "Alerta naranja, riesgo moderado a alto, estable", "Acciones": "🎣🚫, 🐟🚫, 🏊🚫,🛶🚫, 🚱️" }, "geometry": { "type": "Point", "coordinates": [ -61.03158186, -34.66692215 ] } },
{ "type": "Feature", "properties": { "CodPunto": "GOMEZ2", "Nombre": "Gomez 2_Junin", "Municipio": "Junin", "Tipo": "Laguna", "Laguna Rio": "Laguna Gomez", "PtoGeo": "-34.65421815 -61.06077876 0 0", "Alerta": 3, "Dif": 0, "S2 Fecha": null, "S3 Fecha": "3/25/2026", "info": "Alerta naranja, riesgo moderado a alto, estable", "Acciones": "🎣🚫, 🐟🚫, 🏊🚫,🛶🚫, 🚱️" }, "geometry": { "type": "Point", "coordinates": [ -61.06077876, -34.65421815 ] } },
{ "type": "Feature", "properties": { "CodPunto": "MCHJ", "Nombre": "Mar Chiquita Junin_Junin", "Municipio": "Junin", "Tipo": "Laguna", "Laguna Rio": "Laguna Mar Chiquita Junin", "PtoGeo": "-34.44942197 -61.1695184 0 0", "Alerta": 3, "Dif": 0, "S2 Fecha": null, "S3 Fecha": "3/25/2026", "info": "Alerta naranja, riesgo moderado a alto, estable", "Acciones": "🎣🚫, 🐟🚫, 🏊🚫,🛶🚫, 🚱️" }, "geometry": { "type": "Point", "coordinates": [ -61.1695184, -34.44942197 ] } },
{ "type": "Feature", "properties": { "CodPunto": "LPR1", "Nombre": "del Paraiso_Laprida", "Municipio": "Laprida", "Tipo": "Laguna", "Laguna Rio": "Laguna El Paraiso", "PtoGeo": "-37.569146 -60.79754351 0 0", "Alerta": 1, "Dif": 1, "S2 Fecha": "3/23/2026", "S3 Fecha": "3/25/2026", "info": "Alerta verde, riesgo nulo a bajo pero en aumento", "Acciones": "🎣✅, 🏊‍✅,🛶 ✅" }, "geometry": { "type": "Point", "coordinates": [ -60.79754351, -37.569146 ] } },
{ "type": "Feature", "properties": { "CodPunto": "LPR3", "Nombre": "Quilla Lauquen_Laprida", "Municipio": "Laprida", "Tipo": "Laguna", "Laguna Rio": "Quilla Lauquen", "PtoGeo": "-37.48183191 -60.496604 0 0", "Alerta": 3, "Dif": 1, "S2 Fecha": "3/23/2026", "S3 Fecha": "3/25/2026", "info": "Alerta naranja, riesgo moderado a alto, en aumento", "Acciones": "🎣🚫, 🐟🚫, 🏊🚫,🛶🚫, 🚱️" }, "geometry": { "type": "Point", "coordinates": [ -60.496604, -37.48183191 ] } },
{ "type": "Feature", "properties": { "CodPunto": "DIFM", "Nombre": "del Difunto Manuel_Las Flores", "Municipio": "Las Flores", "Tipo": "Laguna", "Laguna Rio": "Laguna Del Difunto Manuel", "PtoGeo": "-36.009417 -59.0755 0 0", "Alerta": 1, "Dif": 0, "S2 Fecha": null, "S3 Fecha": "3/25/2026", "info": "Alerta verde, riesgo nulo a bajo y estable", "Acciones": "🎣✅, 🏊‍✅,🛶 ✅" }, "geometry": { "type": "Point", "coordinates": [ -59.0755, -36.009417 ] } },
{ "type": "Feature", "properties": { "CodPunto": "SANB", "Nombre": "San Bartolo. Balneario Municipal Leandro N. Alem_Leandro N. Alem", "Municipio": "Leandro N. Alem", "Tipo": "Laguna", "Laguna Rio": "Laguna San Bartolo Balneario Municipal Leandro Alem", "PtoGeo": "-34.45842063 -61.48145927 0 0", "Alerta": 1, "Dif": 0, "S2 Fecha": null, "S3 Fecha": "3/25/2026", "info": "Alerta verde, riesgo nulo a bajo y estable", "Acciones": "🎣✅, 🏊‍✅,🛶 ✅" }, "geometry": { "type": "Point", "coordinates": [ -61.48145927, -34.45842063 ] } },
{ "type": "Feature", "properties": { "CodPunto": "CCHI", "Nombre": "Chis Chis_Lezama", "Municipio": "Lezama", "Tipo": "Laguna", "Laguna Rio": "Laguna Chis Chis", "PtoGeo": "-35.76321275 -57.99055982 0 0", "Alerta": 4, "Dif": 0, "S2 Fecha": null, "S3 Fecha": "3/25/2026", "info": "Alerta roja, riesgo alto, estable", "Acciones": "🎣🚫, 🐟🚫, 🏊🚫,🛶🚫, 🚱️" }, "geometry": { "type": "Point", "coordinates": [ -57.99055982, -35.76321275 ] } },
{ "type": "Feature", "properties": { "CodPunto": "CHIS", "Nombre": "Chis Chis 2_Lezama", "Municipio": "Lezama", "Tipo": "Laguna", "Laguna Rio": "Laguna Chis Chis", "PtoGeo": "-35.76032928 -57.94830023 0 0", "Alerta": 4, "Dif": 0, "S2 Fecha": null, "S3 Fecha": "3/25/2026", "info": "Alerta roja, riesgo alto, estable", "Acciones": "🎣🚫, 🐟🚫, 🏊🚫,🛶🚫, 🚱️" }, "geometry": { "type": "Point", "coordinates": [ -57.94830023, -35.76032928 ] } },
{ "type": "Feature", "properties": { "CodPunto": "BARRC", "Nombre": "las Barrancas_Lezama", "Municipio": "Lezama", "Tipo": "Laguna", "Laguna Rio": "Laguna Las Barrancas", "PtoGeo": "-35.89171532 -58.04931927 0 0", "Alerta": 4, "Dif": 0, "S2 Fecha": null, "S3 Fecha": "3/25/2026", "info": "Alerta roja, riesgo alto, estable", "Acciones": "🎣🚫, 🐟🚫, 🏊🚫,🛶🚫, 🚱️" }, "geometry": { "type": "Point", "coordinates": [ -58.04931927, -35.89171532 ] } },
{ "type": "Feature", "properties": { "CodPunto": "TABL", "Nombre": "la Tablilla_Lezama", "Municipio": "Lezama", "Tipo": "Laguna", "Laguna Rio": "Laguna La Tablilla", "PtoGeo": "-35.80841501 -58.03739535 0 0", "Alerta": 4, "Dif": 0, "S2 Fecha": null, "S3 Fecha": "3/25/2026", "info": "Alerta roja, riesgo alto, estable", "Acciones": "🎣🚫, 🐟🚫, 🏊🚫,🛶🚫, 🚱️" }, "geometry": { "type": "Point", "coordinates": [ -58.03739535, -35.80841501 ] } },
{ "type": "Feature", "properties": { "CodPunto": "LOBO", "Nombre": "de Lobos,_Lobos", "Municipio": "Lobos", "Tipo": "Laguna", "Laguna Rio": "Laguna De Lobos", "PtoGeo": "-35.28236937 -59.12091231 0 0", "Alerta": 4, "Dif": 0, "S2 Fecha": "3/23/2026", "S3 Fecha": "3/25/2026", "info": "Alerta roja, riesgo alto, estable", "Acciones": "🎣🚫, 🐟🚫, 🏊🚫,🛶🚫, 🚱️" }, "geometry": { "type": "Point", "coordinates": [ -59.12091231, -35.28236937 ] } },
{ "type": "Feature", "properties": { "CodPunto": "ATAL", "Nombre": "Rio de La Plata Atalaya_Magdalena", "Municipio": "Magdalena", "Tipo": "Rio", "Laguna Rio": "Rio De La Plata", "PtoGeo": "-35.00115326 -57.52590481 0 0", "Alerta": 1, "Dif": 0, "S2 Fecha": "3/20/2026", "S3 Fecha": "3/25/2026", "info": "Alerta verde, riesgo nulo a bajo y estable", "Acciones": "🎣✅, 🏊‍✅,🛶 ✅" }, "geometry": { "type": "Point", "coordinates": [ -57.52590481, -35.00115326 ] } },
{ "type": "Feature", "properties": { "CodPunto": "MAGD", "Nombre": "Rio de La Plata Magdalena_Magdalena", "Municipio": "Magdalena", "Tipo": "Rio", "Laguna Rio": "Rio De La Plata", "PtoGeo": "-35.01544081 -57.49544978 0 0", "Alerta": 1, "Dif": 0, "S2 Fecha": "3/20/2026", "S3 Fecha": "3/25/2026", "info": "Alerta verde, riesgo nulo a bajo y estable", "Acciones": "🎣✅, 🏊‍✅,🛶 ✅" }, "geometry": { "type": "Point", "coordinates": [ -57.49544978, -35.01544081 ] } },
{ "type": "Feature", "properties": { "CodPunto": "KHUI", "Nombre": "Kakel Huincul_Maipu", "Municipio": "Maipu", "Tipo": "Laguna", "Laguna Rio": "Kakel Huincul", "PtoGeo": "-36.79315564 -57.77552522 0 0", "Alerta": 1, "Dif": 0, "S2 Fecha": null, "S3 Fecha": "3/25/2026", "info": "Alerta verde, riesgo nulo a bajo y estable", "Acciones": "🎣✅, 🏊‍✅,🛶 ✅" }, "geometry": { "type": "Point", "coordinates": [ -57.77552522, -36.79315564 ] } },
{ "type": "Feature", "properties": { "CodPunto": "YAM1", "Nombre": "Yamahuida_Maipu", "Municipio": "Maipu", "Tipo": "Laguna", "Laguna Rio": "Laguna Yamahuida", "PtoGeo": "-36.87387893 -57.70591791 0 0", "Alerta": 1, "Dif": 0, "S2 Fecha": null, "S3 Fecha": "3/25/2026", "info": "Alerta verde, riesgo nulo a bajo y estable", "Acciones": "🎣✅, 🏊‍✅,🛶 ✅" }, "geometry": { "type": "Point", "coordinates": [ -57.70591791, -36.87387893 ] } },
{ "type": "Feature", "properties": { "CodPunto": "MCHIC", "Nombre": "MarChiquita_Costa", "Municipio": "Mar Chiquita", "Tipo": "Laguna", "Laguna Rio": "MarChiquita MarChiquita", "PtoGeo": "-37.66800158551009 -57.39166781548176 0 0", "Alerta": 1, "Dif": 0, "S2 Fecha": null, "S3 Fecha": "3/25/2026", "info": "Alerta verde, riesgo nulo a bajo y estable", "Acciones": "🎣✅, 🏊‍✅,🛶 ✅" }, "geometry": { "type": "Point", "coordinates": [ -57.39166781548176, -37.66800158551009 ] } },
{ "type": "Feature", "properties": { "CodPunto": "MONTE", "Nombre": "San Miguel del Monte_Monte", "Municipio": "Monte", "Tipo": "Laguna", "Laguna Rio": "San Miguel Del Monte", "PtoGeo": "-35.461583 -58.805472 0 0", "Alerta": 4, "Dif": 0, "S2 Fecha": null, "S3 Fecha": "3/25/2026", "info": "Alerta roja, riesgo alto, estable", "Acciones": "🎣🚫, 🐟🚫, 🏊🚫,🛶🚫, 🚱️" }, "geometry": { "type": "Point", "coordinates": [ -58.805472, -35.461583 ] } },
{ "type": "Feature", "properties": { "CodPunto": "SAGRAN", "Nombre": "Sauce Grande_Monte Hermoso", "Municipio": "Monte Hermoso", "Tipo": "Laguna", "Laguna Rio": "Laguna Sauce Grande", "PtoGeo": "-38.934333 -61.383083 0 0", "Alerta": 3, "Dif": 0, "S2 Fecha": null, "S3 Fecha": "3/25/2026", "info": "Alerta naranja, riesgo moderado a alto, estable", "Acciones": "🎣🚫, 🐟🚫, 🏊🚫,🛶🚫, 🚱️" }, "geometry": { "type": "Point", "coordinates": [ -61.383083, -38.934333 ] } },
{ "type": "Feature", "properties": { "CodPunto": "DROG", "Nombre": "Dique Roggero_Moreno", "Municipio": "Moreno", "Tipo": "Dique", "Laguna Rio": "Dique Roggero", "PtoGeo": "-34.679654 -58.86546382 0 0", "Alerta": 1, "Dif": 0, "S2 Fecha": null, "S3 Fecha": "3/25/2026", "info": "Alerta verde, riesgo nulo a bajo y estable", "Acciones": "🎣✅, 🏊‍✅,🛶 ✅" }, "geometry": { "type": "Point", "coordinates": [ -58.86546382, -34.679654 ] } },
{ "type": "Feature", "properties": { "CodPunto": "CPNAV", "Nombre": "Club de Pesca Navarro", "Municipio": "Navarro", "Tipo": "Laguna", "Laguna Rio": "Laguna Navarro", "PtoGeo": "-35.0124443361281 -59.28690932788589 0 0", "Alerta": 1, "Dif": 0, "S2 Fecha": "3/23/2026", "S3 Fecha": "3/25/2026", "info": "Alerta verde, riesgo nulo a bajo y estable", "Acciones": "🎣✅, 🏊‍✅,🛶 ✅" }, "geometry": { "type": "Point", "coordinates": [ -59.286909327885887, -35.012444336128098 ] } },
{ "type": "Feature", "properties": { "CodPunto": "CANIAD", "Nombre": "cañadon_Pehuajo", "Municipio": "Pehuajo", "Tipo": "Laguna", "Laguna Rio": "Laguna Caniadon", "PtoGeo": "-35.76604051 -61.84809208 0 0", "Alerta": 1, "Dif": 0, "S2 Fecha": null, "S3 Fecha": "3/25/2026", "info": "Alerta verde, riesgo nulo a bajo y estable", "Acciones": "🎣✅, 🏊‍✅,🛶 ✅" }, "geometry": { "type": "Point", "coordinates": [ -61.84809208, -35.76604051 ] } },
{ "type": "Feature", "properties": { "CodPunto": "LASAL", "Nombre": "la Salada, Pehuajo,_Pehuajo", "Municipio": "Pehuajo", "Tipo": "Laguna", "Laguna Rio": "Laguna La Salada Pehuajo", "PtoGeo": "-35.78543081 -61.90826889 0 0", "Alerta": 1, "Dif": 0, "S2 Fecha": null, "S3 Fecha": "3/25/2026", "info": "Alerta verde, riesgo nulo a bajo y estable", "Acciones": "🎣✅, 🏊‍✅,🛶 ✅" }, "geometry": { "type": "Point", "coordinates": [ -61.90826889, -35.78543081 ] } },
{ "type": "Feature", "properties": { "CodPunto": "PEJEC", "Nombre": "Rio de La Plata Club Pejerrey_Quilmes", "Municipio": "Quilmes", "Tipo": "Rio", "Laguna Rio": "Rio De La Plata", "PtoGeo": "-34.70172 -58.20996141 0 0", "Alerta": 1, "Dif": 0, "S2 Fecha": null, "S3 Fecha": "3/25/2026", "info": "Alerta verde, riesgo nulo a bajo y estable", "Acciones": "🎣✅, 🏊‍✅,🛶 ✅" }, "geometry": { "type": "Point", "coordinates": [ -58.20996141, -34.70172 ] } },
{ "type": "Feature", "properties": { "CodPunto": "RAMPAR", "Nombre": "Bajada Calle Gomendio", "Municipio": "Ramallo", "Tipo": "Rio", "Laguna Rio": "Rio Parana", "PtoGeo": "-33.478637394002334 -59.99152814531882 0 0", "Alerta": 1, "Dif": 0, "S2 Fecha": null, "S3 Fecha": "3/25/2026", "info": "Alerta verde, riesgo nulo a bajo y estable", "Acciones": "🎣✅, 🏊‍✅,🛶 ✅" }, "geometry": { "type": "Point", "coordinates": [ -59.991528145318817, -33.478637394002334 ] } },
{ "type": "Feature", "properties": { "CodPunto": "CZ1", "Nombre": "Cuero de Zorro 1_Rivadavia", "Municipio": "Rivadavia", "Tipo": "Laguna", "Laguna Rio": "Cuero De Zorro", "PtoGeo": "-35.75534241 -62.91277592 0 0", "Alerta": 3, "Dif": 1, "S2 Fecha": "3/24/2026", "S3 Fecha": "3/25/2026", "info": "Alerta naranja, riesgo moderado a alto, en aumento", "Acciones": "🎣🚫, 🐟🚫, 🏊🚫,🛶🚫, 🚱️" }, "geometry": { "type": "Point", "coordinates": [ -62.91277592, -35.75534241 ] } },
{ "type": "Feature", "properties": { "CodPunto": "RSALRP", "Nombre": "Rio Salado_RPerez", "Municipio": "Roque Perez", "Tipo": "Rio", "Laguna Rio": "Rio Salado", "PtoGeo": "-35.37374897 -59.32361902 0 0", "Alerta": 2, "Dif": 0, "S2 Fecha": "3/23/2026", "S3 Fecha": "3/25/2026", "info": "Alerta amarillo, riesgo bajo a moderado, estable", "Acciones": "🎣✅, 🐟🚫, 🏊⚠️,🛶⚠, 🚱️" }, "geometry": { "type": "Point", "coordinates": [ -59.32361902, -35.37374897 ] } },
{ "type": "Feature", "properties": { "CodPunto": "PNAUT", "Nombre": "Parque Nautico San Fernando_San Fernando", "Municipio": "San Fernando", "Tipo": "Rio", "Laguna Rio": "Parque Nautico San Fernando", "PtoGeo": "-34.44189987 -58.53016266 0 0", "Alerta": 1, "Dif": 0, "S2 Fecha": null, "S3 Fecha": "3/25/2026", "info": "Alerta verde, riesgo nulo a bajo y estable", "Acciones": "🎣✅, 🏊‍✅,🛶 ✅" }, "geometry": { "type": "Point", "coordinates": [ -58.53016266, -34.44189987 ] } },
{ "type": "Feature", "properties": { "CodPunto": "TAN1", "Nombre": "Dique Tandil_Tandil", "Municipio": "Tandil", "Tipo": "Dique", "Laguna Rio": "Dique Tandil", "PtoGeo": "-37.34456748 -59.130285 0 0", "Alerta": 2, "Dif": 0, "S2 Fecha": "3/23/2026", "S3 Fecha": "3/25/2026", "info": "Alerta amarillo, riesgo bajo a moderado, estable", "Acciones": "🎣✅, 🐟🚫, 🏊⚠️,🛶⚠, 🚱️" }, "geometry": { "type": "Point", "coordinates": [ -59.130285, -37.34456748 ] } },
{ "type": "Feature", "properties": { "CodPunto": "GELVEZ", "Nombre": "D5 (Arroyo Gelvez)_Tigre", "Municipio": "Tigre", "Tipo": "Arroyo", "Laguna Rio": "Arroyo Gelvez", "PtoGeo": "-34.36870564 -58.59217821 0 0", "Alerta": 1, "Dif": 0, "S2 Fecha": null, "S3 Fecha": "3/25/2026", "info": "Alerta verde, riesgo nulo a bajo y estable", "Acciones": "🎣✅, 🏊‍✅,🛶 ✅" }, "geometry": { "type": "Point", "coordinates": [ -58.59217821, -34.36870564 ] } },
{ "type": "Feature", "properties": { "CodPunto": "PERLA", "Nombre": "RSALP (Arroyo La Perla y Rio Sarmiento)_Tigre", "Municipio": "Tigre", "Tipo": "Arroyo", "Laguna Rio": "Arroyo La Perla Intereseccion Rio Sarmiento", "PtoGeo": "-34.382361 -58.558833 0 0", "Alerta": 1, "Dif": 0, "S2 Fecha": null, "S3 Fecha": "3/25/2026", "info": "Alerta verde, riesgo nulo a bajo y estable", "Acciones": "🎣✅, 🏊‍✅,🛶 ✅" }, "geometry": { "type": "Point", "coordinates": [ -58.558833, -34.382361 ] } },
{ "type": "Feature", "properties": { "CodPunto": "SARCUR", "Nombre": "RSARC (Rio Sarmiento entre Arroyo Reyes y Curubica)_Tigre", "Municipio": "Tigre", "Tipo": "Rio", "Laguna Rio": "Rio Sarmiento Entre Arroyo Reyes Arroyo Curubica", "PtoGeo": "-34.38570002 -58.57761458 0 0", "Alerta": 1, "Dif": 0, "S2 Fecha": null, "S3 Fecha": "3/25/2026", "info": "Alerta verde, riesgo nulo a bajo y estable", "Acciones": "🎣✅, 🏊‍✅,🛶 ✅" }, "geometry": { "type": "Point", "coordinates": [ -58.57761458, -34.38570002 ] } },
{ "type": "Feature", "properties": { "CodPunto": "DLP2", "Nombre": "Dique Las Piedras 2_Tornquist", "Municipio": "Tornquist", "Tipo": "Dique", "Laguna Rio": "Dique Las Piedras", "PtoGeo": "-38.37272735 -61.75836664 0 0", "Alerta": 1, "Dif": 0, "S2 Fecha": null, "S3 Fecha": "3/25/2026", "info": "Alerta verde, riesgo nulo a bajo y estable", "Acciones": "🎣✅, 🏊‍✅,🛶 ✅" }, "geometry": { "type": "Point", "coordinates": [ -61.75836664, -38.37272735 ] } },
{ "type": "Feature", "properties": { "CodPunto": "CZ2", "Nombre": "Cuero de Zorro 2_Trenque Lauquen", "Municipio": "Trenque Lauquen", "Tipo": "Laguna", "Laguna Rio": "Cuero De Zorro", "PtoGeo": "-35.78476218 -62.90764975 0 0", "Alerta": 3, "Dif": 1, "S2 Fecha": "3/24/2026", "S3 Fecha": "3/25/2026", "info": "Alerta naranja, riesgo moderado a alto, en aumento", "Acciones": "🎣🚫, 🐟🚫, 🏊🚫,🛶🚫, 🚱️" }, "geometry": { "type": "Point", "coordinates": [ -62.90764975, -35.78476218 ] } },
{ "type": "Feature", "properties": { "CodPunto": "HINOJO", "Nombre": "Hinojo_Trenque Lauquen", "Municipio": "Trenque Lauquen", "Tipo": "Laguna", "Laguna Rio": "Laguna Hinojo", "PtoGeo": "-35.9256205 -62.49421275 0 0", "Alerta": 4, "Dif": 0, "S2 Fecha": null, "S3 Fecha": "3/25/2026", "info": "Alerta roja, riesgo alto, estable", "Acciones": "🎣🚫, 🐟🚫, 🏊🚫,🛶🚫, 🚱️" }, "geometry": { "type": "Point", "coordinates": [ -62.49421275, -35.9256205 ] } },
{ "type": "Feature", "properties": { "CodPunto": "TUN1", "Nombre": "Las Tunas 1_Trenque Lauquen", "Municipio": "Trenque Lauquen", "Tipo": "Laguna", "Laguna Rio": "Laguna Las Tunas", "PtoGeo": "-35.97278686 -62.43452697 0 0", "Alerta": 3, "Dif": 0, "S2 Fecha": null, "S3 Fecha": "3/25/2026", "info": "Alerta naranja, riesgo moderado a alto, estable", "Acciones": "🎣🚫, 🐟🚫, 🏊🚫,🛶🚫, 🚱️" }, "geometry": { "type": "Point", "coordinates": [ -62.43452697, -35.97278686 ] } },
{ "type": "Feature", "properties": { "CodPunto": "TUN2", "Nombre": "Las Tunas 2_Trenque Lauquen", "Municipio": "Trenque Lauquen", "Tipo": "Laguna", "Laguna Rio": "Laguna Las Tunas", "PtoGeo": "-36.01268186 -62.50829928 0 0", "Alerta": 4, "Dif": 0, "S2 Fecha": null, "S3 Fecha": "3/25/2026", "info": "Alerta roja, riesgo alto, estable", "Acciones": "🎣🚫, 🐟🚫, 🏊🚫,🛶🚫, 🚱️" }, "geometry": { "type": "Point", "coordinates": [ -62.50829928, -36.01268186 ] } },
{ "type": "Feature", "properties": { "CodPunto": "TIG", "Nombre": "La_Tigra_TresArroyos", "Municipio": "Tres Arroyos", "Tipo": "Laguna", "Laguna Rio": "La Tigra", "PtoGeo": "-38.346405216060184 -60.3626095190713 0 0", "Alerta": 3, "Dif": -1, "S2 Fecha": "3/23/2026", "S3 Fecha": "3/25/2026", "info": "Alerta naranja, riesgo moderado a alto, en disminución", "Acciones": "🎣🚫, 🐟🚫, 🏊🚫,🛶🚫, 🚱️" }, "geometry": { "type": "Point", "coordinates": [ -60.362609519071299, -38.346405216060184 ] } },
{ "type": "Feature", "properties": { "CodPunto": "VLZ1", "Nombre": "Rio de La Plata 2_Vicente Lopez", "Municipio": "Vicente Lopez", "Tipo": "Rio", "Laguna Rio": "Rio De La Plata", "PtoGeo": "-34.51650797 -58.46470993 0 0", "Alerta": 1, "Dif": 0, "S2 Fecha": null, "S3 Fecha": "3/25/2026", "info": "Alerta verde, riesgo nulo a bajo y estable", "Acciones": "🎣✅, 🏊‍✅,🛶 ✅" }, "geometry": { "type": "Point", "coordinates": [ -58.46470993, -34.51650797 ] } },
{ "type": "Feature", "properties": { "CodPunto": "CHAS", "Nombre": "Chasico_Villarino", "Municipio": "Villarino", "Tipo": "Laguna", "Laguna Rio": "Chasico", "PtoGeo": "-38.63126477 -63.07155844 0 0", "Alerta": 1, "Dif": 0, "S2 Fecha": null, "S3 Fecha": "3/25/2026", "info": "Alerta verde, riesgo nulo a bajo y estable", "Acciones": "🎣✅, 🏊‍✅,🛶 ✅" }, "geometry": { "type": "Point", "coordinates": [ -63.07155844, -38.63126477 ] } }
]
}
