{
"type": "FeatureCollection",
"name": "CianoAlert_SRH_20260826",
"crs": { "type": "name", "properties": { "name": "urn:ogc:def:crs:OGC:1.3:CRS84" } },
"features": [
{ "type": "Feature", "properties": { "MUNICIPIO": "Alberti", "PUNTO": "Rio Salado Puente La Daga", "NOMBRE": "Río Salado - Puente Ladaga, Alberti, Provincia de Buenos Aires, Argentina", "Alerta": null, "S2 Fecha": "23/08/2026", "S3 Fecha": "24/08/2026", "Fecha": "24/08/2026", "Dinamica": null, "info": "SIN DATOS", "PACiano": "❓ no se estima", "Cloro": null, "Turb": null, "MON": null, "B5": null, "E. Trofico": "sin datos", "A. Turb": "sin datos", "A. MON": "sin datos" }, "geometry": { "type": "Point", "coordinates": [ -60.243694, -35.069472 ] } },
{ "type": "Feature", "properties": { "MUNICIPIO": "Alberti", "PUNTO": "Río Salado Ruta 5", "NOMBRE": null, "Alerta": null, "S2 Fecha": "23/08/2026", "S3 Fecha": "24/08/2026", "Fecha": "24/08/2026", "Dinamica": null, "info": "SIN DATOS", "PACiano": "❓ no se estima", "Cloro": null, "Turb": null, "MON": null, "B5": null, "E. Trofico": "sin datos", "A. Turb": "sin datos", "A. MON": "sin datos" }, "geometry": { "type": "Point", "coordinates": [ -60.292083, -35.061111 ] } },
{ "type": "Feature", "properties": { "MUNICIPIO": "Alberti", "PUNTO": "Puente Achupallas", "NOMBRE": "Rio Salado. Municipio de Alberti (Cuenca Río Salado)", "Alerta": null, "S2 Fecha": "23/08/2026", "S3 Fecha": "24/08/2026", "Fecha": "24/08/2026", "Dinamica": null, "info": "SIN DATOS", "PACiano": "❓ no se estima", "Cloro": null, "Turb": null, "MON": null, "B5": null, "E. Trofico": "sin datos", "A. Turb": "sin datos", "A. MON": "sin datos" }, "geometry": { "type": "Point", "coordinates": [ -60.109111, -35.087972 ] } },
{ "type": "Feature", "properties": { "MUNICIPIO": "Alem", "PUNTO": "Laguna San Bartolo", "NOMBRE": "Balneario Municipal Leandro N. Alem, Leandro N. Alem, Provincia de Buenos Aires, Argentina", "Alerta": 1, "S2 Fecha": "23/08/2026", "S3 Fecha": "24/08/2026", "Fecha": "24/08/2026", "Dinamica": null, "info": "Alerta verde, riesgo nulo a bajo y estable", "PACiano": "✅✅ (precisión muy alta)", "Cloro": 25.5, "Turb": 32.3, "MON": 0.937, "B5": 0.043, "E. Trofico": "Mesotrofico", "A. Turb": "Media", "A. MON": "Media" }, "geometry": { "type": "Point", "coordinates": [ -61.477361, -34.455611 ] } },
{ "type": "Feature", "properties": { "MUNICIPIO": "Avellaneda", "PUNTO": "Reserva Costanera Sur", "NOMBRE": null, "Alerta": 1, "S2 Fecha": null, "S3 Fecha": "24/08/2026", "Fecha": "24/08/2026", "Dinamica": null, "info": "Alerta verde, riesgo nulo a bajo y estable", "PACiano": "❓ no se estima", "Cloro": null, "Turb": null, "MON": null, "B5": null, "E. Trofico": "sin datos", "A. Turb": "sin datos", "A. MON": "sin datos" }, "geometry": { "type": "Point", "coordinates": [ -58.303547, -34.665583 ] } },
{ "type": "Feature", "properties": { "MUNICIPIO": "Avellaneda", "PUNTO": "Laguna La Saladita", "NOMBRE": "Laguna La Saladita", "Alerta": null, "S2 Fecha": null, "S3 Fecha": "24/08/2026", "Fecha": "24/08/2026", "Dinamica": null, "info": "SIN DATOS", "PACiano": "❓ no se estima", "Cloro": null, "Turb": null, "MON": null, "B5": null, "E. Trofico": "sin datos", "A. Turb": "sin datos", "A. MON": "sin datos" }, "geometry": { "type": "Point", "coordinates": [ -58.340472, -34.672417 ] } },
{ "type": "Feature", "properties": { "MUNICIPIO": "Balcarce", "PUNTO": "LG la brava", "NOMBRE": "Laguna La Brava, Provincia de Buenos Aires, Argentina", "Alerta": 4, "S2 Fecha": "22/08/2026", "S3 Fecha": "24/08/2026", "Fecha": "24/08/2026", "Dinamica": null, "info": "Alerta roja, riesgo alto, estable", "PACiano": "✅✅ (precisión muy alta)", "Cloro": 300.6, "Turb": 60.0, "MON": 0.673, "B5": 0.08, "E. Trofico": "Hipereutrofico", "A. Turb": "Alta", "A. MON": "Baja" }, "geometry": { "type": "Point", "coordinates": [ -57.9830706, -37.865955 ] } },
{ "type": "Feature", "properties": { "MUNICIPIO": "Benito Juárez", "PUNTO": "Laguna San Antonio", "NOMBRE": "Laguna San Antonio, Benito Juárez, Provincia de Buenos Aires, Argentina", "Alerta": 1, "S2 Fecha": "20/08/2026", "S3 Fecha": "24/08/2026", "Fecha": "24/08/2026", "Dinamica": null, "info": "Alerta verde, riesgo nulo a bajo y estable", "PACiano": "✅✅ (precisión muy alta)", "Cloro": 3.7, "Turb": 29.7, "MON": 0.528, "B5": 0.045, "E. Trofico": "oligotrofico", "A. Turb": "Media", "A. MON": "Baja" }, "geometry": { "type": "Point", "coordinates": [ -59.874806, -37.629917 ] } },
{ "type": "Feature", "properties": { "MUNICIPIO": "Benito Juárez", "PUNTO": "Laguna El chifle", "NOMBRE": "Laguna El Chifle, Benito Juárez, Provincia de Buenos Aires, Argentina", "Alerta": 2, "S2 Fecha": "20/08/2026", "S3 Fecha": "24/08/2026", "Fecha": "24/08/2026", "Dinamica": null, "info": "Alerta amarillo, riesgo bajo a moderado, en disminución", "PACiano": "✅✅ (precisión muy alta)", "Cloro": 121.4, "Turb": 21.7, "MON": 0.788, "B5": 0.062, "E. Trofico": "Eutrofico", "A. Turb": "Baja", "A. MON": "Media" }, "geometry": { "type": "Point", "coordinates": [ -59.79925, -37.406806 ] } },
{ "type": "Feature", "properties": { "MUNICIPIO": "Berazategui", "PUNTO": "Balneario de Hudson", "NOMBRE": "Costanera Hudson, Provincia de Buenos Aires, Argentina", "Alerta": 1, "S2 Fecha": "22/08/2026", "S3 Fecha": "24/08/2026", "Fecha": "24/08/2026", "Dinamica": null, "info": "Alerta verde, riesgo nulo a bajo y estable", "PACiano": "✅✅ (precisión muy alta)", "Cloro": 2.8, "Turb": 73.2, "MON": 0.672, "B5": 0.081, "E. Trofico": "oligotrofico", "A. Turb": "Alta", "A. MON": "Media" }, "geometry": { "type": "Point", "coordinates": [ -58.107778, -34.7535 ] } },
{ "type": "Feature", "properties": { "MUNICIPIO": "Berisso", "PUNTO": "Balneario Municipal", "NOMBRE": "Balneario Municipal Berisso, Berisso, Provincia de Buenos Aires, Argentina", "Alerta": 1, "S2 Fecha": "22/08/2026", "S3 Fecha": "24/08/2026", "Fecha": "24/08/2026", "Dinamica": null, "info": "Alerta verde, riesgo nulo a bajo y estable", "PACiano": "✅✅ (precisión muy alta)", "Cloro": 6.9, "Turb": 96.5, "MON": 0.774, "B5": 0.078, "E. Trofico": "oligotrofico", "A. Turb": "Muy alta", "A. MON": "Alta" }, "geometry": { "type": "Point", "coordinates": [ -57.740639, -34.918278 ] } },
{ "type": "Feature", "properties": { "MUNICIPIO": "Berisso", "PUNTO": "Palo Blanco", "NOMBRE": "Playa Palo Blanco Berisso, Berisso, Provincia de Buenos Aires, Argentina", "Alerta": 1, "S2 Fecha": "22/08/2026", "S3 Fecha": "24/08/2026", "Fecha": "24/08/2026", "Dinamica": null, "info": "Alerta verde, riesgo nulo a bajo y estable", "PACiano": "✅✅ (precisión muy alta)", "Cloro": 2.5, "Turb": 81.5, "MON": 0.545, "B5": 0.1, "E. Trofico": "oligotrofico", "A. Turb": "Muy alta", "A. MON": "Media" }, "geometry": { "type": "Point", "coordinates": [ -57.837639, -34.855417 ] } },
{ "type": "Feature", "properties": { "MUNICIPIO": "Berisso", "PUNTO": "La Balandra", "NOMBRE": null, "Alerta": 1, "S2 Fecha": "22/08/2026", "S3 Fecha": "24/08/2026", "Fecha": "24/08/2026", "Dinamica": null, "info": "Alerta verde, riesgo nulo a bajo y estable", "PACiano": "✅✅ (precisión muy alta)", "Cloro": 7.1, "Turb": 88.0, "MON": 0.712, "B5": 0.085, "E. Trofico": "oligotrofico", "A. Turb": "Muy alta", "A. MON": "Alta" }, "geometry": { "type": "Point", "coordinates": [ -57.717167, -34.928639 ] } },
{ "type": "Feature", "properties": { "MUNICIPIO": "BRAGADO", "PUNTO": "Laguna de Bragado", "NOMBRE": "Laguna de Bragado, Bragado, Provincia de Buenos Aires, Argentina", "Alerta": 1, "S2 Fecha": "23/08/2026", "S3 Fecha": "24/08/2026", "Fecha": "24/08/2026", "Dinamica": null, "info": "Alerta verde, riesgo nulo a bajo y estable", "PACiano": "❓ no se estima", "Cloro": null, "Turb": null, "MON": null, "B5": null, "E. Trofico": "sin datos", "A. Turb": "sin datos", "A. MON": "sin datos" }, "geometry": { "type": "Point", "coordinates": [ -60.470528, -35.087528 ] } },
{ "type": "Feature", "properties": { "MUNICIPIO": "Carmen de Areco", "PUNTO": "Rio Areco", "NOMBRE": "Compuerta Balneario", "Alerta": null, "S2 Fecha": "23/08/2026", "S3 Fecha": "24/08/2026", "Fecha": "24/08/2026", "Dinamica": null, "info": "SIN DATOS", "PACiano": "❓ no se estima", "Cloro": null, "Turb": null, "MON": null, "B5": null, "E. Trofico": "sin datos", "A. Turb": "sin datos", "A. MON": "sin datos" }, "geometry": { "type": "Point", "coordinates": [ -59.81725, -34.352028 ] } },
{ "type": "Feature", "properties": { "MUNICIPIO": "Chacabuco", "PUNTO": "Laguna de Rocha", "NOMBRE": "Camping Laguna De Rocha, 9 de Julio, Chacabuco, Provincia de Buenos Aires, Argentina", "Alerta": 4, "S2 Fecha": "23/08/2026", "S3 Fecha": "24/08/2026", "Fecha": "24/08/2026", "Dinamica": null, "info": "Alerta roja, riesgo alto, estable", "PACiano": "❓ no se estima", "Cloro": null, "Turb": null, "MON": null, "B5": null, "E. Trofico": "sin datos", "A. Turb": "sin datos", "A. MON": "sin datos" }, "geometry": { "type": "Point", "coordinates": [ -60.684417, -34.693056 ] } },
{ "type": "Feature", "properties": { "MUNICIPIO": "Chascomús", "PUNTO": "Laguna de Chascomús-Muelle", "NOMBRE": null, "Alerta": 4, "S2 Fecha": "22/08/2026", "S3 Fecha": "24/08/2026", "Fecha": "24/08/2026", "Dinamica": null, "info": "Alerta roja, riesgo alto, estable", "PACiano": "✅✅ (precisión muy alta)", "Cloro": 275.0, "Turb": 65.9, "MON": 0.689, "B5": 0.082, "E. Trofico": "Hipereutrofico", "A. Turb": "Alta", "A. MON": "Media" }, "geometry": { "type": "Point", "coordinates": [ -58.017978, -35.582747 ] } },
{ "type": "Feature", "properties": { "MUNICIPIO": "Chascomús", "PUNTO": "Laguna de Chascomús-Puerto Aventur (Chas 2)", "NOMBRE": null, "Alerta": 3, "S2 Fecha": "22/08/2026", "S3 Fecha": "24/08/2026", "Fecha": "24/08/2026", "Dinamica": null, "info": "Alerta naranja, riesgo moderado a alto, estable", "PACiano": "✅✅ (precisión muy alta)", "Cloro": 305.7, "Turb": 65.3, "MON": 0.874, "B5": 0.077, "E. Trofico": "Hipereutrofico", "A. Turb": "Alta", "A. MON": "Alta" }, "geometry": { "type": "Point", "coordinates": [ -58.003828, -35.584567 ] } },
{ "type": "Feature", "properties": { "MUNICIPIO": "Chivilcoy", "PUNTO": "Parque Lagunario Martija Camping", "NOMBRE": null, "Alerta": null, "S2 Fecha": "23/08/2026", "S3 Fecha": "24/08/2026", "Fecha": "24/08/2026", "Dinamica": null, "info": "SIN DATOS", "PACiano": "❓ no se estima", "Cloro": null, "Turb": null, "MON": null, "B5": null, "E. Trofico": "sin datos", "A. Turb": "sin datos", "A. MON": "sin datos" }, "geometry": { "type": "Point", "coordinates": [ -60.103806, -34.837361 ] } },
{ "type": "Feature", "properties": { "MUNICIPIO": "Chivilcoy", "PUNTO": "Zona de recreo", "NOMBRE": "Municipio de Chivilcoy  (Cuenca Río Salado)", "Alerta": null, "S2 Fecha": "23/08/2026", "S3 Fecha": "24/08/2026", "Fecha": "24/08/2026", "Dinamica": null, "info": "SIN DATOS", "PACiano": "❓ no se estima", "Cloro": null, "Turb": null, "MON": null, "B5": null, "E. Trofico": "sin datos", "A. Turb": "sin datos", "A. MON": "sin datos" }, "geometry": { "type": "Point", "coordinates": [ -59.955694, -35.12475 ] } },
{ "type": "Feature", "properties": { "MUNICIPIO": "Colon", "PUNTO": "Lago Municipal de Colon- Compuerta 1", "NOMBRE": null, "Alerta": 4, "S2 Fecha": "23/08/2026", "S3 Fecha": "24/08/2026", "Fecha": "24/08/2026", "Dinamica": null, "info": "Alerta roja, riesgo alto, estable", "PACiano": "❓ no se estima", "Cloro": 431.5, "Turb": 62.2, "MON": 1.155, "B5": 0.065, "E. Trofico": "Hipereutrofico", "A. Turb": "Alta", "A. MON": "Muy Alta" }, "geometry": { "type": "Point", "coordinates": [ -61.108333, -33.913056 ] } },
{ "type": "Feature", "properties": { "MUNICIPIO": "Colon", "PUNTO": "Lago Municipal de Colon- Compuerta 2", "NOMBRE": null, "Alerta": 4, "S2 Fecha": "23/08/2026", "S3 Fecha": "24/08/2026", "Fecha": "24/08/2026", "Dinamica": null, "info": "Alerta roja, riesgo alto, estable", "PACiano": "❓ no se estima", "Cloro": 554.7, "Turb": 62.5, "MON": 1.311, "B5": 0.062, "E. Trofico": "Hipereutrofico", "A. Turb": "Alta", "A. MON": "Muy Alta" }, "geometry": { "type": "Point", "coordinates": [ -61.09675, -33.922278 ] } },
{ "type": "Feature", "properties": { "MUNICIPIO": "Coronel Pringles", "PUNTO": "Dique Paso de las Piedras", "NOMBRE": "Dique Paso de las Piedras", "Alerta": null, "S2 Fecha": "18/08/2026", "S3 Fecha": "24/08/2026", "Fecha": "24/08/2026", "Dinamica": null, "info": "SIN DATOS", "PACiano": "❓ no se estima", "Cloro": null, "Turb": null, "MON": null, "B5": null, "E. Trofico": "sin datos", "A. Turb": "sin datos", "A. MON": "sin datos" }, "geometry": { "type": "Point", "coordinates": [ -61.756389, -38.356694 ] } },
{ "type": "Feature", "properties": { "MUNICIPIO": "Daireux", "PUNTO": "Laguna de Juancho", "NOMBRE": null, "Alerta": 3, "S2 Fecha": "23/08/2026", "S3 Fecha": "24/08/2026", "Fecha": "24/08/2026", "Dinamica": null, "info": "Alerta naranja, riesgo moderado a alto, en aumento", "PACiano": "✅✅ (precisión muy alta)", "Cloro": 297.5, "Turb": 54.8, "MON": 0.703, "B5": 0.048, "E. Trofico": "Hipereutrofico", "A. Turb": "Alta", "A. MON": "Baja" }, "geometry": { "type": "Point", "coordinates": [ -61.55107271, -36.70959092 ] } },
{ "type": "Feature", "properties": { "MUNICIPIO": "Ensenada", "PUNTO": "La Pergola", "NOMBRE": null, "Alerta": 1, "S2 Fecha": "22/08/2026", "S3 Fecha": "24/08/2026", "Fecha": "24/08/2026", "Dinamica": null, "info": "Alerta verde, riesgo nulo a bajo y estable", "PACiano": "✅✅ (precisión muy alta)", "Cloro": 2.3, "Turb": 75.1, "MON": 0.616, "B5": 0.087, "E. Trofico": "oligotrofico", "A. Turb": "Muy alta", "A. MON": "Media" }, "geometry": { "type": "Point", "coordinates": [ -57.982917, -34.805917 ] } },
{ "type": "Feature", "properties": { "MUNICIPIO": "Ensenada", "PUNTO": "Parador 4", "NOMBRE": null, "Alerta": 1, "S2 Fecha": "22/08/2026", "S3 Fecha": "24/08/2026", "Fecha": "24/08/2026", "Dinamica": null, "info": "Alerta verde, riesgo nulo a bajo y estable", "PACiano": "✅✅ (precisión muy alta)", "Cloro": 2.2, "Turb": 77.2, "MON": 0.589, "B5": 0.091, "E. Trofico": "oligotrofico", "A. Turb": "Muy alta", "A. MON": "Media" }, "geometry": { "type": "Point", "coordinates": [ -57.950083, -34.829278 ] } },
{ "type": "Feature", "properties": { "MUNICIPIO": "Ensenada", "PUNTO": "Club de Pesca/ TOMA DE ABSA/ El Espigón", "NOMBRE": null, "Alerta": 1, "S2 Fecha": "22/08/2026", "S3 Fecha": "24/08/2026", "Fecha": "24/08/2026", "Dinamica": null, "info": "Alerta verde, riesgo nulo a bajo y estable", "PACiano": "✅✅ (precisión muy alta)", "Cloro": 2.5, "Turb": 75.8, "MON": 0.581, "B5": 0.091, "E. Trofico": "oligotrofico", "A. Turb": "Muy alta", "A. MON": "Media" }, "geometry": { "type": "Point", "coordinates": [ -57.945578, -34.828122 ] } },
{ "type": "Feature", "properties": { "MUNICIPIO": "Ensenada", "PUNTO": "Rio Santiago", "NOMBRE": null, "Alerta": 1, "S2 Fecha": "22/08/2026", "S3 Fecha": "24/08/2026", "Fecha": "24/08/2026", "Dinamica": null, "info": "Alerta verde, riesgo nulo a bajo y estable", "PACiano": "✅✅ (precisión muy alta)", "Cloro": 1.7, "Turb": 61.0, "MON": 0.621, "B5": 0.073, "E. Trofico": "oligotrofico", "A. Turb": "Alta", "A. MON": "Media" }, "geometry": { "type": "Point", "coordinates": [ -57.880278, -34.833917 ] } },
{ "type": "Feature", "properties": { "MUNICIPIO": "Ensenada", "PUNTO": "Club Regatas", "NOMBRE": null, "Alerta": 1, "S2 Fecha": "22/08/2026", "S3 Fecha": "24/08/2026", "Fecha": "24/08/2026", "Dinamica": null, "info": "Alerta verde, riesgo nulo a bajo y estable", "PACiano": "❓ no se estima", "Cloro": 15.8, "Turb": 23.2, "MON": 0.401, "B5": 0.055, "E. Trofico": "Mesotrofico", "A. Turb": "Baja", "A. MON": "Baja" }, "geometry": { "type": "Point", "coordinates": [ -57.918583, -34.840444 ] } },
{ "type": "Feature", "properties": { "MUNICIPIO": "Ensenada", "PUNTO": "Delta Canal Santiago", "NOMBRE": null, "Alerta": 1, "S2 Fecha": "22/08/2026", "S3 Fecha": "24/08/2026", "Fecha": "24/08/2026", "Dinamica": null, "info": "Alerta verde, riesgo nulo a bajo y estable", "PACiano": "✅✅ (precisión muy alta)", "Cloro": 12.0, "Turb": 26.2, "MON": 0.392, "B5": 0.062, "E. Trofico": "oligotrofico", "A. Turb": "Baja", "A. MON": "Baja" }, "geometry": { "type": "Point", "coordinates": [ -57.890056, -34.851806 ] } },
{ "type": "Feature", "properties": { "MUNICIPIO": "General Belgrano", "PUNTO": "Ruta 3 Gral Belgrano. Municipio General Belgrano (Cuenca Río Salado)", "NOMBRE": "Ruta 3 Gral Belgrano. Municipio General Belgrano (Cuenca Río Salado)", "Alerta": null, "S2 Fecha": null, "S3 Fecha": "24/08/2026", "Fecha": "24/08/2026", "Dinamica": null, "info": "SIN DATOS", "PACiano": "❓ no se estima", "Cloro": null, "Turb": null, "MON": null, "B5": null, "E. Trofico": "sin datos", "A. Turb": "sin datos", "A. MON": "sin datos" }, "geometry": { "type": "Point", "coordinates": [ -58.849917, -35.650194 ] } },
{ "type": "Feature", "properties": { "MUNICIPIO": "General Belgrano", "PUNTO": "Camping General Belgrano", "NOMBRE": null, "Alerta": null, "S2 Fecha": "22/08/2026", "S3 Fecha": "24/08/2026", "Fecha": "24/08/2026", "Dinamica": null, "info": "SIN DATOS", "PACiano": "❓ no se estima", "Cloro": null, "Turb": null, "MON": null, "B5": null, "E. Trofico": "sin datos", "A. Turb": "sin datos", "A. MON": "sin datos" }, "geometry": { "type": "Point", "coordinates": [ -58.496611, -35.748472 ] } },
{ "type": "Feature", "properties": { "MUNICIPIO": "General Paz", "PUNTO": "Laguna de Ranchos", "NOMBRE": "Laguna de Ranchos, Ranchos, Provincia de Buenos Aires, Argentina", "Alerta": null, "S2 Fecha": "22/08/2026", "S3 Fecha": "24/08/2026", "Fecha": "24/08/2026", "Dinamica": null, "info": "SIN DATOS", "PACiano": "❓ no se estima", "Cloro": null, "Turb": null, "MON": null, "B5": null, "E. Trofico": "sin datos", "A. Turb": "sin datos", "A. MON": "sin datos" }, "geometry": { "type": "Point", "coordinates": [ -58.325833, -35.508333 ] } },
{ "type": "Feature", "properties": { "MUNICIPIO": "General Pueyrredon", "PUNTO": "Laguna Sierra de los Padres", "NOMBRE": "Laguna sierra de los padres, Mar del Plata, Provincia de Buenos Aires, Argentina", "Alerta": 1, "S2 Fecha": "22/08/2026", "S3 Fecha": "24/08/2026", "Fecha": "24/08/2026", "Dinamica": null, "info": "Alerta verde, riesgo nulo a bajo pero en aumento", "PACiano": "✅✅ (precisión muy alta)", "Cloro": 35.9, "Turb": 23.8, "MON": 1.72, "B5": 0.025, "E. Trofico": "Mesotrofico", "A. Turb": "Baja", "A. MON": "Alta" }, "geometry": { "type": "Point", "coordinates": [ -57.727139, -37.942806 ] } },
{ "type": "Feature", "properties": { "MUNICIPIO": "General Pueyrredon", "PUNTO": "Laguna de Los Padres. Punto: Compuerta Arroyo LaTapera", "NOMBRE": null, "Alerta": 1, "S2 Fecha": "22/08/2026", "S3 Fecha": "24/08/2026", "Fecha": "24/08/2026", "Dinamica": null, "info": "Alerta verde, riesgo nulo a bajo pero en aumento", "PACiano": "✅ (precisión alta)", "Cloro": 30.3, "Turb": 25.5, "MON": 1.002, "B5": 0.033, "E. Trofico": "Mesotrofico", "A. Turb": "Baja", "A. MON": "Media" }, "geometry": { "type": "Point", "coordinates": [ -57.722861, -37.9345 ] } },
{ "type": "Feature", "properties": { "MUNICIPIO": "General Pueyrredon", "PUNTO": "Laguna de Los Padres: Cabecera de Pista Norte", "NOMBRE": null, "Alerta": 2, "S2 Fecha": "22/08/2026", "S3 Fecha": "24/08/2026", "Fecha": "24/08/2026", "Dinamica": null, "info": "Alerta amarillo, riesgo bajo a moderado, en aumento", "PACiano": "✅✅ (precisión muy alta)", "Cloro": 38.9, "Turb": 25.8, "MON": 1.769, "B5": 0.025, "E. Trofico": "Mesotrofico", "A. Turb": "Baja", "A. MON": "Alta" }, "geometry": { "type": "Point", "coordinates": [ -57.736306, -37.929139 ] } },
{ "type": "Feature", "properties": { "MUNICIPIO": "General Pueyrredon", "PUNTO": "Laguna de Los Padres: Centro de Actividades Nauticas.", "NOMBRE": null, "Alerta": 2, "S2 Fecha": "22/08/2026", "S3 Fecha": "24/08/2026", "Fecha": "24/08/2026", "Dinamica": null, "info": "Alerta amarillo, riesgo bajo a moderado, estable", "PACiano": "❓ no se estima", "Cloro": 73.7, "Turb": 21.5, "MON": 1.968, "B5": 0.025, "E. Trofico": "Eutrofico", "A. Turb": "Baja", "A. MON": "Alta" }, "geometry": { "type": "Point", "coordinates": [ -57.7265, -37.942722 ] } },
{ "type": "Feature", "properties": { "MUNICIPIO": "General Madariaga", "PUNTO": "Laguna La Larga", "NOMBRE": "Laguna La Larga, General Juan Madariaga, Provincia de Buenos Aires, Argentina", "Alerta": 1, "S2 Fecha": "22/08/2026", "S3 Fecha": "24/08/2026", "Fecha": "24/08/2026", "Dinamica": null, "info": "Alerta verde, riesgo nulo a bajo y estable", "PACiano": "❓ no se estima", "Cloro": 13.0, "Turb": 43.7, "MON": 1.074, "B5": 0.045, "E. Trofico": "oligotrofico", "A. Turb": "Media", "A. MON": "Media" }, "geometry": { "type": "Point", "coordinates": [ -57.110417, -36.9495 ] } },
{ "type": "Feature", "properties": { "MUNICIPIO": "General Madariaga", "PUNTO": "Laguna El Carbón", "NOMBRE": "Laguna El Carbón, General Juan Madariaga, Provincia de Buenos Aires, Argentina", "Alerta": 1, "S2 Fecha": "22/08/2026", "S3 Fecha": "24/08/2026", "Fecha": "24/08/2026", "Dinamica": null, "info": "Alerta verde, riesgo nulo a bajo pero en aumento", "PACiano": "✅✅ (precisión muy alta)", "Cloro": 14.7, "Turb": 29.1, "MON": 0.36, "B5": 0.089, "E. Trofico": "oligotrofico", "A. Turb": "Media", "A. MON": "Baja" }, "geometry": { "type": "Point", "coordinates": [ -57.079583, -36.950556 ] } },
{ "type": "Feature", "properties": { "MUNICIPIO": "General Madariaga", "PUNTO": "Laguna los Horcones", "NOMBRE": "Laguna Los Horcones, Provincia de Buenos Aires, Argentina", "Alerta": 1, "S2 Fecha": "22/08/2026", "S3 Fecha": "24/08/2026", "Fecha": "24/08/2026", "Dinamica": null, "info": "Alerta verde, riesgo nulo a bajo y estable", "PACiano": "✅✅ (precisión muy alta)", "Cloro": 10.9, "Turb": 27.9, "MON": 0.26, "B5": 0.1, "E. Trofico": "oligotrofico", "A. Turb": "Baja", "A. MON": "Baja" }, "geometry": { "type": "Point", "coordinates": [ -56.987333, -37.066528 ] } },
{ "type": "Feature", "properties": { "MUNICIPIO": "General Madariaga", "PUNTO": "Laguna La Salada Grande", "NOMBRE": "Reserva natural Laguna Salada Grande, General Juan Madariaga, Provincia de Buenos Aires, Argentina", "Alerta": 3, "S2 Fecha": "22/08/2026", "S3 Fecha": "24/08/2026", "Fecha": "24/08/2026", "Dinamica": null, "info": "Alerta naranja, riesgo moderado a alto, estable", "PACiano": "✅✅ (precisión muy alta)", "Cloro": 113.1, "Turb": 72.8, "MON": 0.202, "B5": 0.166, "E. Trofico": "Eutrofico", "A. Turb": "Alta", "A. MON": "Baja" }, "geometry": { "type": "Point", "coordinates": [ -56.961667, -36.891111 ] } },
{ "type": "Feature", "properties": { "MUNICIPIO": "General Pinto", "PUNTO": "Laguna La Salada", "NOMBRE": "Laguna La Salada, General Pinto, Provincia de Buenos Aires, Argentina", "Alerta": 4, "S2 Fecha": "23/08/2026", "S3 Fecha": "24/08/2026", "Fecha": "24/08/2026", "Dinamica": null, "info": "Alerta roja, riesgo alto, estable", "PACiano": "✅✅ (precisión muy alta)", "Cloro": 674.3, "Turb": 67.5, "MON": 1.241, "B5": 0.077, "E. Trofico": "Hipereutrofico", "A. Turb": "Alta", "A. MON": "Muy Alta" }, "geometry": { "type": "Point", "coordinates": [ -62.211361, -34.739 ] } },
{ "type": "Feature", "properties": { "MUNICIPIO": "Guaminí", "PUNTO": "Laguna del Monte", "NOMBRE": "Laguna del Monte, Guaminí, Provincia de Buenos Aires, Argentina", "Alerta": 1, "S2 Fecha": "23/08/2026", "S3 Fecha": "24/08/2026", "Fecha": "24/08/2026", "Dinamica": null, "info": "Alerta verde, riesgo nulo a bajo y estable", "PACiano": "✅✅ (precisión muy alta)", "Cloro": 2.1, "Turb": 7.4, "MON": 0.693, "B5": 0.013, "E. Trofico": "oligotrofico", "A. Turb": "Baja", "A. MON": "Baja" }, "geometry": { "type": "Point", "coordinates": [ -62.476722, -37.020806 ] } },
{ "type": "Feature", "properties": { "MUNICIPIO": "Guaminí", "PUNTO": "Laguna Cochicó", "NOMBRE": "Laguna Cochico, Guaminí, Provincia de Buenos Aires, Argentina", "Alerta": 1, "S2 Fecha": "23/08/2026", "S3 Fecha": "24/08/2026", "Fecha": "24/08/2026", "Dinamica": null, "info": "Alerta verde, riesgo nulo a bajo y estable", "PACiano": "✅✅ (precisión muy alta)", "Cloro": 30.3, "Turb": 13.2, "MON": 0.487, "B5": 0.051, "E. Trofico": "Mesotrofico", "A. Turb": "Baja", "A. MON": "Baja" }, "geometry": { "type": "Point", "coordinates": [ -62.314556, -36.944972 ] } },
{ "type": "Feature", "properties": { "MUNICIPIO": "Junín", "PUNTO": "Laguna de Gómez- Espigon 1", "NOMBRE": "Laguna de Gómez, Provincia de Buenos Aires, Argentina", "Alerta": 4, "S2 Fecha": "23/08/2026", "S3 Fecha": "24/08/2026", "Fecha": "24/08/2026", "Dinamica": null, "info": "Alerta roja, riesgo alto, en disminución", "PACiano": "✅✅ (precisión muy alta)", "Cloro": 337.7, "Turb": 64.3, "MON": 0.706, "B5": 0.074, "E. Trofico": "Hipereutrofico", "A. Turb": "Alta", "A. MON": "Alta" }, "geometry": { "type": "Point", "coordinates": [ -61.023583, -34.660444 ] } },
{ "type": "Feature", "properties": { "MUNICIPIO": "Junín", "PUNTO": "laguna de Gomez, museo Mumpa", "NOMBRE": null, "Alerta": 4, "S2 Fecha": "23/08/2026", "S3 Fecha": "24/08/2026", "Fecha": "24/08/2026", "Dinamica": null, "info": "Alerta roja, riesgo alto, en disminución", "PACiano": "✅✅ (precisión muy alta)", "Cloro": 382.7, "Turb": 65.0, "MON": 0.792, "B5": 0.069, "E. Trofico": "Hipereutrofico", "A. Turb": "Alta", "A. MON": "Alta" }, "geometry": { "type": "Point", "coordinates": [ -61.019389, -34.663417 ] } },
{ "type": "Feature", "properties": { "MUNICIPIO": "Junín", "PUNTO": "laguna de gomez, alquiler kayak", "NOMBRE": null, "Alerta": 4, "S2 Fecha": "23/08/2026", "S3 Fecha": "24/08/2026", "Fecha": "24/08/2026", "Dinamica": null, "info": "Alerta roja, riesgo alto, en disminución", "PACiano": "✅✅ (precisión muy alta)", "Cloro": 354.9, "Turb": 65.3, "MON": 0.793, "B5": 0.07, "E. Trofico": "Hipereutrofico", "A. Turb": "Alta", "A. MON": "Alta" }, "geometry": { "type": "Point", "coordinates": [ -61.027583, -34.659611 ] } },
{ "type": "Feature", "properties": { "MUNICIPIO": "La Plata", "PUNTO": "Lago del Bosque", "NOMBRE": "Lago del Bosque, Avenida Iraola, La Plata, Provincia de Buenos Aires, Argentina", "Alerta": 1, "S2 Fecha": "22/08/2026", "S3 Fecha": "24/08/2026", "Fecha": "24/08/2026", "Dinamica": null, "info": "Alerta verde, riesgo nulo a bajo y estable", "PACiano": "❓ no se estima", "Cloro": 10.6, "Turb": 6.9, "MON": 0.704, "B5": 0.027, "E. Trofico": "oligotrofico", "A. Turb": "Baja", "A. MON": "Baja" }, "geometry": { "type": "Point", "coordinates": [ -57.938028, -34.91025 ] } },
{ "type": "Feature", "properties": { "MUNICIPIO": "La Plata", "PUNTO": "Lago Rep. de Los Niños", "NOMBRE": "República de los Niños, Camino General Manuel Belgrano, Gonnet, Provincia de Buenos Aires, Argentina", "Alerta": null, "S2 Fecha": "22/08/2026", "S3 Fecha": "24/08/2026", "Fecha": "24/08/2026", "Dinamica": null, "info": "SIN DATOS", "PACiano": "❓ no se estima", "Cloro": null, "Turb": null, "MON": null, "B5": null, "E. Trofico": "sin datos", "A. Turb": "sin datos", "A. MON": "sin datos" }, "geometry": { "type": "Point", "coordinates": [ -58.017611, -34.882361 ] } },
{ "type": "Feature", "properties": { "MUNICIPIO": "La Plata", "PUNTO": "Laguna Parque Saavedra", "NOMBRE": "Parque Saavedra, La Plata, Provincia de Buenos Aires, Argentina", "Alerta": null, "S2 Fecha": "22/08/2026", "S3 Fecha": "24/08/2026", "Fecha": "24/08/2026", "Dinamica": null, "info": "SIN DATOS", "PACiano": "❓ no se estima", "Cloro": null, "Turb": null, "MON": null, "B5": null, "E. Trofico": "sin datos", "A. Turb": "sin datos", "A. MON": "sin datos" }, "geometry": { "type": "Point", "coordinates": [ -57.9415, -34.930667 ] } },
{ "type": "Feature", "properties": { "MUNICIPIO": "Laprida", "PUNTO": "Laguna del Paraíso", "NOMBRE": "Laguna del Paraiso, Laprida, Provincia de Buenos Aires, Argentina", "Alerta": 1, "S2 Fecha": "20/08/2026", "S3 Fecha": "24/08/2026", "Fecha": "24/08/2026", "Dinamica": null, "info": "Alerta verde, riesgo nulo a bajo, se detectan plantas acuáticas", "PACiano": "✅✅ (precisión muy alta)", "Cloro": 101.8, "Turb": 23.5, "MON": 9.85, "B5": 0.025, "E. Trofico": "Eutrofico", "A. Turb": "Baja", "A. MON": "Muy Alta" }, "geometry": { "type": "Point", "coordinates": [ -60.800972, -37.56775 ] } },
{ "type": "Feature", "properties": { "MUNICIPIO": "Las Flores", "PUNTO": "Laguna del Difunto Manuel", "NOMBRE": "Laguna del Difunto Manuel, Las Flores, Provincia de Buenos Aires, Argentina", "Alerta": null, "S2 Fecha": null, "S3 Fecha": "24/08/2026", "Fecha": "24/08/2026", "Dinamica": null, "info": "SIN DATOS", "PACiano": "❓ no se estima", "Cloro": null, "Turb": null, "MON": null, "B5": null, "E. Trofico": "sin datos", "A. Turb": "sin datos", "A. MON": "sin datos" }, "geometry": { "type": "Point", "coordinates": [ -59.0755, -36.009417 ] } },
{ "type": "Feature", "properties": { "MUNICIPIO": "Lezama", "PUNTO": "Laguna Chis Chis", "NOMBRE": "Laguna Chis Chis, Provincia de Buenos Aires, Argentina", "Alerta": 4, "S2 Fecha": "22/08/2026", "S3 Fecha": "24/08/2026", "Fecha": "24/08/2026", "Dinamica": null, "info": "Alerta roja, riesgo alto, estable", "PACiano": "✅✅ (precisión muy alta)", "Cloro": 452.8, "Turb": 84.8, "MON": 0.699, "B5": 0.117, "E. Trofico": "Hipereutrofico", "A. Turb": "Muy alta", "A. MON": "Media" }, "geometry": { "type": "Point", "coordinates": [ -57.938222, -35.756222 ] } },
{ "type": "Feature", "properties": { "MUNICIPIO": "Lezama", "PUNTO": "Laguna Tablillas", "NOMBRE": "Laguna la Tablilla, Provincia de Buenos Aires, Argentina", "Alerta": 4, "S2 Fecha": "22/08/2026", "S3 Fecha": "24/08/2026", "Fecha": "24/08/2026", "Dinamica": null, "info": "Alerta roja, riesgo alto, estable", "PACiano": "✅✅ (precisión muy alta)", "Cloro": 548.8, "Turb": 83.1, "MON": 0.85, "B5": 0.112, "E. Trofico": "Hipereutrofico", "A. Turb": "Muy alta", "A. MON": "Alta" }, "geometry": { "type": "Point", "coordinates": [ -58.046417, -35.808111 ] } },
{ "type": "Feature", "properties": { "MUNICIPIO": "Lezama", "PUNTO": "Laguna Las Barrancas", "NOMBRE": "Laguna las Barrancas, Provincia de Buenos Aires, Argentina", "Alerta": 4, "S2 Fecha": "22/08/2026", "S3 Fecha": "24/08/2026", "Fecha": "24/08/2026", "Dinamica": null, "info": "Alerta roja, riesgo alto, estable", "PACiano": "✅✅ (precisión muy alta)", "Cloro": 326.8, "Turb": 74.9, "MON": 0.595, "B5": 0.101, "E. Trofico": "Hipereutrofico", "A. Turb": "Alta", "A. MON": "Media" }, "geometry": { "type": "Point", "coordinates": [ -58.043944, -35.907111 ] } },
{ "type": "Feature", "properties": { "MUNICIPIO": "Lobos", "PUNTO": "Laguna de Lobos", "NOMBRE": "Laguna de Lobos, Provincia de Buenos Aires, Argentina", "Alerta": 1, "S2 Fecha": null, "S3 Fecha": "24/08/2026", "Fecha": "24/08/2026", "Dinamica": null, "info": "Alerta verde, riesgo nulo a bajo, se detectan plantas acuáticas", "PACiano": "❓ no se estima", "Cloro": null, "Turb": null, "MON": null, "B5": null, "E. Trofico": "sin datos", "A. Turb": "sin datos", "A. MON": "sin datos" }, "geometry": { "type": "Point", "coordinates": [ -59.12925, -35.275611 ] } },
{ "type": "Feature", "properties": { "MUNICIPIO": "Lujan", "PUNTO": "Club Nautico", "NOMBRE": "Club Náutico el Timón, Jáuregui, Luján, Provincia de Buenos Aires", "Alerta": null, "S2 Fecha": null, "S3 Fecha": "24/08/2026", "Fecha": "24/08/2026", "Dinamica": null, "info": "SIN DATOS", "PACiano": "❓ no se estima", "Cloro": null, "Turb": null, "MON": null, "B5": null, "E. Trofico": "sin datos", "A. Turb": "sin datos", "A. MON": "sin datos" }, "geometry": { "type": "Point", "coordinates": [ -59.195639, -34.593889 ] } },
{ "type": "Feature", "properties": { "MUNICIPIO": "Lujan", "PUNTO": "RN QUINTA CIGORDIA", "NOMBRE": "Reserva Natural Quinta Cigordia", "Alerta": null, "S2 Fecha": null, "S3 Fecha": "24/08/2026", "Fecha": "24/08/2026", "Dinamica": null, "info": "SIN DATOS", "PACiano": "❓ no se estima", "Cloro": null, "Turb": null, "MON": null, "B5": null, "E. Trofico": "sin datos", "A. Turb": "sin datos", "A. MON": "sin datos" }, "geometry": { "type": "Point", "coordinates": [ -59.133314, -34.577689 ] } },
{ "type": "Feature", "properties": { "MUNICIPIO": "Magdalena", "PUNTO": "Balneario Magdalena", "NOMBRE": "Club de Nautica y Pesca de Magdalena, Balneario, Magdalena, Provincia de Buenos Aires, Argentina", "Alerta": 1, "S2 Fecha": "22/08/2026", "S3 Fecha": "24/08/2026", "Fecha": "24/08/2026", "Dinamica": null, "info": "Alerta verde, riesgo nulo a bajo y estable", "PACiano": "✅✅ (precisión muy alta)", "Cloro": 15.3, "Turb": 33.7, "MON": 0.279, "B5": 0.126, "E. Trofico": "Mesotrofico", "A. Turb": "Media", "A. MON": "Baja" }, "geometry": { "type": "Point", "coordinates": [ -57.505556, -35.03075 ] } },
{ "type": "Feature", "properties": { "MUNICIPIO": "Magdalena", "PUNTO": "Balneario Atalaya", "NOMBRE": null, "Alerta": 1, "S2 Fecha": "22/08/2026", "S3 Fecha": "24/08/2026", "Fecha": "24/08/2026", "Dinamica": null, "info": "Alerta verde, riesgo nulo a bajo y estable", "PACiano": "✅✅ (precisión muy alta)", "Cloro": 7.4, "Turb": 94.3, "MON": 0.61, "B5": 0.104, "E. Trofico": "oligotrofico", "A. Turb": "Muy alta", "A. MON": "Media" }, "geometry": { "type": "Point", "coordinates": [ -57.534056, -35.013917 ] } },
{ "type": "Feature", "properties": { "MUNICIPIO": "Mercedes", "PUNTO": "Parque Municipal Independencia", "NOMBRE": "Parque Municipal Independencia, Mercedes, Provincia de Buenos Aires, Argentina", "Alerta": null, "S2 Fecha": null, "S3 Fecha": "24/08/2026", "Fecha": "24/08/2026", "Dinamica": null, "info": "SIN DATOS", "PACiano": "❓ no se estima", "Cloro": null, "Turb": null, "MON": null, "B5": null, "E. Trofico": "sin datos", "A. Turb": "sin datos", "A. MON": "sin datos" }, "geometry": { "type": "Point", "coordinates": [ -59.437389, -34.634278 ] } },
{ "type": "Feature", "properties": { "MUNICIPIO": "Mercedes", "PUNTO": "Arroyo Balta", "NOMBRE": null, "Alerta": null, "S2 Fecha": null, "S3 Fecha": "24/08/2026", "Fecha": "24/08/2026", "Dinamica": null, "info": "SIN DATOS", "PACiano": "❓ no se estima", "Cloro": null, "Turb": null, "MON": null, "B5": null, "E. Trofico": "sin datos", "A. Turb": "sin datos", "A. MON": "sin datos" }, "geometry": { "type": "Point", "coordinates": [ -59.300167, -34.645556 ] } },
{ "type": "Feature", "properties": { "MUNICIPIO": "Mercedes", "PUNTO": "Laguna Gliptodontes", "NOMBRE": null, "Alerta": null, "S2 Fecha": null, "S3 Fecha": "24/08/2026", "Fecha": "24/08/2026", "Dinamica": null, "info": "SIN DATOS", "PACiano": "❓ no se estima", "Cloro": null, "Turb": null, "MON": null, "B5": null, "E. Trofico": "sin datos", "A. Turb": "sin datos", "A. MON": "sin datos" }, "geometry": { "type": "Point", "coordinates": [ -59.300472, -34.644444 ] } },
{ "type": "Feature", "properties": { "MUNICIPIO": "Mercedes", "PUNTO": "Laguna de las Gallaretas", "NOMBRE": null, "Alerta": null, "S2 Fecha": null, "S3 Fecha": "24/08/2026", "Fecha": "24/08/2026", "Dinamica": null, "info": "SIN DATOS", "PACiano": "❓ no se estima", "Cloro": null, "Turb": null, "MON": null, "B5": null, "E. Trofico": "sin datos", "A. Turb": "sin datos", "A. MON": "sin datos" }, "geometry": { "type": "Point", "coordinates": [ -59.301556, -34.642917 ] } },
{ "type": "Feature", "properties": { "MUNICIPIO": "Monte Hermoso", "PUNTO": "Laguna Sauce Grande", "NOMBRE": "Laguna Sauce Grande, Provincia de Buenos Aires, Argentina", "Alerta": 3, "S2 Fecha": "18/08/2026", "S3 Fecha": "24/08/2026", "Fecha": "24/08/2026", "Dinamica": null, "info": "Alerta naranja, riesgo moderado a alto, estable", "PACiano": "✅✅ (precisión muy alta)", "Cloro": 207.3, "Turb": 71.5, "MON": 0.486, "B5": 0.112, "E. Trofico": "Eutrofico", "A. Turb": "Alta", "A. MON": "Baja" }, "geometry": { "type": "Point", "coordinates": [ -61.383083, -38.934333 ] } },
{ "type": "Feature", "properties": { "MUNICIPIO": "Navarro", "PUNTO": "Club de Pesca", "NOMBRE": "Laguna de Navarro, Provincia de Buenos Aires, Argentina", "Alerta": null, "S2 Fecha": null, "S3 Fecha": "24/08/2026", "Fecha": "24/08/2026", "Dinamica": null, "info": "SIN DATOS", "PACiano": "❓ no se estima", "Cloro": null, "Turb": null, "MON": null, "B5": null, "E. Trofico": "sin datos", "A. Turb": "sin datos", "A. MON": "sin datos" }, "geometry": { "type": "Point", "coordinates": [ -59.28575, -35.012528 ] } },
{ "type": "Feature", "properties": { "MUNICIPIO": "9 de julio", "PUNTO": "Laguna del Parque Gral San Martín", "NOMBRE": "Parque Gral. San Martin, 9 De Julio, Buenos Aires, 9 de Julio, Provincia de Buenos Aires, Argentina", "Alerta": 1, "S2 Fecha": "23/08/2026", "S3 Fecha": "24/08/2026", "Fecha": "24/08/2026", "Dinamica": null, "info": "Alerta verde, riesgo nulo a bajo, se detectan plantas acuáticas", "PACiano": "❓ no se estima", "Cloro": 384.4, "Turb": 11.6, "MON": 2.705, "B5": 0.025, "E. Trofico": "Hipereutrofico", "A. Turb": "Baja", "A. MON": "Alta" }, "geometry": { "type": "Point", "coordinates": [ -60.876389, -35.439194 ] } },
{ "type": "Feature", "properties": { "MUNICIPIO": "Pehuajó", "PUNTO": "Laguna La Salada", "NOMBRE": "Laguna: La Salada, Pehuajó, Provincia de Buenos Aires, Argentina", "Alerta": 4, "S2 Fecha": "23/08/2026", "S3 Fecha": "24/08/2026", "Fecha": "24/08/2026", "Dinamica": null, "info": "Alerta roja, riesgo alto, estable", "PACiano": "✅✅ (precisión muy alta)", "Cloro": 674.3, "Turb": 67.5, "MON": 1.241, "B5": 0.077, "E. Trofico": "Hipereutrofico", "A. Turb": "Alta", "A. MON": "Muy Alta" }, "geometry": { "type": "Point", "coordinates": [ -61.910389, -35.778139 ] } },
{ "type": "Feature", "properties": { "MUNICIPIO": "Pehuajó", "PUNTO": "Laguna Cañadon", "NOMBRE": "laguna cañadon, Deán Funes, Pehuajó, Provincia de Buenos Aires, Argentina", "Alerta": 1, "S2 Fecha": "23/08/2026", "S3 Fecha": "24/08/2026", "Fecha": "24/08/2026", "Dinamica": null, "info": "Alerta verde, riesgo nulo a bajo y estable", "PACiano": "✅✅ (precisión muy alta)", "Cloro": 3.7, "Turb": 22.8, "MON": 0.57, "B5": 0.038, "E. Trofico": "oligotrofico", "A. Turb": "Baja", "A. MON": "Baja" }, "geometry": { "type": "Point", "coordinates": [ -61.855167, -35.766944 ] } },
{ "type": "Feature", "properties": { "MUNICIPIO": "Quilmes", "PUNTO": "Pejerrey Club", "NOMBRE": "Buffet del Pejerrey Club, Quilmes, Provincia de Buenos Aires, Argentina", "Alerta": 1, "S2 Fecha": null, "S3 Fecha": "24/08/2026", "Fecha": "24/08/2026", "Dinamica": null, "info": "Alerta verde, riesgo nulo a bajo y estable", "PACiano": "❓ no se estima", "Cloro": null, "Turb": null, "MON": null, "B5": null, "E. Trofico": "sin datos", "A. Turb": "sin datos", "A. MON": "sin datos" }, "geometry": { "type": "Point", "coordinates": [ -58.221, -34.708944 ] } },
{ "type": "Feature", "properties": { "MUNICIPIO": "Ramallo", "PUNTO": "Bajada Calle Gomendio", "NOMBRE": null, "Alerta": null, "S2 Fecha": "23/08/2026", "S3 Fecha": "24/08/2026", "Fecha": "24/08/2026", "Dinamica": null, "info": "SIN DATOS", "PACiano": "❓ no se estima", "Cloro": null, "Turb": null, "MON": null, "B5": null, "E. Trofico": "sin datos", "A. Turb": "sin datos", "A. MON": "sin datos" }, "geometry": { "type": "Point", "coordinates": [ -59.994917, -33.48 ] } },
{ "type": "Feature", "properties": { "MUNICIPIO": "Rauch", "PUNTO": "Lago del Balneario", "NOMBRE": "Balneario Municipal", "Alerta": null, "S2 Fecha": null, "S3 Fecha": "24/08/2026", "Fecha": "24/08/2026", "Dinamica": null, "info": "SIN DATOS", "PACiano": "❓ no se estima", "Cloro": null, "Turb": null, "MON": null, "B5": null, "E. Trofico": "sin datos", "A. Turb": "sin datos", "A. MON": "sin datos" }, "geometry": { "type": "Point", "coordinates": [ -59.103861, -36.768417 ] } },
{ "type": "Feature", "properties": { "MUNICIPIO": "Rivadavia", "PUNTO": "Lag Cuero de Zorro", "NOMBRE": null, "Alerta": 1, "S2 Fecha": "23/08/2026", "S3 Fecha": "24/08/2026", "Fecha": "24/08/2026", "Dinamica": null, "info": "Alerta verde, riesgo nulo a bajo pero en aumento", "PACiano": "✅✅ (precisión muy alta)", "Cloro": 159.4, "Turb": 12.7, "MON": 0.625, "B5": 0.05, "E. Trofico": "Eutrofico", "A. Turb": "Baja", "A. MON": "Baja" }, "geometry": { "type": "Point", "coordinates": [ -62.912778, -35.755333 ] } },
{ "type": "Feature", "properties": { "MUNICIPIO": "Roque Pérez", "PUNTO": "Río Salado", "NOMBRE": null, "Alerta": null, "S2 Fecha": null, "S3 Fecha": "24/08/2026", "Fecha": "24/08/2026", "Dinamica": null, "info": "SIN DATOS", "PACiano": "❓ no se estima", "Cloro": null, "Turb": null, "MON": null, "B5": null, "E. Trofico": "sin datos", "A. Turb": "sin datos", "A. MON": "sin datos" }, "geometry": { "type": "Point", "coordinates": [ -59.324083, -35.374833 ] } },
{ "type": "Feature", "properties": { "MUNICIPIO": "San Antonio de Areco", "PUNTO": "Zona Balneario", "NOMBRE": "Balneario San Antonio de Areco, San Antonio de Areco, Provincia de Buenos Aires, Argentina", "Alerta": null, "S2 Fecha": null, "S3 Fecha": "24/08/2026", "Fecha": "24/08/2026", "Dinamica": null, "info": "SIN DATOS", "PACiano": "❓ no se estima", "Cloro": null, "Turb": null, "MON": null, "B5": null, "E. Trofico": "sin datos", "A. Turb": "sin datos", "A. MON": "sin datos" }, "geometry": { "type": "Point", "coordinates": [ -59.476444, -34.240611 ] } },
{ "type": "Feature", "properties": { "MUNICIPIO": "San Antonio de Areco", "PUNTO": "Club de pescadores Areco", "NOMBRE": "club de pescadores, San Antonio de Areco, Provincia de Buenos Aires, Argentina", "Alerta": null, "S2 Fecha": null, "S3 Fecha": "24/08/2026", "Fecha": "24/08/2026", "Dinamica": null, "info": "SIN DATOS", "PACiano": "❓ no se estima", "Cloro": null, "Turb": null, "MON": null, "B5": null, "E. Trofico": "sin datos", "A. Turb": "sin datos", "A. MON": "sin datos" }, "geometry": { "type": "Point", "coordinates": [ -59.49925, -34.240528 ] } },
{ "type": "Feature", "properties": { "MUNICIPIO": "San Fernando", "PUNTO": "Nueva Esperanza", "NOMBRE": "3° Balsa Rio Carabelas, Provincia de Buenos Aires, Argentina", "Alerta": null, "S2 Fecha": null, "S3 Fecha": "24/08/2026", "Fecha": "24/08/2026", "Dinamica": null, "info": "SIN DATOS", "PACiano": "❓ no se estima", "Cloro": null, "Turb": null, "MON": null, "B5": null, "E. Trofico": "sin datos", "A. Turb": "sin datos", "A. MON": "sin datos" }, "geometry": { "type": "Point", "coordinates": [ -58.783194, -34.108083 ] } },
{ "type": "Feature", "properties": { "MUNICIPIO": "San Fernando", "PUNTO": "Arroyo Borches", "NOMBRE": "Destacamento Guardaparques A° Borches, Provincia de Buenos Aires, Argentina", "Alerta": null, "S2 Fecha": null, "S3 Fecha": "24/08/2026", "Fecha": "24/08/2026", "Dinamica": null, "info": "SIN DATOS", "PACiano": "❓ no se estima", "Cloro": null, "Turb": null, "MON": null, "B5": null, "E. Trofico": "sin datos", "A. Turb": "sin datos", "A. MON": "sin datos" }, "geometry": { "type": "Point", "coordinates": [ -58.443278, -34.074917 ] } },
{ "type": "Feature", "properties": { "MUNICIPIO": "San Fernando", "PUNTO": "Parque Nautico", "NOMBRE": "Parque Nautico San Fernando, Victoria, Provincia de Buenos Aires, Argentina", "Alerta": null, "S2 Fecha": null, "S3 Fecha": "24/08/2026", "Fecha": "24/08/2026", "Dinamica": null, "info": "SIN DATOS", "PACiano": "❓ no se estima", "Cloro": null, "Turb": null, "MON": null, "B5": null, "E. Trofico": "sin datos", "A. Turb": "sin datos", "A. MON": "sin datos" }, "geometry": { "type": "Point", "coordinates": [ -58.530556, -34.442528 ] } },
{ "type": "Feature", "properties": { "MUNICIPIO": "SAN ISIDRO", "PUNTO": "ESPIG12", "NOMBRE": "Espigon, San Isidro", "Alerta": 1, "S2 Fecha": null, "S3 Fecha": "24/08/2026", "Fecha": "24/08/2026", "Dinamica": null, "info": "Alerta verde, riesgo nulo a bajo y estable", "PACiano": "❓ no se estima", "Cloro": null, "Turb": null, "MON": null, "B5": null, "E. Trofico": "sin datos", "A. Turb": "sin datos", "A. MON": "sin datos" }, "geometry": { "type": "Point", "coordinates": [ -58.504472, -34.450278 ] } },
{ "type": "Feature", "properties": { "MUNICIPIO": "SAN ISIDRO", "PUNTO": "PACHE2", "NOMBRE": "Pacheco, San Isidro", "Alerta": 1, "S2 Fecha": null, "S3 Fecha": "24/08/2026", "Fecha": "24/08/2026", "Dinamica": null, "info": "Alerta verde, riesgo nulo a bajo y estable", "PACiano": "❓ no se estima", "Cloro": null, "Turb": null, "MON": null, "B5": null, "E. Trofico": "sin datos", "A. Turb": "sin datos", "A. MON": "sin datos" }, "geometry": { "type": "Point", "coordinates": [ -58.479472, -34.484361 ] } },
{ "type": "Feature", "properties": { "MUNICIPIO": "San Miguel del Monte", "PUNTO": "Laguna de Monte", "NOMBRE": "San Miguel del Monte, San Miguel del Monte, Monte, Provincia de Buenos Aires, Argentina", "Alerta": 4, "S2 Fecha": null, "S3 Fecha": "24/08/2026", "Fecha": "24/08/2026", "Dinamica": null, "info": "Alerta roja, riesgo alto, estable", "PACiano": "❓ no se estima", "Cloro": null, "Turb": null, "MON": null, "B5": null, "E. Trofico": "sin datos", "A. Turb": "sin datos", "A. MON": "sin datos" }, "geometry": { "type": "Point", "coordinates": [ -58.805472, -35.461583 ] } },
{ "type": "Feature", "properties": { "MUNICIPIO": "Tapalque", "PUNTO": "Punta Tello sitio 1", "NOMBRE": null, "Alerta": null, "S2 Fecha": "20/08/2026", "S3 Fecha": "24/08/2026", "Fecha": "24/08/2026", "Dinamica": null, "info": "SIN DATOS", "PACiano": "❓ no se estima", "Cloro": null, "Turb": null, "MON": null, "B5": null, "E. Trofico": "sin datos", "A. Turb": "sin datos", "A. MON": "sin datos" }, "geometry": { "type": "Point", "coordinates": [ -60.031889, -36.372889 ] } },
{ "type": "Feature", "properties": { "MUNICIPIO": "Tapalque", "PUNTO": "Balneario sitio 2", "NOMBRE": null, "Alerta": null, "S2 Fecha": "20/08/2026", "S3 Fecha": "24/08/2026", "Fecha": "24/08/2026", "Dinamica": null, "info": "SIN DATOS", "PACiano": "❓ no se estima", "Cloro": null, "Turb": null, "MON": null, "B5": null, "E. Trofico": "sin datos", "A. Turb": "sin datos", "A. MON": "sin datos" }, "geometry": { "type": "Point", "coordinates": [ -60.034861, -36.348417 ] } },
{ "type": "Feature", "properties": { "MUNICIPIO": "Tigre", "PUNTO": "RSARC (Río Sarmiento entre Arroyo Reyes y Curubica)", "NOMBRE": null, "Alerta": null, "S2 Fecha": null, "S3 Fecha": "24/08/2026", "Fecha": "24/08/2026", "Dinamica": null, "info": "SIN DATOS", "PACiano": "❓ no se estima", "Cloro": null, "Turb": null, "MON": null, "B5": null, "E. Trofico": "sin datos", "A. Turb": "sin datos", "A. MON": "sin datos" }, "geometry": { "type": "Point", "coordinates": [ -58.57797, -34.38573 ] } },
{ "type": "Feature", "properties": { "MUNICIPIO": "Tigre", "PUNTO": "RA (Río Anquetera)", "NOMBRE": null, "Alerta": null, "S2 Fecha": null, "S3 Fecha": "24/08/2026", "Fecha": "24/08/2026", "Dinamica": null, "info": "SIN DATOS", "PACiano": "❓ no se estima", "Cloro": null, "Turb": null, "MON": null, "B5": null, "E. Trofico": "sin datos", "A. Turb": "sin datos", "A. MON": "sin datos" }, "geometry": { "type": "Point", "coordinates": [ -58.583167, -34.318306 ] } },
{ "type": "Feature", "properties": { "MUNICIPIO": "Tigre", "PUNTO": "CA (Canal Arias y Río Paraná)", "NOMBRE": null, "Alerta": 1, "S2 Fecha": null, "S3 Fecha": "24/08/2026", "Fecha": "24/08/2026", "Dinamica": null, "info": "Alerta verde, riesgo nulo a bajo, se detectan plantas acuáticas", "PACiano": "❓ no se estima", "Cloro": null, "Turb": null, "MON": null, "B5": null, "E. Trofico": "sin datos", "A. Turb": "sin datos", "A. MON": "sin datos" }, "geometry": { "type": "Point", "coordinates": [ -58.654972, -34.272861 ] } },
{ "type": "Feature", "properties": { "MUNICIPIO": "Tigre", "PUNTO": "RCARA (Río Carapachay)", "NOMBRE": null, "Alerta": null, "S2 Fecha": null, "S3 Fecha": "24/08/2026", "Fecha": "24/08/2026", "Dinamica": null, "info": "SIN DATOS", "PACiano": "❓ no se estima", "Cloro": null, "Turb": null, "MON": null, "B5": null, "E. Trofico": "sin datos", "A. Turb": "sin datos", "A. MON": "sin datos" }, "geometry": { "type": "Point", "coordinates": [ -58.557389, -34.411222 ] } },
{ "type": "Feature", "properties": { "MUNICIPIO": "Tigre", "PUNTO": "AVV (Arroyo Abravieja)", "NOMBRE": null, "Alerta": null, "S2 Fecha": null, "S3 Fecha": "24/08/2026", "Fecha": "24/08/2026", "Dinamica": null, "info": "SIN DATOS", "PACiano": "❓ no se estima", "Cloro": null, "Turb": null, "MON": null, "B5": null, "E. Trofico": "sin datos", "A. Turb": "sin datos", "A. MON": "sin datos" }, "geometry": { "type": "Point", "coordinates": [ -58.558833, -34.382361 ] } },
{ "type": "Feature", "properties": { "MUNICIPIO": "Tigre", "PUNTO": "RSALP (Arroyo La Perla y Río Sarmiento)", "NOMBRE": null, "Alerta": null, "S2 Fecha": null, "S3 Fecha": "24/08/2026", "Fecha": "24/08/2026", "Dinamica": null, "info": "SIN DATOS", "PACiano": "❓ no se estima", "Cloro": null, "Turb": null, "MON": null, "B5": null, "E. Trofico": "sin datos", "A. Turb": "sin datos", "A. MON": "sin datos" }, "geometry": { "type": "Point", "coordinates": [ -58.558833, -34.382361 ] } },
{ "type": "Feature", "properties": { "MUNICIPIO": "Tigre", "PUNTO": "D5 (Arroyo Gelvez)", "NOMBRE": null, "Alerta": null, "S2 Fecha": null, "S3 Fecha": "24/08/2026", "Fecha": "24/08/2026", "Dinamica": null, "info": "SIN DATOS", "PACiano": "❓ no se estima", "Cloro": null, "Turb": null, "MON": null, "B5": null, "E. Trofico": "sin datos", "A. Turb": "sin datos", "A. MON": "sin datos" }, "geometry": { "type": "Point", "coordinates": [ -58.59225, -34.368694 ] } },
{ "type": "Feature", "properties": { "MUNICIPIO": "Tornquist", "PUNTO": "Dique Paso de las Piedras", "NOMBRE": "ZONA  22 (ARROYO Sauce Grande)", "Alerta": null, "S2 Fecha": "18/08/2026", "S3 Fecha": "24/08/2026", "Fecha": "24/08/2026", "Dinamica": null, "info": "SIN DATOS", "PACiano": "❓ no se estima", "Cloro": null, "Turb": null, "MON": null, "B5": null, "E. Trofico": "sin datos", "A. Turb": "sin datos", "A. MON": "sin datos" }, "geometry": { "type": "Point", "coordinates": [ -61.723417, -38.312639 ] } },
{ "type": "Feature", "properties": { "MUNICIPIO": "Tornquist", "PUNTO": "ZONA  21(ARROYO Sauce Grande)", "NOMBRE": "ZONA  21(ARROYO Sauce Grande)", "Alerta": 1, "S2 Fecha": "23/08/2026", "S3 Fecha": "24/08/2026", "Fecha": "24/08/2026", "Dinamica": null, "info": "Alerta verde, riesgo nulo a bajo y estable", "PACiano": "✅✅ (precisión muy alta)", "Cloro": 19.9, "Turb": 18.6, "MON": 0.932, "B5": 0.022, "E. Trofico": "Mesotrofico", "A. Turb": "Baja", "A. MON": "Media" }, "geometry": { "type": "Point", "coordinates": [ -61.736444, -38.336694 ] } },
{ "type": "Feature", "properties": { "MUNICIPIO": "Tornquist", "PUNTO": "ZONA  1 (ARROYO Sauce Grande)", "NOMBRE": "ZONA  1 (ARROYO Sauce Grande)", "Alerta": null, "S2 Fecha": "18/08/2026", "S3 Fecha": "24/08/2026", "Fecha": "24/08/2026", "Dinamica": null, "info": "SIN DATOS", "PACiano": "❓ no se estima", "Cloro": null, "Turb": null, "MON": null, "B5": null, "E. Trofico": "sin datos", "A. Turb": "sin datos", "A. MON": "sin datos" }, "geometry": { "type": "Point", "coordinates": [ -61.723167, -38.31675 ] } },
{ "type": "Feature", "properties": { "MUNICIPIO": "Tornquist", "PUNTO": "ZONA DE PESCA sector 2", "NOMBRE": "ZONA DE PESCA sector 2", "Alerta": 1, "S2 Fecha": "23/08/2026", "S3 Fecha": "24/08/2026", "Fecha": "24/08/2026", "Dinamica": null, "info": "Alerta verde, riesgo nulo a bajo pero en aumento", "PACiano": "✅✅ (precisión muy alta)", "Cloro": 56.0, "Turb": 15.8, "MON": 1.067, "B5": 0.025, "E. Trofico": "Eutrofico", "A. Turb": "Baja", "A. MON": "Media" }, "geometry": { "type": "Point", "coordinates": [ -61.737472, -38.348556 ] } },
{ "type": "Feature", "properties": { "MUNICIPIO": "Trenque Lauquen", "PUNTO": "Laguna Hinojo", "NOMBRE": "Laguna Hinojo, Trenque Lauquen, Provincia de Buenos Aires, Argentina", "Alerta": 4, "S2 Fecha": "23/08/2026", "S3 Fecha": "24/08/2026", "Fecha": "24/08/2026", "Dinamica": null, "info": "Alerta roja, riesgo alto, estable", "PACiano": "✅✅ (precisión muy alta)", "Cloro": 510.1, "Turb": 69.0, "MON": 0.755, "B5": 0.083, "E. Trofico": "Hipereutrofico", "A. Turb": "Alta", "A. MON": "Alta" }, "geometry": { "type": "Point", "coordinates": [ -62.479306, -35.906444 ] } },
{ "type": "Feature", "properties": { "MUNICIPIO": "Veinticinco de Mayo", "PUNTO": "Laguna Las Mulitas", "NOMBRE": "Laguna Las Mulitas, 25 de Mayo, Provincia de Buenos Aires, Argentina", "Alerta": null, "S2 Fecha": null, "S3 Fecha": "24/08/2026", "Fecha": "24/08/2026", "Dinamica": null, "info": "SIN DATOS", "PACiano": "❓ no se estima", "Cloro": null, "Turb": null, "MON": null, "B5": null, "E. Trofico": "sin datos", "A. Turb": "sin datos", "A. MON": "sin datos" }, "geometry": { "type": "Point", "coordinates": [ -60.156361, -35.437639 ] } },
{ "type": "Feature", "properties": { "MUNICIPIO": "Veinticinco de Mayo", "PUNTO": "Rio Salado Ruta 30", "NOMBRE": "Río Salado. Puente Moquehua", "Alerta": 1, "S2 Fecha": null, "S3 Fecha": "24/08/2026", "Fecha": "24/08/2026", "Dinamica": null, "info": "Alerta verde, riesgo nulo a bajo, se detectan plantas acuáticas", "PACiano": "❓ no se estima", "Cloro": null, "Turb": null, "MON": null, "B5": null, "E. Trofico": "sin datos", "A. Turb": "sin datos", "A. MON": "sin datos" }, "geometry": { "type": "Point", "coordinates": [ -59.717917, -35.222139 ] } },
{ "type": "Feature", "properties": { "MUNICIPIO": "Vicente López", "PUNTO": "Bajada de Vergara", "NOMBRE": "Paseo de la Costa, Vicente López, Provincia de Buenos Aires, Argentina", "Alerta": 1, "S2 Fecha": null, "S3 Fecha": "24/08/2026", "Fecha": "24/08/2026", "Dinamica": null, "info": "Alerta verde, riesgo nulo a bajo y estable", "PACiano": "❓ no se estima", "Cloro": null, "Turb": null, "MON": null, "B5": null, "E. Trofico": "sin datos", "A. Turb": "sin datos", "A. MON": "sin datos" }, "geometry": { "type": "Point", "coordinates": [ -58.469722, -34.518306 ] } },
{ "type": "Feature", "properties": { "MUNICIPIO": "Mar Chiquita", "PUNTO": "PLC", "NOMBRE": "Parque Lago - Cartel", "Alerta": 1, "S2 Fecha": "22/08/2026", "S3 Fecha": "24/08/2026", "Fecha": "24/08/2026", "Dinamica": null, "info": "Alerta verde, riesgo nulo a bajo, se detectan plantas acuáticas", "PACiano": "❓ no se estima", "Cloro": 64.5, "Turb": 86.5, "MON": 16.0, "B5": 0.012, "E. Trofico": "Eutrofico", "A. Turb": "Muy alta", "A. MON": "Muy Alta" }, "geometry": { "type": "Point", "coordinates": [ -57.451320975130841, -37.764541678664919 ] } },
{ "type": "Feature", "properties": { "MUNICIPIO": "Mar Chiquita", "PUNTO": "PLR", "NOMBRE": "Parque Lago - Rampa", "Alerta": 1, "S2 Fecha": "22/08/2026", "S3 Fecha": "24/08/2026", "Fecha": "24/08/2026", "Dinamica": null, "info": "Alerta verde, riesgo nulo a bajo, se detectan plantas acuáticas", "PACiano": "❓ no se estima", "Cloro": 32.1, "Turb": 65.6, "MON": 9.577, "B5": 0.01, "E. Trofico": "Mesotrofico", "A. Turb": "Alta", "A. MON": "Muy Alta" }, "geometry": { "type": "Point", "coordinates": [ -57.449822168848129, -37.764963217931928 ] } }
]
}
