{
"type": "FeatureCollection",
"name": "CianoAlert_ADA_20260708",
"crs": { "type": "name", "properties": { "name": "urn:ogc:def:crs:OGC:1.3:CRS84" } },
"features": [
{ "type": "Feature", "properties": { "CodPunto": "PUAN", "Nombre": "Laguna Puan", "Municipio": "Puan", "Tipo": "Laguna", "Laguna Rio": "Laguna Puan", "Alerta": 1, "S2 Fecha": "7/1/2026", "S3 Fecha": "7/7/2026", "Fecha": "7/7/2026", "Cloro": 8.0, "Turb": 30.0, "MON": 0.764, "B5": 0.037, "info": "Alerta verde, riesgo nulo a bajo y estable", "Dinamica": "🟰", "E. Trofico": "oligotrofico", "A. TURB": "Media", "A. MON": "Baja", "PACiano": "✅✅ (precisión muy alta)" }, "geometry": { "type": "Point", "coordinates": [ -62.801683474524971, -37.557180659074078 ] } },
{ "type": "Feature", "properties": { "CodPunto": "LCHIL", "Nombre": "Laguna los Chilenos", "Municipio": "Saavedra", "Tipo": "Laguna", "Laguna Rio": "Laguna Los Chilenos", "Alerta": 1, "S2 Fecha": "7/1/2026", "S3 Fecha": "7/7/2026", "Fecha": "7/7/2026", "Cloro": 11.4, "Turb": 28.0, "MON": 0.177, "B5": 0.156, "info": "Alerta verde, riesgo nulo a bajo y estable", "Dinamica": "🟰", "E. Trofico": "oligotrofico", "A. TURB": "Baja", "A. MON": "Baja", "PACiano": "✅✅ (precisión muy alta)" }, "geometry": { "type": "Point", "coordinates": [ -62.566592, -37.882703548219169 ] } },
{ "type": "Feature", "properties": { "CodPunto": "VDO", "Nombre": "Laguna Del Venado", "Municipio": "Guamini", "Tipo": "Laguna", "Laguna Rio": "Laguna Del Venado", "Alerta": 2, "S2 Fecha": "7/1/2026", "S3 Fecha": "7/7/2026", "Fecha": "7/7/2026", "Cloro": 167.3, "Turb": 12.6, "MON": 0.503, "B5": 0.068, "info": "Alerta amarillo, riesgo bajo a moderado, en aumento", "Dinamica": "⬆️", "E. Trofico": "Eutrofico", "A. TURB": "Baja", "A. MON": "Baja", "PACiano": "✅✅ (precisión muy alta)" }, "geometry": { "type": "Point", "coordinates": [ -62.626374472478915, -37.064198424691064 ] } },
{ "type": "Feature", "properties": { "CodPunto": "BGRDE", "Nombre": "Laguna Blanca Grande", "Municipio": "Olavarria", "Tipo": "Laguna", "Laguna Rio": "Laguna Blanca Grande", "Alerta": 1, "S2 Fecha": "7/6/2026", "S3 Fecha": "7/7/2026", "Fecha": "7/7/2026", "Cloro": null, "Turb": null, "MON": null, "B5": null, "info": "Alerta verde, riesgo nulo a bajo y estable", "Dinamica": "🟰", "E. Trofico": "sin datos", "A. TURB": "sin datos", "A. MON": "sin datos", "PACiano": "❓ no se estima" }, "geometry": { "type": "Point", "coordinates": [ -60.898894948473597, -36.486416109942553 ] } },
{ "type": "Feature", "properties": { "CodPunto": "MULT", "Nombre": "Laguna Las Mulitas", "Municipio": "25 de Mayo", "Tipo": "Laguna", "Laguna Rio": "Laguna Las Mulitas", "Alerta": 4, "S2 Fecha": "7/6/2026", "S3 Fecha": "7/7/2026", "Fecha": "7/7/2026", "Cloro": 140.0, "Turb": 46.7, "MON": 0.857, "B5": 0.047, "info": "Alerta roja, riesgo alto, estable", "Dinamica": "🟰", "E. Trofico": "Eutrofico", "A. TURB": "Alta", "A. MON": "Media", "PACiano": "❓ no se estima" }, "geometry": { "type": "Point", "coordinates": [ -60.156361, -35.437639 ] } },
{ "type": "Feature", "properties": { "CodPunto": "RSN1", "Nombre": "Rio Salado Puente R3", "Municipio": "25 de Mayo", "Tipo": "Rio", "Laguna Rio": "Rio Salado Puente Ruta Tres", "Alerta": 3, "S2 Fecha": "7/6/2026", "S3 Fecha": "7/7/2026", "Fecha": "7/7/2026", "Cloro": 117.6, "Turb": 45.4, "MON": 0.385, "B5": 0.08, "info": "Alerta naranja, riesgo moderado a alto, estable", "Dinamica": "🟰", "E. Trofico": "Eutrofico", "A. TURB": "Alta", "A. MON": "Baja", "PACiano": "❓ no se estima" }, "geometry": { "type": "Point", "coordinates": [ -59.71791297, -35.22213683 ] } },
{ "type": "Feature", "properties": { "CodPunto": "PSM1", "Nombre": "Laguna del Parque Gral. San Martín", "Municipio": "9 de Julio", "Tipo": "Laguna", "Laguna Rio": "Gral San Martin", "Alerta": null, "S2 Fecha": null, "S3 Fecha": "7/7/2026", "Fecha": "7/7/2026", "Cloro": null, "Turb": null, "MON": null, "B5": null, "info": "SIN DATOS", "Dinamica": "SIN DATOS", "E. Trofico": "sin datos", "A. TURB": "sin datos", "A. MON": "sin datos", "PACiano": "❓ no se estima" }, "geometry": { "type": "Point", "coordinates": [ -60.876439738442791, -35.438888971259274 ] } },
{ "type": "Feature", "properties": { "CodPunto": "EPEC", "Nombre": "Epecuen Adolfo  Alsina", "Municipio": "Adolfo Alsina", "Tipo": "Laguna", "Laguna Rio": "Laguna Epecuen", "Alerta": 1, "S2 Fecha": "7/1/2026", "S3 Fecha": "7/7/2026", "Fecha": "7/7/2026", "Cloro": 2.9, "Turb": 7.5, "MON": 0.898, "B5": 0.014, "info": "Alerta verde, riesgo nulo a bajo y estable", "Dinamica": "🟰", "E. Trofico": "oligotrofico", "A. TURB": "Baja", "A. MON": "Media", "PACiano": "✅✅ (precisión muy alta)" }, "geometry": { "type": "Point", "coordinates": [ -62.8466267, -37.14601186 ] } },
{ "type": "Feature", "properties": { "CodPunto": "RIO2", "Nombre": "Puente Achupallas Indacochea RIo Río Salado - Alberti", "Municipio": "Alberti", "Tipo": "Rio", "Laguna Rio": "Puente Achupallas Indacochea Rio Salado", "Alerta": 3, "S2 Fecha": "7/1/2026", "S3 Fecha": "7/7/2026", "Fecha": "7/7/2026", "Cloro": 112.3, "Turb": 22.6, "MON": 0.413, "B5": 0.073, "info": "Alerta naranja, riesgo moderado a alto, en disminución", "Dinamica": "⬇️", "E. Trofico": "Eutrofico", "A. TURB": "Baja", "A. MON": "Baja", "PACiano": "✅ (precisión alta)" }, "geometry": { "type": "Point", "coordinates": [ -60.110403, -35.0887449 ] } },
{ "type": "Feature", "properties": { "CodPunto": "RIO1", "Nombre": "Rio Salado - Puente Ladaga, Alberti_Alberti", "Municipio": "Alberti", "Tipo": "Rio", "Laguna Rio": "Rio Salado Puente Ladaga Alberti", "Alerta": 1, "S2 Fecha": "7/1/2026", "S3 Fecha": "7/7/2026", "Fecha": "7/7/2026", "Cloro": 98.1, "Turb": 49.6, "MON": 0.31, "B5": 0.071, "info": "Alerta verde, riesgo nulo a bajo y estable", "Dinamica": "🟰", "E. Trofico": "Eutrofico", "A. TURB": "Alta", "A. MON": "Baja", "PACiano": "❓ no se estima" }, "geometry": { "type": "Point", "coordinates": [ -60.24290343, -35.06801733 ] } },
{ "type": "Feature", "properties": { "CodPunto": "RIO3", "Nombre": "Rio Salado - Ruta 5", "Municipio": "Alberti", "Tipo": "Rio", "Laguna Rio": "Rio Salado Ruta Cinco", "Alerta": 1, "S2 Fecha": "7/1/2026", "S3 Fecha": "7/7/2026", "Fecha": "7/7/2026", "Cloro": null, "Turb": null, "MON": null, "B5": null, "info": "Alerta verde, riesgo nulo a bajo y estable", "Dinamica": "🟰", "E. Trofico": "sin datos", "A. TURB": "sin datos", "A. MON": "sin datos", "PACiano": "❓ no se estima" }, "geometry": { "type": "Point", "coordinates": [ -60.292083, -35.061111 ] } },
{ "type": "Feature", "properties": { "CodPunto": "RDLP", "Nombre": "Rio de La Plata  Avellaneda", "Municipio": "Avellaneda", "Tipo": "Rio", "Laguna Rio": "Rio De La Plata", "Alerta": 1, "S2 Fecha": "7/6/2026", "S3 Fecha": "7/8/2026", "Fecha": "7/8/2026", "Cloro": null, "Turb": null, "MON": null, "B5": null, "info": "Alerta verde, riesgo nulo a bajo y estable", "Dinamica": "🟰", "E. Trofico": "sin datos", "A. TURB": "sin datos", "A. MON": "sin datos", "PACiano": "❓ no se estima" }, "geometry": { "type": "Point", "coordinates": [ -58.29888937, -34.66026369 ] } },
{ "type": "Feature", "properties": { "CodPunto": "SALA1", "Nombre": "Laguna la Saladita Norte", "Municipio": "Avellaneda", "Tipo": "Laguna", "Laguna Rio": "Laguna La Saladita Norte", "Alerta": null, "S2 Fecha": "7/11/2026", "S3 Fecha": "7/8/2026", "Fecha": "7/8/2026", "Cloro": null, "Turb": null, "MON": null, "B5": null, "info": "SIN DATOS", "Dinamica": null, "E. Trofico": "sin datos", "A. TURB": "sin datos", "A. MON": "sin datos", "PACiano": "❓ no se estima" }, "geometry": { "type": "Point", "coordinates": [ -58.34021914, -34.66571025 ] } },
{ "type": "Feature", "properties": { "CodPunto": "SALA2", "Nombre": "Laguna La Saladita Sur", "Municipio": "Avellaneda", "Tipo": "Laguna", "Laguna Rio": "Laguna La Saladita Sur", "Alerta": 4, "S2 Fecha": null, "S3 Fecha": "7/8/2026", "Fecha": "7/8/2026", "Cloro": null, "Turb": null, "MON": null, "B5": null, "info": "Alerta roja, riesgo alto, estable", "Dinamica": "🟰", "E. Trofico": "sin datos", "A. TURB": "sin datos", "A. MON": "sin datos", "PACiano": "❓ no se estima" }, "geometry": { "type": "Point", "coordinates": [ -58.34046988, -34.67242443 ] } },
{ "type": "Feature", "properties": { "CodPunto": "LAB", "Nombre": "La Laguna La Brava", "Municipio": "Balcarce", "Tipo": "Laguna", "Laguna Rio": "Laguna La Brava", "Alerta": 4, "S2 Fecha": "7/3/2026", "S3 Fecha": "7/7/2026", "Fecha": "7/7/2026", "Cloro": 319.5, "Turb": 61.0, "MON": 0.435, "B5": 0.089, "info": "Alerta roja, riesgo alto, estable", "Dinamica": "🟰", "E. Trofico": "Hipereutrofico", "A. TURB": "Alta", "A. MON": "Baja", "PACiano": "✅✅ (precisión muy alta)" }, "geometry": { "type": "Point", "coordinates": [ -57.97720112, -37.88000183 ] } },
{ "type": "Feature", "properties": { "CodPunto": "ELCH", "Nombre": "Laguna El Chifle", "Municipio": "Benito Juarez", "Tipo": "Laguna", "Laguna Rio": "Laguna El Chifle", "Alerta": 1, "S2 Fecha": "7/6/2026", "S3 Fecha": "7/7/2026", "Fecha": "7/7/2026", "Cloro": 30.1, "Turb": 27.2, "MON": 1.153, "B5": 0.035, "info": "Alerta verde, riesgo nulo a bajo y estable", "Dinamica": "🟰", "E. Trofico": "Mesotrofico", "A. TURB": "Baja", "A. MON": "Media", "PACiano": "✅✅ (precisión muy alta)" }, "geometry": { "type": "Point", "coordinates": [ -59.79925, -37.406806 ] } },
{ "type": "Feature", "properties": { "CodPunto": "SANA", "Nombre": "Laguna San Antonio", "Municipio": "Benito Juarez", "Tipo": "Laguna", "Laguna Rio": "Laguna San Antonio", "Alerta": 4, "S2 Fecha": "7/6/2026", "S3 Fecha": "7/7/2026", "Fecha": "7/7/2026", "Cloro": 172.9, "Turb": 61.5, "MON": 0.389, "B5": 0.084, "info": "Alerta roja, riesgo alto, en disminución", "Dinamica": "⬇️", "E. Trofico": "Eutrofico", "A. TURB": "Alta", "A. MON": "Baja", "PACiano": "✅✅ (precisión muy alta)" }, "geometry": { "type": "Point", "coordinates": [ -59.874806, -37.629917 ] } },
{ "type": "Feature", "properties": { "CodPunto": "BALN", "Nombre": "Rio de La Plata Balneario Berazategui", "Municipio": "Berazategui", "Tipo": "Rio", "Laguna Rio": "Rio De La Plata", "Alerta": 1, "S2 Fecha": "7/6/2026", "S3 Fecha": "7/8/2026", "Fecha": "7/8/2026", "Cloro": 1.4, "Turb": 73.5, "MON": 0.589, "B5": 0.085, "info": "Alerta verde, riesgo nulo a bajo y estable", "Dinamica": "🟰", "E. Trofico": "oligotrofico", "A. TURB": "Alta", "A. MON": "Baja", "PACiano": "✅✅ (precisión muy alta)" }, "geometry": { "type": "Point", "coordinates": [ -58.09891056, -34.73645769 ] } },
{ "type": "Feature", "properties": { "CodPunto": "SGO", "Nombre": "Rio Parana Berisso", "Municipio": "Berisso", "Tipo": "Rio", "Laguna Rio": "Rio Parana", "Alerta": 1, "S2 Fecha": "7/3/2026", "S3 Fecha": "7/8/2026", "Fecha": "7/8/2026", "Cloro": 13.0, "Turb": 25.1, "MON": 0.392, "B5": 0.06, "info": "Alerta verde, riesgo nulo a bajo y estable", "Dinamica": "🟰", "E. Trofico": "oligotrofico", "A. TURB": "Baja", "A. MON": "Baja", "PACiano": "✅✅ (precisión muy alta)" }, "geometry": { "type": "Point", "coordinates": [ -57.88881991, -34.85225838 ] } },
{ "type": "Feature", "properties": { "CodPunto": "BERI", "Nombre": "Rio de La Plata Balnerio Berisso-2", "Municipio": "Berisso", "Tipo": "Rio", "Laguna Rio": "Rio De La Plata", "Alerta": 1, "S2 Fecha": "7/6/2026", "S3 Fecha": "7/8/2026", "Fecha": "7/8/2026", "Cloro": 1.5, "Turb": 69.9, "MON": 0.546, "B5": 0.08, "info": "Alerta verde, riesgo nulo a bajo y estable", "Dinamica": "🟰", "E. Trofico": "oligotrofico", "A. TURB": "Alta", "A. MON": "Baja", "PACiano": "✅✅ (precisión muy alta)" }, "geometry": { "type": "Point", "coordinates": [ -57.737605251849139, -34.910371474377911 ] } },
{ "type": "Feature", "properties": { "CodPunto": "PALO", "Nombre": "Rio de La Plata Palo Blanco Berisso-3", "Municipio": "Berisso", "Tipo": "Rio", "Laguna Rio": "Rio De La Plata", "Alerta": 1, "S2 Fecha": "7/6/2026", "S3 Fecha": "7/8/2026", "Fecha": "7/8/2026", "Cloro": 1.1, "Turb": 60.0, "MON": 0.664, "B5": 0.072, "info": "Alerta verde, riesgo nulo a bajo y estable", "Dinamica": "🟰", "E. Trofico": "oligotrofico", "A. TURB": "Alta", "A. MON": "Baja", "PACiano": "✅✅ (precisión muy alta)" }, "geometry": { "type": "Point", "coordinates": [ -57.83581294, -34.85263799 ] } },
{ "type": "Feature", "properties": { "CodPunto": "RIO4", "Nombre": "Rio Santiago Berisso - 4", "Municipio": "Berisso", "Tipo": "Rio", "Laguna Rio": "Rio Santiago", "Alerta": 1, "S2 Fecha": "7/3/2026", "S3 Fecha": "7/8/2026", "Fecha": "7/8/2026", "Cloro": 1.8, "Turb": 42.6, "MON": 0.581, "B5": 0.06, "info": "Alerta verde, riesgo nulo a bajo y estable", "Dinamica": "🟰", "E. Trofico": "oligotrofico", "A. TURB": "Media", "A. MON": "Baja", "PACiano": "✅✅ (precisión muy alta)" }, "geometry": { "type": "Point", "coordinates": [ -57.87943121, -34.83406603 ] } },
{ "type": "Feature", "properties": { "CodPunto": "BAL", "Nombre": "Rio de La Plata - La Balandra", "Municipio": "Berisso", "Tipo": "Rio", "Laguna Rio": "Rio De La Plata", "Alerta": 1, "S2 Fecha": "7/6/2026", "S3 Fecha": "7/8/2026", "Fecha": "7/8/2026", "Cloro": 1.4, "Turb": 71.5, "MON": 0.617, "B5": 0.085, "info": "Alerta verde, riesgo nulo a bajo y estable", "Dinamica": "🟰", "E. Trofico": "oligotrofico", "A. TURB": "Alta", "A. MON": "Baja", "PACiano": "✅✅ (precisión muy alta)" }, "geometry": { "type": "Point", "coordinates": [ -57.713183362077423, -34.918873122984017 ] } },
{ "type": "Feature", "properties": { "CodPunto": "JCHO", "Nombre": "Laguna Juancho", "Municipio": "Bolivar", "Tipo": "Laguna", "Laguna Rio": "Laguna De Juancho", "Alerta": 3, "S2 Fecha": null, "S3 Fecha": "7/7/2026", "Fecha": "7/7/2026", "Cloro": null, "Turb": null, "MON": null, "B5": null, "info": "Alerta naranja, riesgo moderado a alto, estable", "Dinamica": "🟰", "E. Trofico": "sin datos", "A. TURB": "sin datos", "A. MON": "sin datos", "PACiano": "❓ no se estima" }, "geometry": { "type": "Point", "coordinates": [ -61.50824282, -36.69663593 ] } },
{ "type": "Feature", "properties": { "CodPunto": "BRAG", "Nombre": "Laguna Bragado", "Municipio": "Bragado", "Tipo": "Laguna", "Laguna Rio": "Laguna De Bragado", "Alerta": 1, "S2 Fecha": null, "S3 Fecha": "7/7/2026", "Fecha": "7/7/2026", "Cloro": null, "Turb": null, "MON": null, "B5": null, "info": "Alerta verde, riesgo nulo a bajo y estable", "Dinamica": "🟰", "E. Trofico": "sin datos", "A. TURB": "sin datos", "A. MON": "sin datos", "PACiano": "❓ no se estima" }, "geometry": { "type": "Point", "coordinates": [ -60.47505778, -35.08147353 ] } },
{ "type": "Feature", "properties": { "CodPunto": "ROCH", "Nombre": "Camping De Rocha, Rocha", "Municipio": "Bragado", "Tipo": "Laguna", "Laguna Rio": "Camping Laguna De Rocha", "Alerta": 2, "S2 Fecha": null, "S3 Fecha": "7/7/2026", "Fecha": "7/7/2026", "Cloro": null, "Turb": null, "MON": null, "B5": null, "info": "Alerta amarillo, riesgo bajo a moderado, estable", "Dinamica": "🟰", "E. Trofico": "sin datos", "A. TURB": "sin datos", "A. MON": "sin datos", "PACiano": "❓ no se estima" }, "geometry": { "type": "Point", "coordinates": [ -60.68567662, -34.69990796 ] } },
{ "type": "Feature", "properties": { "CodPunto": "CCAR1", "Nombre": "Compuerta Balneario C. Areco", "Municipio": "Carmen de Areco", "Tipo": "Rio", "Laguna Rio": "Rio Areco", "Alerta": null, "S2 Fecha": "7/6/2026", "S3 Fecha": "7/7/2026", "Fecha": "7/7/2026", "Cloro": null, "Turb": null, "MON": null, "B5": null, "info": "SIN DATOS", "Dinamica": "SIN DATOS", "E. Trofico": "sin datos", "A. TURB": "sin datos", "A. MON": "sin datos", "PACiano": "❓ no se estima" }, "geometry": { "type": "Point", "coordinates": [ -59.817297872105193, -34.351939932340258 ] } },
{ "type": "Feature", "properties": { "CodPunto": "ADE", "Nombre": "Laguna Adela", "Municipio": "Chascomus", "Tipo": "Laguna", "Laguna Rio": "Laguna Adela", "Alerta": 4, "S2 Fecha": "7/3/2026", "S3 Fecha": "7/7/2026", "Fecha": "7/7/2026", "Cloro": 622.8, "Turb": 87.5, "MON": 1.226, "B5": 0.123, "info": "Alerta roja, riesgo alto, estable", "Dinamica": "🟰", "E. Trofico": "Hipereutrofico", "A. TURB": "Muy alta", "A. MON": "Media", "PACiano": "✅✅ (precisión muy alta)" }, "geometry": { "type": "Point", "coordinates": [ -57.99356866, -35.68609728 ] } },
{ "type": "Feature", "properties": { "CodPunto": "BURR", "Nombre": "Laguna del Burro", "Municipio": "Chascomus", "Tipo": "Laguna", "Laguna Rio": "Laguna Del Burro", "Alerta": 3, "S2 Fecha": "7/3/2026", "S3 Fecha": "7/7/2026", "Fecha": "7/7/2026", "Cloro": 360.4, "Turb": 63.5, "MON": 2.239, "B5": 0.075, "info": "Alerta naranja, riesgo moderado a alto, en aumento", "Dinamica": "⬆️", "E. Trofico": "Hipereutrofico", "A. TURB": "Alta", "A. MON": "Alta", "PACiano": "✅✅ (precisión muy alta)" }, "geometry": { "type": "Point", "coordinates": [ -57.92938006, -35.68509433 ] } },
{ "type": "Feature", "properties": { "CodPunto": "ESQ1", "Nombre": "Laguna Esquivel", "Municipio": "Chascomus", "Tipo": "Laguna", "Laguna Rio": "Laguna Esquivel", "Alerta": 4, "S2 Fecha": "7/3/2026", "S3 Fecha": "7/7/2026", "Fecha": "7/7/2026", "Cloro": 87.2, "Turb": 47.0, "MON": 1.141, "B5": 0.062, "info": "Alerta roja, riesgo alto, estable", "Dinamica": "🟰", "E. Trofico": "Eutrofico", "A. TURB": "Alta", "A. MON": "Media", "PACiano": "❓ no se estima" }, "geometry": { "type": "Point", "coordinates": [ -58.22290918, -35.79297381 ] } },
{ "type": "Feature", "properties": { "CodPunto": "CHAS2", "Nombre": "Laguna Chascomús", "Municipio": "Chascomus", "Tipo": "Laguna", "Laguna Rio": "Laguna De Chascomus", "Alerta": 3, "S2 Fecha": "7/3/2026", "S3 Fecha": "7/7/2026", "Fecha": "7/7/2026", "Cloro": 304.0, "Turb": 45.8, "MON": 1.22, "B5": 0.064, "info": "Alerta naranja, riesgo moderado a alto, estable", "Dinamica": "🟰", "E. Trofico": "Hipereutrofico", "A. TURB": "Alta", "A. MON": "Media", "PACiano": "✅✅ (precisión muy alta)" }, "geometry": { "type": "Point", "coordinates": [ -58.00152607, -35.59030192 ] } },
{ "type": "Feature", "properties": { "CodPunto": "CHASMUELLE", "Nombre": "Muellle Laguna Chascomús", "Municipio": "Chascomus", "Tipo": "Laguna", "Laguna Rio": "Laguna De Chascomus", "Alerta": 3, "S2 Fecha": "7/3/2026", "S3 Fecha": "7/7/2026", "Fecha": "7/7/2026", "Cloro": 286.9, "Turb": 41.7, "MON": 1.052, "B5": 0.066, "info": "Alerta naranja, riesgo moderado a alto, estable", "Dinamica": "🟰", "E. Trofico": "Hipereutrofico", "A. TURB": "Media", "A. MON": "Media", "PACiano": "✅✅ (precisión muy alta)" }, "geometry": { "type": "Point", "coordinates": [ -58.027604, -35.59141631 ] } },
{ "type": "Feature", "properties": { "CodPunto": "LIM1", "Nombre": "La Laguna La Limipia", "Municipio": "Chascomus", "Tipo": "Laguna", "Laguna Rio": "Laguna La Limpia", "Alerta": 1, "S2 Fecha": "7/3/2026", "S3 Fecha": "7/7/2026", "Fecha": "7/7/2026", "Cloro": 28.0, "Turb": 32.9, "MON": 0.243, "B5": 0.119, "info": "Alerta verde, riesgo nulo a bajo y estable", "Dinamica": "🟰", "E. Trofico": "Mesotrofico", "A. TURB": "Media", "A. MON": "Baja", "PACiano": "✅✅ (precisión muy alta)" }, "geometry": { "type": "Point", "coordinates": [ -57.81513465, -35.60999172 ] } },
{ "type": "Feature", "properties": { "CodPunto": "MUL1", "Nombre": "Laguna Las Mulas", "Municipio": "Chascomus", "Tipo": "Laguna", "Laguna Rio": "Laguna Las Mulas", "Alerta": 4, "S2 Fecha": "7/3/2026", "S3 Fecha": "7/7/2026", "Fecha": "7/7/2026", "Cloro": 213.0, "Turb": 43.5, "MON": 0.663, "B5": 0.126, "info": "SIN DATOS", "Dinamica": "SIN DATOS", "E. Trofico": "Eutrofico", "A. TURB": "Media", "A. MON": "Baja", "PACiano": "❓ no se estima" }, "geometry": { "type": "Point", "coordinates": [ -57.90108163, -35.53351702 ] } },
{ "type": "Feature", "properties": { "CodPunto": "VIT1", "Nombre": "Laguna Vitel", "Municipio": "Chascomus", "Tipo": "Laguna", "Laguna Rio": "Laguna Vitel", "Alerta": 4, "S2 Fecha": "7/3/2026", "S3 Fecha": "7/7/2026", "Fecha": "7/7/2026", "Cloro": 623.0, "Turb": 55.9, "MON": 16.0, "B5": 0.043, "info": "Alerta roja, riesgo alto, estable", "Dinamica": "🟰", "E. Trofico": "Hipereutrofico", "A. TURB": "Alta", "A. MON": "Muy alta", "PACiano": "✅✅ (precisión muy alta)" }, "geometry": { "type": "Point", "coordinates": [ -58.110802, -35.52930325 ] } },
{ "type": "Feature", "properties": { "CodPunto": "YAS1", "Nombre": "Laguna Yasica", "Municipio": "Chascomus", "Tipo": "Laguna", "Laguna Rio": "Laguna Yasica", "Alerta": 1, "S2 Fecha": "7/3/2026", "S3 Fecha": "7/7/2026", "Fecha": "7/7/2026", "Cloro": 358.2, "Turb": 67.3, "MON": 5.467, "B5": 0.123, "info": "Alerta verde, riesgo nulo a bajo y estable", "Dinamica": "🟰", "E. Trofico": "Hipereutrofico", "A. TURB": "Alta", "A. MON": "Muy alta", "PACiano": "✅✅ (precisión muy alta)" }, "geometry": { "type": "Point", "coordinates": [ -57.90670928, -35.5762537 ] } },
{ "type": "Feature", "properties": { "CodPunto": "RSCH", "Nombre": "Rio Salado Zona de recreo", "Municipio": "Chivilcoy", "Tipo": "Rio", "Laguna Rio": "Rio Salado Zona De Recreo", "Alerta": 3, "S2 Fecha": "7/1/2026", "S3 Fecha": "7/7/2026", "Fecha": "7/7/2026", "Cloro": 118.3, "Turb": 50.7, "MON": 0.43, "B5": 0.079, "info": "Alerta naranja, riesgo moderado a alto, estable", "Dinamica": "🟰", "E. Trofico": "Eutrofico", "A. TURB": "Alta", "A. MON": "Baja", "PACiano": "❓ no se estima" }, "geometry": { "type": "Point", "coordinates": [ -59.95569496, -35.12473955 ] } },
{ "type": "Feature", "properties": { "CodPunto": "CHIM", "Nombre": "Parque Lagunario Martija Campiing", "Municipio": "Chivilcoy", "Tipo": "Laguna", "Laguna Rio": "Laguna Chivilcoy", "Alerta": 4, "S2 Fecha": "7/1/2026", "S3 Fecha": "7/7/2026", "Fecha": "7/7/2026", "Cloro": 140.8, "Turb": 40.8, "MON": 0.828, "B5": 0.036, "info": "Alerta roja, riesgo alto, estable", "Dinamica": "🟰", "E. Trofico": "Eutrofico", "A. TURB": "Media", "A. MON": "Media", "PACiano": "❓ no se estima" }, "geometry": { "type": "Point", "coordinates": [ -60.104328395370629, -34.83785094859256 ] } },
{ "type": "Feature", "properties": { "CodPunto": "LGC", "Nombre": "Laguna Colón", "Municipio": "Colon", "Tipo": "Laguna", "Laguna Rio": "Lago Colon", "Alerta": 1, "S2 Fecha": null, "S3 Fecha": "7/7/2026", "Fecha": "7/7/2026", "Cloro": null, "Turb": null, "MON": null, "B5": null, "info": "Alerta verde, riesgo nulo a bajo y estable", "Dinamica": "🟰", "E. Trofico": "sin datos", "A. TURB": "sin datos", "A. MON": "sin datos", "PACiano": "❓ no se estima" }, "geometry": { "type": "Point", "coordinates": [ -61.097298470306143, -33.920615779283416 ] } },
{ "type": "Feature", "properties": { "CodPunto": "DLP1", "Nombre": "Dique Las Piedras 1", "Municipio": "Coronel Pringles", "Tipo": "Dique", "Laguna Rio": "Dique Las Piedras", "Alerta": 1, "S2 Fecha": "7/6/2026", "S3 Fecha": "7/7/2026", "Fecha": "7/7/2026", "Cloro": 28.9, "Turb": 21.0, "MON": 1.013, "B5": 0.032, "info": "Alerta verde, riesgo nulo a bajo y estable", "Dinamica": "🟰", "E. Trofico": "Mesotrofico", "A. TURB": "Baja", "A. MON": "Media", "PACiano": "✅✅ (precisión muy alta)" }, "geometry": { "type": "Point", "coordinates": [ -61.74454826, -38.41975441 ] } },
{ "type": "Feature", "properties": { "CodPunto": "ELJ", "Nombre": "Laguna El Juancho", "Municipio": "Daireaux", "Tipo": "Laguna", "Laguna Rio": "Laguna El Juancho", "Alerta": 1, "S2 Fecha": null, "S3 Fecha": "7/7/2026", "Fecha": "7/7/2026", "Cloro": null, "Turb": null, "MON": null, "B5": null, "info": "Alerta verde, riesgo nulo a bajo y estable", "Dinamica": "🟰", "E. Trofico": "sin datos", "A. TURB": "sin datos", "A. MON": "sin datos", "PACiano": "❓ no se estima" }, "geometry": { "type": "Point", "coordinates": [ -61.55883592, -36.70867129 ] } },
{ "type": "Feature", "properties": { "CodPunto": "CLUB", "Nombre": "Rio de La Plata Club Pesca de Ensenada", "Municipio": "Ensenada", "Tipo": "Rio", "Laguna Rio": "Rio De La Plata", "Alerta": 1, "S2 Fecha": "7/6/2026", "S3 Fecha": "7/8/2026", "Fecha": "7/8/2026", "Cloro": 2.0, "Turb": 62.8, "MON": 0.52, "B5": 0.062, "info": "Alerta verde, riesgo nulo a bajo y estable", "Dinamica": "🟰", "E. Trofico": "oligotrofico", "A. TURB": "Alta", "A. MON": "Baja", "PACiano": "✅✅ (precisión muy alta)" }, "geometry": { "type": "Point", "coordinates": [ -57.94353351, -34.82575485 ] } },
{ "type": "Feature", "properties": { "CodPunto": "CLUBR", "Nombre": "Rio Santiago Club Ensenada", "Municipio": "Ensenada", "Tipo": "Rio", "Laguna Rio": "Rio Santiago", "Alerta": 1, "S2 Fecha": "7/3/2026", "S3 Fecha": "7/8/2026", "Fecha": "7/8/2026", "Cloro": 16.9, "Turb": 20.8, "MON": 0.518, "B5": 0.039, "info": "Alerta verde, riesgo nulo a bajo pero en aumento", "Dinamica": "⬆️", "E. Trofico": "Mesotrofico", "A. TURB": "Baja", "A. MON": "Baja", "PACiano": "✅✅ (precisión muy alta)" }, "geometry": { "type": "Point", "coordinates": [ -57.918268, -34.8397494 ] } },
{ "type": "Feature", "properties": { "CodPunto": "PERG", "Nombre": "Rio de La Plata Pergola Ensenada", "Municipio": "Ensenada", "Tipo": "Rio", "Laguna Rio": "Rio De La Plata", "Alerta": 1, "S2 Fecha": "7/6/2026", "S3 Fecha": "7/8/2026", "Fecha": "7/8/2026", "Cloro": 0.6, "Turb": 57.5, "MON": 0.617, "B5": 0.062, "info": "Alerta verde, riesgo nulo a bajo y estable", "Dinamica": "🟰", "E. Trofico": "oligotrofico", "A. TURB": "Alta", "A. MON": "Baja", "PACiano": "✅✅ (precisión muy alta)" }, "geometry": { "type": "Point", "coordinates": [ -57.97633847, -34.79811973 ] } },
{ "type": "Feature", "properties": { "CodPunto": "PARA", "Nombre": "Rio de La Plata Parador Ensenada", "Municipio": "Ensenada", "Tipo": "Rio", "Laguna Rio": "Rio De La Plata", "Alerta": 1, "S2 Fecha": "7/6/2026", "S3 Fecha": "7/8/2026", "Fecha": "7/8/2026", "Cloro": 2.3, "Turb": 73.7, "MON": 0.503, "B5": 0.073, "info": "Alerta verde, riesgo nulo a bajo y estable", "Dinamica": "🟰", "E. Trofico": "oligotrofico", "A. TURB": "Alta", "A. MON": "Baja", "PACiano": "✅✅ (precisión muy alta)" }, "geometry": { "type": "Point", "coordinates": [ -57.94851535, -34.8273528 ] } },
{ "type": "Feature", "properties": { "CodPunto": "CARI", "Nombre": "Canal Arias", "Municipio": "Escobar", "Tipo": "Rio", "Laguna Rio": "Interseccion Canal Arias En Rio Parana", "Alerta": 1, "S2 Fecha": null, "S3 Fecha": "7/8/2026", "Fecha": "7/8/2026", "Cloro": null, "Turb": null, "MON": null, "B5": null, "info": "Alerta verde, riesgo nulo a bajo y estable", "Dinamica": "🟰", "E. Trofico": "sin datos", "A. TURB": "sin datos", "A. MON": "sin datos", "PACiano": "❓ no se estima" }, "geometry": { "type": "Point", "coordinates": [ -58.65464648, -34.27289635 ] } },
{ "type": "Feature", "properties": { "CodPunto": "RSM2", "Nombre": "Rio Salado Puente R3", "Municipio": "General Belgrano", "Tipo": "Rio", "Laguna Rio": "Rio Salado Puente Ruta Tres", "Alerta": null, "S2 Fecha": "7/1/2026", "S3 Fecha": "7/7/2026", "Fecha": "7/7/2026", "Cloro": null, "Turb": null, "MON": null, "B5": null, "info": "SIN DATOS", "Dinamica": "SIN DATOS", "E. Trofico": "sin datos", "A. TURB": "sin datos", "A. MON": "sin datos", "PACiano": "❓ no se estima" }, "geometry": { "type": "Point", "coordinates": [ -58.84991815, -35.65020014 ] } },
{ "type": "Feature", "properties": { "CodPunto": "CARB", "Nombre": "Laguna El Carbón", "Municipio": "General Juan Madariaga", "Tipo": "Laguna", "Laguna Rio": "Laguna El Carbon", "Alerta": 1, "S2 Fecha": "7/3/2026", "S3 Fecha": "7/7/2026", "Fecha": "7/7/2026", "Cloro": 6.2, "Turb": 20.7, "MON": 0.308, "B5": 0.086, "info": "Alerta verde, riesgo nulo a bajo pero en aumento", "Dinamica": "⬆️", "E. Trofico": "oligotrofico", "A. TURB": "Baja", "A. MON": "Baja", "PACiano": "✅✅ (precisión muy alta)" }, "geometry": { "type": "Point", "coordinates": [ -57.08335256, -36.94859847 ] } },
{ "type": "Feature", "properties": { "CodPunto": "LARG", "Nombre": "Laguna La Larga", "Municipio": "General Juan Madariaga", "Tipo": "Laguna", "Laguna Rio": "Laguna La Larga", "Alerta": 3, "S2 Fecha": "7/3/2026", "S3 Fecha": "7/7/2026", "Fecha": "7/7/2026", "Cloro": 315.5, "Turb": 54.8, "MON": 11.675, "B5": 0.041, "info": "Alerta naranja, riesgo moderado a alto, en disminución", "Dinamica": "⬇️", "E. Trofico": "Hipereutrofico", "A. TURB": "Alta", "A. MON": "Muy alta", "PACiano": "✅✅ (precisión muy alta)" }, "geometry": { "type": "Point", "coordinates": [ -57.11466679, -36.94659258 ] } },
{ "type": "Feature", "properties": { "CodPunto": "HORC", "Nombre": "Laguna Los Horcones", "Municipio": "General Juan Madariaga", "Tipo": "Laguna", "Laguna Rio": "Laguna Los Horcones", "Alerta": 3, "S2 Fecha": "7/3/2026", "S3 Fecha": "7/7/2026", "Fecha": "7/7/2026", "Cloro": 96.2, "Turb": 34.5, "MON": 0.273, "B5": 0.117, "info": "Alerta naranja, riesgo moderado a alto, estable", "Dinamica": "🟰", "E. Trofico": "Eutrofico", "A. TURB": "Media", "A. MON": "Baja", "PACiano": "✅✅ (precisión muy alta)" }, "geometry": { "type": "Point", "coordinates": [ -56.9915272, -37.06103997 ] } },
{ "type": "Feature", "properties": { "CodPunto": "CNAL", "Nombre": "Canal 2 Puente R11_General Lavalle", "Municipio": "General Lavalle", "Tipo": "Canal", "Laguna Rio": "Canal Dos Puente Ruta Once", "Alerta": 1, "S2 Fecha": "7/3/2026", "S3 Fecha": "7/7/2026", "Fecha": "7/7/2026", "Cloro": 120.5, "Turb": 36.9, "MON": 1.822, "B5": 0.061, "info": "Alerta verde, riesgo nulo a bajo y estable", "Dinamica": "🟰", "E. Trofico": "Eutrofico", "A. TURB": "Media", "A. MON": "Alta", "PACiano": "❓ no se estima" }, "geometry": { "type": "Point", "coordinates": [ -57.00668284, -36.48851052 ] } },
{ "type": "Feature", "properties": { "CodPunto": "SALG", "Nombre": "Reserva natural Salada Grande", "Municipio": "General Lavalle", "Tipo": "Laguna", "Laguna Rio": "Reserva Natural Laguna Salada Grande", "Alerta": 3, "S2 Fecha": "7/3/2026", "S3 Fecha": "7/7/2026", "Fecha": "7/7/2026", "Cloro": 109.1, "Turb": 71.3, "MON": 0.199, "B5": 0.165, "info": "Alerta naranja, riesgo moderado a alto, en disminución", "Dinamica": "⬇️", "E. Trofico": "Eutrofico", "A. TURB": "Alta", "A. MON": "Baja", "PACiano": "✅ (precisión alta)" }, "geometry": { "type": "Point", "coordinates": [ -56.961667, -36.891111 ] } },
{ "type": "Feature", "properties": { "CodPunto": "RGUI1", "Nombre": "Rio Guido", "Municipio": "General Lavalle", "Tipo": "Rio", "Laguna Rio": "Rio Guido", "Alerta": null, "S2 Fecha": "7/3/2026", "S3 Fecha": "7/7/2026", "Fecha": "7/7/2026", "Cloro": null, "Turb": null, "MON": null, "B5": null, "info": "SIN DATOS", "Dinamica": "SIN DATOS", "E. Trofico": "sin datos", "A. TURB": "sin datos", "A. MON": "sin datos", "PACiano": "❓ no se estima" }, "geometry": { "type": "Point", "coordinates": [ -57.07616477, -36.49732809 ] } },
{ "type": "Feature", "properties": { "CodPunto": "RGUI2", "Nombre": "Rio Guido al mar", "Municipio": "General Lavalle", "Tipo": "Rio", "Laguna Rio": "Rio Guido Al Mar", "Alerta": 1, "S2 Fecha": "7/3/2026", "S3 Fecha": "7/7/2026", "Fecha": "7/7/2026", "Cloro": 91.0, "Turb": 45.1, "MON": 0.37, "B5": 0.092, "info": "Alerta verde, riesgo nulo a bajo y estable", "Dinamica": "🟰", "E. Trofico": "Eutrofico", "A. TURB": "Alta", "A. MON": "Baja", "PACiano": "❓ no se estima" }, "geometry": { "type": "Point", "coordinates": [ -57.04262177, -36.48696431 ] } },
{ "type": "Feature", "properties": { "CodPunto": "RANC", "Nombre": "Laguna de Ranchos", "Municipio": "General Paz", "Tipo": "Laguna", "Laguna Rio": "Laguna De Ranchos", "Alerta": null, "S2 Fecha": "7/3/2026", "S3 Fecha": "7/7/2026", "Fecha": "7/7/2026", "Cloro": null, "Turb": null, "MON": null, "B5": null, "info": "SIN DATOS", "Dinamica": "SIN DATOS", "E. Trofico": "sin datos", "A. TURB": "sin datos", "A. MON": "sin datos", "PACiano": "❓ no se estima" }, "geometry": { "type": "Point", "coordinates": [ -58.32590974, -35.506641 ] } },
{ "type": "Feature", "properties": { "CodPunto": "LPD1", "Nombre": "Laguna de Los Padres", "Municipio": "General Pueyrredon", "Tipo": "Laguna", "Laguna Rio": "Laguna De Los Padres", "Alerta": 1, "S2 Fecha": "7/3/2026", "S3 Fecha": "7/7/2026", "Fecha": "7/7/2026", "Cloro": null, "Turb": 12.4, "MON": 15.806, "B5": 0.014, "info": "Alerta verde, riesgo nulo a bajo y estable", "Dinamica": "🟰", "E. Trofico": "sin datos", "A. TURB": "Baja", "A. MON": "Muy alta", "PACiano": "✅✅ (precisión muy alta)" }, "geometry": { "type": "Point", "coordinates": [ -57.73326215, -37.93583254 ] } },
{ "type": "Feature", "properties": { "CodPunto": "SALP", "Nombre": "Laguna Salada Gral Pinto", "Municipio": "General Pinto", "Tipo": "Laguna", "Laguna Rio": "Laguna La Salada", "Alerta": 1, "S2 Fecha": null, "S3 Fecha": "7/7/2026", "Fecha": "7/7/2026", "Cloro": null, "Turb": null, "MON": null, "B5": null, "info": "Alerta verde, riesgo nulo a bajo y estable", "Dinamica": "🟰", "E. Trofico": "sin datos", "A. TURB": "sin datos", "A. MON": "sin datos", "PACiano": "❓ no se estima" }, "geometry": { "type": "Point", "coordinates": [ -62.187931640617414, -34.738329701347212 ] } },
{ "type": "Feature", "properties": { "CodPunto": "CARL", "Nombre": "Laguna Carlota", "Municipio": "General La Madrid", "Tipo": "Laguna", "Laguna Rio": "Laguna La Carlota", "Alerta": 1, "S2 Fecha": "7/6/2026", "S3 Fecha": "7/7/2026", "Fecha": "7/7/2026", "Cloro": 10.1, "Turb": 25.4, "MON": 0.373, "B5": 0.068, "info": "Alerta verde, riesgo nulo a bajo y estable", "Dinamica": "🟰", "E. Trofico": "oligotrofico", "A. TURB": "Baja", "A. MON": "Baja", "PACiano": "✅✅ (precisión muy alta)" }, "geometry": { "type": "Point", "coordinates": [ -61.394456552632938, -37.676306107271003 ] } },
{ "type": "Feature", "properties": { "CodPunto": "ALS1", "Nombre": "Laguna Alsina 1", "Municipio": "Guamini", "Tipo": "Laguna", "Laguna Rio": "Laguna Alsina", "Alerta": 1, "S2 Fecha": null, "S3 Fecha": "7/7/2026", "Fecha": "7/7/2026", "Cloro": null, "Turb": null, "MON": null, "B5": null, "info": "Alerta verde, riesgo nulo a bajo y estable", "Dinamica": "🟰", "E. Trofico": "sin datos", "A. TURB": "sin datos", "A. MON": "sin datos", "PACiano": "❓ no se estima" }, "geometry": { "type": "Point", "coordinates": [ -62.19693303, -36.876499 ] } },
{ "type": "Feature", "properties": { "CodPunto": "ALS2", "Nombre": "Laguna Alsina 2", "Municipio": "Guamini", "Tipo": "Laguna", "Laguna Rio": "Laguna Alsina", "Alerta": 1, "S2 Fecha": null, "S3 Fecha": "7/7/2026", "Fecha": "7/7/2026", "Cloro": null, "Turb": null, "MON": null, "B5": null, "info": "Alerta verde, riesgo nulo a bajo y estable", "Dinamica": "🟰", "E. Trofico": "sin datos", "A. TURB": "sin datos", "A. MON": "sin datos", "PACiano": "❓ no se estima" }, "geometry": { "type": "Point", "coordinates": [ -62.0239804, -36.84172891 ] } },
{ "type": "Feature", "properties": { "CodPunto": "COCH", "Nombre": "Laguna Cochicó", "Municipio": "Guamini", "Tipo": "Laguna", "Laguna Rio": "Laguna Cochico", "Alerta": 1, "S2 Fecha": null, "S3 Fecha": "7/7/2026", "Fecha": "7/7/2026", "Cloro": null, "Turb": null, "MON": null, "B5": null, "info": "Alerta verde, riesgo nulo a bajo y estable", "Dinamica": "🟰", "E. Trofico": "sin datos", "A. TURB": "sin datos", "A. MON": "sin datos", "PACiano": "❓ no se estima" }, "geometry": { "type": "Point", "coordinates": [ -62.32571767, -36.92433273 ] } },
{ "type": "Feature", "properties": { "CodPunto": "DMONTE", "Nombre": "Laguna del Monte", "Municipio": "Guamini", "Tipo": "Laguna", "Laguna Rio": "Laguna Del Monte", "Alerta": 1, "S2 Fecha": null, "S3 Fecha": "7/7/2026", "Fecha": "7/7/2026", "Cloro": null, "Turb": null, "MON": null, "B5": null, "info": "Alerta verde, riesgo nulo a bajo y estable", "Dinamica": "🟰", "E. Trofico": "sin datos", "A. TURB": "sin datos", "A. MON": "sin datos", "PACiano": "❓ no se estima" }, "geometry": { "type": "Point", "coordinates": [ -62.476723, -37.020806 ] } },
{ "type": "Feature", "properties": { "CodPunto": "CAR1", "Nombre": "Laguna Carpincho", "Municipio": "Junin", "Tipo": "Laguna", "Laguna Rio": "Laguna El Carpincho", "Alerta": 3, "S2 Fecha": null, "S3 Fecha": "7/7/2026", "Fecha": "7/7/2026", "Cloro": null, "Turb": null, "MON": null, "B5": null, "info": "Alerta naranja, riesgo moderado a alto, estable", "Dinamica": "🟰", "E. Trofico": "sin datos", "A. TURB": "sin datos", "A. MON": "sin datos", "PACiano": "❓ no se estima" }, "geometry": { "type": "Point", "coordinates": [ -60.89518109, -34.57554254 ] } },
{ "type": "Feature", "properties": { "CodPunto": "GOMP", "Nombre": "Laguna Gómez", "Municipio": "Junin", "Tipo": "Laguna", "Laguna Rio": "Laguna Gomez", "Alerta": 2, "S2 Fecha": null, "S3 Fecha": "7/7/2026", "Fecha": "7/7/2026", "Cloro": null, "Turb": null, "MON": null, "B5": null, "info": "Alerta amarillo, riesgo bajo a moderado, estable", "Dinamica": "🟰", "E. Trofico": "sin datos", "A. TURB": "sin datos", "A. MON": "sin datos", "PACiano": "❓ no se estima" }, "geometry": { "type": "Point", "coordinates": [ -61.13782807, -34.65028994 ] } },
{ "type": "Feature", "properties": { "CodPunto": "GOMEZ1", "Nombre": "Laguna Cómez 1", "Municipio": "Junin", "Tipo": "Laguna", "Laguna Rio": "Laguna Gomez", "Alerta": 2, "S2 Fecha": null, "S3 Fecha": "7/7/2026", "Fecha": "7/7/2026", "Cloro": null, "Turb": null, "MON": null, "B5": null, "info": "Alerta amarillo, riesgo bajo a moderado, estable", "Dinamica": "🟰", "E. Trofico": "sin datos", "A. TURB": "sin datos", "A. MON": "sin datos", "PACiano": "❓ no se estima" }, "geometry": { "type": "Point", "coordinates": [ -61.03158186, -34.66692215 ] } },
{ "type": "Feature", "properties": { "CodPunto": "GOMEZ2", "Nombre": "Laguna Gómez 2", "Municipio": "Junin", "Tipo": "Laguna", "Laguna Rio": "Laguna Gomez", "Alerta": 2, "S2 Fecha": null, "S3 Fecha": "7/7/2026", "Fecha": "7/7/2026", "Cloro": null, "Turb": null, "MON": null, "B5": null, "info": "Alerta amarillo, riesgo bajo a moderado, estable", "Dinamica": "🟰", "E. Trofico": "sin datos", "A. TURB": "sin datos", "A. MON": "sin datos", "PACiano": "❓ no se estima" }, "geometry": { "type": "Point", "coordinates": [ -61.06077876, -34.65421815 ] } },
{ "type": "Feature", "properties": { "CodPunto": "MCHJ", "Nombre": "Laguna Mar Chiquita", "Municipio": "Junin", "Tipo": "Laguna", "Laguna Rio": "Laguna Mar Chiquita Junin", "Alerta": 3, "S2 Fecha": null, "S3 Fecha": "7/7/2026", "Fecha": "7/7/2026", "Cloro": null, "Turb": null, "MON": null, "B5": null, "info": "Alerta naranja, riesgo moderado a alto, estable", "Dinamica": "🟰", "E. Trofico": "sin datos", "A. TURB": "sin datos", "A. MON": "sin datos", "PACiano": "❓ no se estima" }, "geometry": { "type": "Point", "coordinates": [ -61.1695184, -34.44942197 ] } },
{ "type": "Feature", "properties": { "CodPunto": "LAGO1", "Nombre": "Lago del Bosque de La Plata", "Municipio": "La Plata", "Tipo": "Laguna", "Laguna Rio": "Lago Del Bosque", "Alerta": 1, "S2 Fecha": "7/3/2026", "S3 Fecha": "7/8/2026", "Fecha": "7/8/2026", "Cloro": 421.4, "Turb": 35.6, "MON": 1.367, "B5": 0.02, "info": "Alerta verde, riesgo nulo a bajo y estable", "Dinamica": "🟰", "E. Trofico": "Hipereutrofico", "A. TURB": "Media", "A. MON": "Media", "PACiano": "❓ no se estima" }, "geometry": { "type": "Point", "coordinates": [ -57.93792252, -34.91049894 ] } },
{ "type": "Feature", "properties": { "CodPunto": "LAGO2", "Nombre": "Lago Republica Ninios de La Plata", "Municipio": "La Plata", "Tipo": "Laguna", "Laguna Rio": "Lago Republica Ninios", "Alerta": null, "S2 Fecha": "7/3/2026", "S3 Fecha": "7/8/2026", "Fecha": "7/8/2026", "Cloro": null, "Turb": null, "MON": null, "B5": null, "info": "SIN DATOS", "Dinamica": "SIN DATOS", "E. Trofico": "sin datos", "A. TURB": "sin datos", "A. MON": "sin datos", "PACiano": "❓ no se estima" }, "geometry": { "type": "Point", "coordinates": [ -58.017611, -34.882361 ] } },
{ "type": "Feature", "properties": { "CodPunto": "SAAV", "Nombre": "Parque Saavedra de La Plata", "Municipio": "La Plata", "Tipo": "Laguna", "Laguna Rio": "Laguna Parque Saavedra", "Alerta": null, "S2 Fecha": "7/3/2026", "S3 Fecha": "7/8/2026", "Fecha": "7/8/2026", "Cloro": null, "Turb": null, "MON": null, "B5": null, "info": "SIN DATOS", "Dinamica": "SIN DATOS", "E. Trofico": "sin datos", "A. TURB": "sin datos", "A. MON": "sin datos", "PACiano": "❓ no se estima" }, "geometry": { "type": "Point", "coordinates": [ -57.94185072, -34.93064494 ] } },
{ "type": "Feature", "properties": { "CodPunto": "LPR1", "Nombre": "Laguna del Paraíso", "Municipio": "Laprida", "Tipo": "Laguna", "Laguna Rio": "Laguna El Paraiso", "Alerta": 1, "S2 Fecha": "7/6/2026", "S3 Fecha": "7/7/2026", "Fecha": "7/7/2026", "Cloro": 38.3, "Turb": 21.8, "MON": 2.597, "B5": 0.018, "info": "Alerta verde, riesgo nulo a bajo pero en aumento", "Dinamica": "⬆️", "E. Trofico": "Mesotrofico", "A. TURB": "Baja", "A. MON": "Alta", "PACiano": "✅✅ (precisión muy alta)" }, "geometry": { "type": "Point", "coordinates": [ -60.79754351, -37.569146 ] } },
{ "type": "Feature", "properties": { "CodPunto": "LPR3", "Nombre": "Laguna Quilla Lauquen", "Municipio": "Laprida", "Tipo": "Laguna", "Laguna Rio": "Quilla Lauquen", "Alerta": 3, "S2 Fecha": "7/6/2026", "S3 Fecha": "7/7/2026", "Fecha": "7/7/2026", "Cloro": null, "Turb": null, "MON": null, "B5": null, "info": "Alerta naranja, riesgo moderado a alto, estable", "Dinamica": "🟰", "E. Trofico": "sin datos", "A. TURB": "sin datos", "A. MON": "sin datos", "PACiano": "❓ no se estima" }, "geometry": { "type": "Point", "coordinates": [ -60.496604, -37.48183191 ] } },
{ "type": "Feature", "properties": { "CodPunto": "DIFM", "Nombre": "Laguna del Difunto Manuel", "Municipio": "Las Flores", "Tipo": "Laguna", "Laguna Rio": "Laguna Del Difunto Manuel", "Alerta": 1, "S2 Fecha": "7/1/2026", "S3 Fecha": "7/7/2026", "Fecha": "7/7/2026", "Cloro": 197.5, "Turb": 11.7, "MON": 1.152, "B5": 0.014, "info": "Alerta verde, riesgo nulo a bajo y estable", "Dinamica": "🟰", "E. Trofico": "Eutrofico", "A. TURB": "Baja", "A. MON": "Media", "PACiano": "✅✅ (precisión muy alta)" }, "geometry": { "type": "Point", "coordinates": [ -59.0755, -36.009417 ] } },
{ "type": "Feature", "properties": { "CodPunto": "SANB", "Nombre": "Laguna San Bartolo", "Municipio": "Leandro N. Alem", "Tipo": "Laguna", "Laguna Rio": "Laguna San Bartolo Balneario Municipal Leandro Alem", "Alerta": 1, "S2 Fecha": null, "S3 Fecha": "7/7/2026", "Fecha": "7/7/2026", "Cloro": null, "Turb": null, "MON": null, "B5": null, "info": "Alerta verde, riesgo nulo a bajo y estable", "Dinamica": "🟰", "E. Trofico": "sin datos", "A. TURB": "sin datos", "A. MON": "sin datos", "PACiano": "❓ no se estima" }, "geometry": { "type": "Point", "coordinates": [ -61.48145927, -34.45842063 ] } },
{ "type": "Feature", "properties": { "CodPunto": "CCHI", "Nombre": "Laguna Chis Chis", "Municipio": "Lezama", "Tipo": "Laguna", "Laguna Rio": "Laguna Chis Chis", "Alerta": 4, "S2 Fecha": "7/3/2026", "S3 Fecha": "7/7/2026", "Fecha": "7/7/2026", "Cloro": 573.6, "Turb": 87.3, "MON": 1.36, "B5": 0.124, "info": "Alerta roja, riesgo alto, estable", "Dinamica": "🟰", "E. Trofico": "Hipereutrofico", "A. TURB": "Muy alta", "A. MON": "Media", "PACiano": "✅✅ (precisión muy alta)" }, "geometry": { "type": "Point", "coordinates": [ -57.99055982, -35.76321275 ] } },
{ "type": "Feature", "properties": { "CodPunto": "CHIS", "Nombre": "Laguna Chis Chis 2", "Municipio": "Lezama", "Tipo": "Laguna", "Laguna Rio": "Laguna Chis Chis", "Alerta": 4, "S2 Fecha": "7/3/2026", "S3 Fecha": "7/7/2026", "Fecha": "7/7/2026", "Cloro": 548.2, "Turb": 87.4, "MON": 1.421, "B5": 0.125, "info": "Alerta roja, riesgo alto, estable", "Dinamica": "🟰", "E. Trofico": "Hipereutrofico", "A. TURB": "Muy alta", "A. MON": "Media", "PACiano": "✅✅ (precisión muy alta)" }, "geometry": { "type": "Point", "coordinates": [ -57.94830023, -35.76032928 ] } },
{ "type": "Feature", "properties": { "CodPunto": "BARRC", "Nombre": "Laguna Las Barrancas", "Municipio": "Lezama", "Tipo": "Laguna", "Laguna Rio": "Laguna Las Barrancas", "Alerta": 4, "S2 Fecha": "7/3/2026", "S3 Fecha": "7/7/2026", "Fecha": "7/7/2026", "Cloro": 286.4, "Turb": 76.1, "MON": 0.708, "B5": 0.111, "info": "Alerta roja, riesgo alto, estable", "Dinamica": "🟰", "E. Trofico": "Hipereutrofico", "A. TURB": "Muy alta", "A. MON": "Baja", "PACiano": "✅✅ (precisión muy alta)" }, "geometry": { "type": "Point", "coordinates": [ -58.04931927, -35.89171532 ] } },
{ "type": "Feature", "properties": { "CodPunto": "TABL", "Nombre": "Laguna La Tablilla", "Municipio": "Lezama", "Tipo": "Laguna", "Laguna Rio": "Laguna La Tablilla", "Alerta": 4, "S2 Fecha": "7/3/2026", "S3 Fecha": "7/7/2026", "Fecha": "7/7/2026", "Cloro": 526.9, "Turb": 90.5, "MON": 0.943, "B5": 0.135, "info": "Alerta roja, riesgo alto, estable", "Dinamica": "🟰", "E. Trofico": "Hipereutrofico", "A. TURB": "Muy alta", "A. MON": "Media", "PACiano": "✅✅ (precisión muy alta)" }, "geometry": { "type": "Point", "coordinates": [ -58.03739535, -35.80841501 ] } },
{ "type": "Feature", "properties": { "CodPunto": "LOBO", "Nombre": "Laguna de Lobos", "Municipio": "Lobos", "Tipo": "Laguna", "Laguna Rio": "Laguna De Lobos", "Alerta": 4, "S2 Fecha": "7/6/2026", "S3 Fecha": "7/7/2026", "Fecha": "7/7/2026", "Cloro": 424.2, "Turb": 79.2, "MON": 0.504, "B5": 0.11, "info": "Alerta roja, riesgo alto, estable", "Dinamica": "🟰", "E. Trofico": "Hipereutrofico", "A. TURB": "Muy alta", "A. MON": "Baja", "PACiano": "✅✅ (precisión muy alta)" }, "geometry": { "type": "Point", "coordinates": [ -59.12091231, -35.28236937 ] } },
{ "type": "Feature", "properties": { "CodPunto": "LUJ1", "Nombre": "Club Náutico Luján", "Municipio": "Lujan", "Tipo": "Rio", "Laguna Rio": "Club Nautico El Timon Rio Lujan", "Alerta": null, "S2 Fecha": "7/1/2026", "S3 Fecha": "7/7/2026", "Fecha": "7/7/2026", "Cloro": null, "Turb": null, "MON": null, "B5": null, "info": "SIN DATOS", "Dinamica": "SIN DATOS", "E. Trofico": "sin datos", "A. TURB": "sin datos", "A. MON": "sin datos", "PACiano": "❓ no se estima" }, "geometry": { "type": "Point", "coordinates": [ -59.195639, -34.593889 ] } },
{ "type": "Feature", "properties": { "CodPunto": "LUJ2", "Nombre": "Reserva Natural Quinta Cigordia", "Municipio": "Lujan", "Tipo": "Rio", "Laguna Rio": "Reserva Natural Quinta Cigordia", "Alerta": null, "S2 Fecha": "7/1/2026", "S3 Fecha": "7/7/2026", "Fecha": "7/7/2026", "Cloro": null, "Turb": null, "MON": null, "B5": null, "info": "SIN DATOS", "Dinamica": "SIN DATOS", "E. Trofico": "sin datos", "A. TURB": "sin datos", "A. MON": "sin datos", "PACiano": "❓ no se estima" }, "geometry": { "type": "Point", "coordinates": [ -59.133314, -34.577689 ] } },
{ "type": "Feature", "properties": { "CodPunto": "ATAL", "Nombre": "Rio de La Plata Atalaya", "Municipio": "Magdalena", "Tipo": "Rio", "Laguna Rio": "Rio De La Plata", "Alerta": 1, "S2 Fecha": "7/6/2026", "S3 Fecha": "7/8/2026", "Fecha": "7/8/2026", "Cloro": 0.9, "Turb": 69.0, "MON": 0.628, "B5": 0.084, "info": "Alerta verde, riesgo nulo a bajo y estable", "Dinamica": "🟰", "E. Trofico": "oligotrofico", "A. TURB": "Alta", "A. MON": "Baja", "PACiano": "✅✅ (precisión muy alta)" }, "geometry": { "type": "Point", "coordinates": [ -57.52590481, -35.00115326 ] } },
{ "type": "Feature", "properties": { "CodPunto": "MAGD", "Nombre": "Rio de La Plata Magdalena", "Municipio": "Magdalena", "Tipo": "Rio", "Laguna Rio": "Rio De La Plata", "Alerta": 1, "S2 Fecha": "7/6/2026", "S3 Fecha": "7/8/2026", "Fecha": "7/8/2026", "Cloro": 1.1, "Turb": 73.1, "MON": 0.618, "B5": 0.089, "info": "Alerta verde, riesgo nulo a bajo y estable", "Dinamica": "🟰", "E. Trofico": "oligotrofico", "A. TURB": "Alta", "A. MON": "Baja", "PACiano": "✅✅ (precisión muy alta)" }, "geometry": { "type": "Point", "coordinates": [ -57.49544978, -35.01544081 ] } },
{ "type": "Feature", "properties": { "CodPunto": "KHUI", "Nombre": "Laguna Kakel Huincul", "Municipio": "Maipu", "Tipo": "Laguna", "Laguna Rio": "Kakel Huincul", "Alerta": 1, "S2 Fecha": "7/3/2026", "S3 Fecha": "7/7/2026", "Fecha": "7/7/2026", "Cloro": 6.1, "Turb": 13.2, "MON": 2.041, "B5": 0.029, "info": "Alerta verde, riesgo nulo a bajo y estable", "Dinamica": "🟰", "E. Trofico": "oligotrofico", "A. TURB": "Baja", "A. MON": "Alta", "PACiano": "✅✅ (precisión muy alta)" }, "geometry": { "type": "Point", "coordinates": [ -57.77552522, -36.79315564 ] } },
{ "type": "Feature", "properties": { "CodPunto": "YAM1", "Nombre": "Laguna Yamahuida", "Municipio": "Maipu", "Tipo": "Laguna", "Laguna Rio": "Laguna Yamahuida", "Alerta": 3, "S2 Fecha": "7/3/2026", "S3 Fecha": "7/7/2026", "Fecha": "7/7/2026", "Cloro": 180.7, "Turb": 59.5, "MON": 1.487, "B5": 0.058, "info": "Alerta naranja, riesgo moderado a alto, en disminución", "Dinamica": "⬇️", "E. Trofico": "Eutrofico", "A. TURB": "Alta", "A. MON": "Media", "PACiano": "✅ (precisión alta)" }, "geometry": { "type": "Point", "coordinates": [ -57.70591791, -36.87387893 ] } },
{ "type": "Feature", "properties": { "CodPunto": "MCHIC", "Nombre": "Laguna Mar Chiquita", "Municipio": "Mar Chiquita", "Tipo": "Laguna", "Laguna Rio": "MarChiquita MarChiquita", "Alerta": 1, "S2 Fecha": "7/3/2026", "S3 Fecha": "7/7/2026", "Fecha": "7/7/2026", "Cloro": 144.9, "Turb": 11.4, "MON": 0.573, "B5": 0.048, "info": "Alerta verde, riesgo nulo a bajo y estable", "Dinamica": "🟰", "E. Trofico": "Eutrofico", "A. TURB": "Baja", "A. MON": "Baja", "PACiano": "✅✅ (precisión muy alta)" }, "geometry": { "type": "Point", "coordinates": [ -57.39166781548176, -37.66800158551009 ] } },
{ "type": "Feature", "properties": { "CodPunto": "PMM", "Nombre": "Parque Municipal Merdeces", "Municipio": "Mercedes", "Tipo": "Rio", "Laguna Rio": "Rio Lujan", "Alerta": null, "S2 Fecha": "7/1/2026", "S3 Fecha": "7/7/2026", "Fecha": "7/7/2026", "Cloro": null, "Turb": null, "MON": null, "B5": null, "info": "SIN DATOS", "Dinamica": "SIN DATOS", "E. Trofico": "sin datos", "A. TURB": "sin datos", "A. MON": "sin datos", "PACiano": "❓ no se estima" }, "geometry": { "type": "Point", "coordinates": [ -59.439779813687586, -34.635556849256211 ] } },
{ "type": "Feature", "properties": { "CodPunto": "MONTE", "Nombre": "San Miguel del Monte", "Municipio": "Monte", "Tipo": "Laguna", "Laguna Rio": "San Miguel Del Monte", "Alerta": 4, "S2 Fecha": "7/1/2026", "S3 Fecha": "7/7/2026", "Fecha": "7/7/2026", "Cloro": null, "Turb": null, "MON": null, "B5": null, "info": "Alerta roja, riesgo alto, estable", "Dinamica": "🟰", "E. Trofico": "sin datos", "A. TURB": "sin datos", "A. MON": "sin datos", "PACiano": "❓ no se estima" }, "geometry": { "type": "Point", "coordinates": [ -58.805472, -35.461583 ] } },
{ "type": "Feature", "properties": { "CodPunto": "SALB1", "Nombre": "Canal Salado en Belgrano 1", "Municipio": "Monte", "Tipo": "Canal", "Laguna Rio": "Canal Salado En Belgrano", "Alerta": null, "S2 Fecha": "7/3/2026", "S3 Fecha": "7/7/2026", "Fecha": "7/7/2026", "Cloro": null, "Turb": null, "MON": null, "B5": null, "info": "SIN DATOS", "Dinamica": "SIN DATOS", "E. Trofico": "sin datos", "A. TURB": "sin datos", "A. MON": "sin datos", "PACiano": "❓ no se estima" }, "geometry": { "type": "Point", "coordinates": [ -58.49660224, -35.74848197 ] } },
{ "type": "Feature", "properties": { "CodPunto": "SALB2", "Nombre": "Canal Salado en Belgrano 2", "Municipio": "Monte", "Tipo": "Canal", "Laguna Rio": "Canal Salado Aliviador En Belgrano", "Alerta": null, "S2 Fecha": "7/3/2026", "S3 Fecha": "7/7/2026", "Fecha": "7/7/2026", "Cloro": null, "Turb": null, "MON": null, "B5": null, "info": "SIN DATOS", "Dinamica": "SIN DATOS", "E. Trofico": "sin datos", "A. TURB": "sin datos", "A. MON": "sin datos", "PACiano": "❓ no se estima" }, "geometry": { "type": "Point", "coordinates": [ -58.50434722, -35.74558457 ] } },
{ "type": "Feature", "properties": { "CodPunto": "SALM", "Nombre": "Rio Saldao Puente R41", "Municipio": "Monte", "Tipo": "Rio", "Laguna Rio": "Rio Salado Puente Ruta CuarentaYuno", "Alerta": null, "S2 Fecha": "7/1/2026", "S3 Fecha": "7/7/2026", "Fecha": "7/7/2026", "Cloro": null, "Turb": null, "MON": null, "B5": null, "info": "SIN DATOS", "Dinamica": "SIN DATOS", "E. Trofico": "sin datos", "A. TURB": "sin datos", "A. MON": "sin datos", "PACiano": "❓ no se estima" }, "geometry": { "type": "Point", "coordinates": [ -58.53728428, -35.72615944 ] } },
{ "type": "Feature", "properties": { "CodPunto": "SAGRAN", "Nombre": "Laguna Sauce Grande", "Municipio": "Monte Hermoso", "Tipo": "Laguna", "Laguna Rio": "Laguna Sauce Grande", "Alerta": 3, "S2 Fecha": "7/6/2026", "S3 Fecha": "7/7/2026", "Fecha": "7/7/2026", "Cloro": 170.4, "Turb": 72.1, "MON": 0.368, "B5": 0.119, "info": "Alerta naranja, riesgo moderado a alto, estable", "Dinamica": "🟰", "E. Trofico": "Eutrofico", "A. TURB": "Alta", "A. MON": "Baja", "PACiano": "✅✅ (precisión muy alta)" }, "geometry": { "type": "Point", "coordinates": [ -61.383083, -38.934333 ] } },
{ "type": "Feature", "properties": { "CodPunto": "DROG", "Nombre": "Dique Roggero", "Municipio": "Moreno", "Tipo": "Dique", "Laguna Rio": "Dique Roggero", "Alerta": 1, "S2 Fecha": null, "S3 Fecha": "7/7/2026", "Fecha": "7/7/2026", "Cloro": null, "Turb": null, "MON": null, "B5": null, "info": "Alerta verde, riesgo nulo a bajo y estable", "Dinamica": "🟰", "E. Trofico": "sin datos", "A. TURB": "sin datos", "A. MON": "sin datos", "PACiano": "❓ no se estima" }, "geometry": { "type": "Point", "coordinates": [ -58.86546382, -34.679654 ] } },
{ "type": "Feature", "properties": { "CodPunto": "CPNAV", "Nombre": "Club de Pesca Navarro", "Municipio": "Navarro", "Tipo": "Laguna", "Laguna Rio": "Laguna Navarro", "Alerta": 2, "S2 Fecha": "7/1/2026", "S3 Fecha": "7/7/2026", "Fecha": "7/7/2026", "Cloro": 113.2, "Turb": 26.3, "MON": 1.098, "B5": 0.023, "info": "Alerta amarillo, riesgo bajo a moderado, estable", "Dinamica": "🟰", "E. Trofico": "Eutrofico", "A. TURB": "Baja", "A. MON": "Media", "PACiano": "✅✅ (precisión muy alta)" }, "geometry": { "type": "Point", "coordinates": [ -59.286909327885887, -35.012444336128098 ] } },
{ "type": "Feature", "properties": { "CodPunto": "CANIAD", "Nombre": "Laguna Cañadón", "Municipio": "Pehuajo", "Tipo": "Laguna", "Laguna Rio": "Laguna Caniadon", "Alerta": 2, "S2 Fecha": null, "S3 Fecha": "7/7/2026", "Fecha": "7/7/2026", "Cloro": null, "Turb": null, "MON": null, "B5": null, "info": "Alerta amarillo, riesgo bajo a moderado, estable", "Dinamica": "🟰", "E. Trofico": "sin datos", "A. TURB": "sin datos", "A. MON": "sin datos", "PACiano": "❓ no se estima" }, "geometry": { "type": "Point", "coordinates": [ -61.84809208, -35.76604051 ] } },
{ "type": "Feature", "properties": { "CodPunto": "LASAL", "Nombre": "Laguna La Salada de Pehuajó", "Municipio": "Pehuajo", "Tipo": "Laguna", "Laguna Rio": "Laguna La Salada Pehuajo", "Alerta": 2, "S2 Fecha": null, "S3 Fecha": "7/7/2026", "Fecha": "7/7/2026", "Cloro": null, "Turb": null, "MON": null, "B5": null, "info": "Alerta amarillo, riesgo bajo a moderado, estable", "Dinamica": "🟰", "E. Trofico": "sin datos", "A. TURB": "sin datos", "A. MON": "sin datos", "PACiano": "❓ no se estima" }, "geometry": { "type": "Point", "coordinates": [ -61.90826889, -35.78543081 ] } },
{ "type": "Feature", "properties": { "CodPunto": "PEJEC", "Nombre": "Rio de La Plata Club Pejerrey de Quilmes", "Municipio": "Quilmes", "Tipo": "Rio", "Laguna Rio": "Rio De La Plata", "Alerta": 1, "S2 Fecha": "7/6/2026", "S3 Fecha": "7/8/2026", "Fecha": "7/8/2026", "Cloro": null, "Turb": null, "MON": null, "B5": null, "info": "Alerta verde, riesgo nulo a bajo y estable", "Dinamica": "🟰", "E. Trofico": "sin datos", "A. TURB": "sin datos", "A. MON": "sin datos", "PACiano": "❓ no se estima" }, "geometry": { "type": "Point", "coordinates": [ -58.20996141, -34.70172 ] } },
{ "type": "Feature", "properties": { "CodPunto": "RAMPAR", "Nombre": "Bajada Calle Gomendio", "Municipio": "Ramallo", "Tipo": "Rio", "Laguna Rio": "Rio Parana", "Alerta": 1, "S2 Fecha": "7/6/2026", "S3 Fecha": "7/7/2026", "Fecha": "7/7/2026", "Cloro": 10.8, "Turb": 28.8, "MON": 0.351, "B5": 0.067, "info": "Alerta verde, riesgo nulo a bajo y estable", "Dinamica": "🟰", "E. Trofico": "oligotrofico", "A. TURB": "Baja", "A. MON": "Baja", "PACiano": "✅✅ (precisión muy alta)" }, "geometry": { "type": "Point", "coordinates": [ -59.991528145318817, -33.478637394002334 ] } },
{ "type": "Feature", "properties": { "CodPunto": "CZ1", "Nombre": "Laguna Cuero de Zorro -1", "Municipio": "Rivadavia", "Tipo": "Laguna", "Laguna Rio": "Cuero De Zorro", "Alerta": 1, "S2 Fecha": "7/2/2026", "S3 Fecha": "7/7/2026", "Fecha": "7/7/2026", "Cloro": 99.5, "Turb": 23.0, "MON": 2.435, "B5": 0.023, "info": "Alerta verde, riesgo nulo a bajo pero en aumento", "Dinamica": "⬆️", "E. Trofico": "Eutrofico", "A. TURB": "Baja", "A. MON": "Alta", "PACiano": "✅ (precisión alta)" }, "geometry": { "type": "Point", "coordinates": [ -62.91277592, -35.75534241 ] } },
{ "type": "Feature", "properties": { "CodPunto": "RSALRP", "Nombre": "Rio Salado punto Roque Perez", "Municipio": "Roque Perez", "Tipo": "Rio", "Laguna Rio": "Rio Salado", "Alerta": null, "S2 Fecha": "7/6/2026", "S3 Fecha": "7/7/2026", "Fecha": "7/7/2026", "Cloro": null, "Turb": null, "MON": null, "B5": null, "info": "SIN DATOS", "Dinamica": "SIN DATOS", "E. Trofico": "sin datos", "A. TURB": "sin datos", "A. MON": "sin datos", "PACiano": "❓ no se estima" }, "geometry": { "type": "Point", "coordinates": [ -59.32361902, -35.37374897 ] } },
{ "type": "Feature", "properties": { "CodPunto": "ARECOP", "Nombre": "club de pescadores, San Antonio de Areco, Rio Areco de San Antonio de Areco", "Municipio": "San Antonio de Areco", "Tipo": "Rio", "Laguna Rio": "Rio Areco Club De Pescadores", "Alerta": null, "S2 Fecha": null, "S3 Fecha": "7/7/2026", "Fecha": "7/7/2026", "Cloro": null, "Turb": null, "MON": null, "B5": null, "info": "SIN DATOS", "Dinamica": "SIN DATOS", "E. Trofico": "sin datos", "A. TURB": "sin datos", "A. MON": "sin datos", "PACiano": "❓ no se estima" }, "geometry": { "type": "Point", "coordinates": [ -59.49925, -34.240528 ] } },
{ "type": "Feature", "properties": { "CodPunto": "RPBAL", "Nombre": "Balneario San Antonio de Areco, Rio Areco de San Antonio de Areco", "Municipio": "San Antonio de Areco", "Tipo": "Rio", "Laguna Rio": "Rio Areco Balneario San Antonio De Areco", "Alerta": null, "S2 Fecha": null, "S3 Fecha": "7/7/2026", "Fecha": "7/7/2026", "Cloro": null, "Turb": null, "MON": null, "B5": null, "info": "SIN DATOS", "Dinamica": "SIN DATOS", "E. Trofico": "sin datos", "A. TURB": "sin datos", "A. MON": "sin datos", "PACiano": "❓ no se estima" }, "geometry": { "type": "Point", "coordinates": [ -59.476444, -34.240611 ] } },
{ "type": "Feature", "properties": { "CodPunto": "BORCH", "Nombre": "Destacamento Guardaparques A° Borches,_San Fernando", "Municipio": "San Fernando", "Tipo": "Arroyo", "Laguna Rio": "Destacamento Guardaparques Arroyo Borches", "Alerta": null, "S2 Fecha": null, "S3 Fecha": "7/8/2026", "Fecha": "7/8/2026", "Cloro": null, "Turb": null, "MON": null, "B5": null, "info": "SIN DATOS", "Dinamica": "SIN DATOS", "E. Trofico": "sin datos", "A. TURB": "sin datos", "A. MON": "sin datos", "PACiano": "❓ no se estima" }, "geometry": { "type": "Point", "coordinates": [ -58.443278, -34.074917 ] } },
{ "type": "Feature", "properties": { "CodPunto": "NESP", "Nombre": "Nueva Esperanza San Fernando", "Municipio": "San Fernando", "Tipo": "Rio", "Laguna Rio": "Rio Carabelas Grande En Nueva Esperanza", "Alerta": null, "S2 Fecha": null, "S3 Fecha": "7/8/2026", "Fecha": "7/8/2026", "Cloro": null, "Turb": null, "MON": null, "B5": null, "info": "SIN DATOS", "Dinamica": "SIN DATOS", "E. Trofico": "sin datos", "A. TURB": "sin datos", "A. MON": "sin datos", "PACiano": "❓ no se estima" }, "geometry": { "type": "Point", "coordinates": [ -58.783194, -34.108083 ] } },
{ "type": "Feature", "properties": { "CodPunto": "PNAUT", "Nombre": "Parque Nautico San Fernando de San Fernando", "Municipio": "San Fernando", "Tipo": "Rio", "Laguna Rio": "Parque Nautico San Fernando", "Alerta": 1, "S2 Fecha": null, "S3 Fecha": "7/8/2026", "Fecha": "7/8/2026", "Cloro": null, "Turb": null, "MON": null, "B5": null, "info": "Alerta verde, riesgo nulo a bajo y estable", "Dinamica": "🟰", "E. Trofico": "sin datos", "A. TURB": "sin datos", "A. MON": "sin datos", "PACiano": "❓ no se estima" }, "geometry": { "type": "Point", "coordinates": [ -58.53016266, -34.44189987 ] } },
{ "type": "Feature", "properties": { "CodPunto": "TAN1", "Nombre": "Dique Tandil", "Municipio": "Tandil", "Tipo": "Dique", "Laguna Rio": "Dique Tandil", "Alerta": 3, "S2 Fecha": "7/6/2026", "S3 Fecha": "7/7/2026", "Fecha": "7/7/2026", "Cloro": null, "Turb": null, "MON": null, "B5": null, "info": "Alerta naranja, riesgo moderado a alto, estable", "Dinamica": "🟰", "E. Trofico": "sin datos", "A. TURB": "sin datos", "A. MON": "sin datos", "PACiano": "❓ no se estima" }, "geometry": { "type": "Point", "coordinates": [ -59.130285, -37.34456748 ] } },
{ "type": "Feature", "properties": { "CodPunto": "TAP2", "Nombre": "Balneario sitio 3 Tapalque", "Municipio": "Tapalque", "Tipo": "Arroyo", "Laguna Rio": "Arroyo Tapalque Balneario Sitio Tres", "Alerta": null, "S2 Fecha": "7/6/2026", "S3 Fecha": "7/7/2026", "Fecha": "7/7/2026", "Cloro": null, "Turb": null, "MON": null, "B5": null, "info": "SIN DATOS", "Dinamica": "SIN DATOS", "E. Trofico": "sin datos", "A. TURB": "sin datos", "A. MON": "sin datos", "PACiano": "❓ no se estima" }, "geometry": { "type": "Point", "coordinates": [ -60.034861, -36.348417 ] } },
{ "type": "Feature", "properties": { "CodPunto": "PTELLO", "Nombre": "Punta Tello sitio 2", "Municipio": "Tapalque", "Tipo": "Arroyo", "Laguna Rio": "Arroyo Tapalque Punta Tello Sitio Dos", "Alerta": null, "S2 Fecha": "7/6/2026", "S3 Fecha": "7/7/2026", "Fecha": "7/7/2026", "Cloro": null, "Turb": null, "MON": null, "B5": null, "info": "SIN DATOS", "Dinamica": "SIN DATOS", "E. Trofico": "sin datos", "A. TURB": "sin datos", "A. MON": "sin datos", "PACiano": "❓ no se estima" }, "geometry": { "type": "Point", "coordinates": [ -60.031889, -36.372889 ] } },
{ "type": "Feature", "properties": { "CodPunto": "ABRV", "Nombre": "AVV (Arroyo Abravieja)", "Municipio": "Tigre", "Tipo": "Arroyo", "Laguna Rio": "Avv Arroyo Abravieja", "Alerta": null, "S2 Fecha": null, "S3 Fecha": "7/8/2026", "Fecha": "7/8/2026", "Cloro": null, "Turb": null, "MON": null, "B5": null, "info": "SIN DATOS", "Dinamica": "SIN DATOS", "E. Trofico": "sin datos", "A. TURB": "sin datos", "A. MON": "sin datos", "PACiano": "❓ no se estima" }, "geometry": { "type": "Point", "coordinates": [ -58.557389, -34.411222 ] } },
{ "type": "Feature", "properties": { "CodPunto": "GELVEZ", "Nombre": "D5 (Arroyo Gelvez)", "Municipio": "Tigre", "Tipo": "Arroyo", "Laguna Rio": "Arroyo Gelvez", "Alerta": 1, "S2 Fecha": null, "S3 Fecha": "7/8/2026", "Fecha": "7/8/2026", "Cloro": null, "Turb": null, "MON": null, "B5": null, "info": "Alerta verde, riesgo nulo a bajo y estable", "Dinamica": "🟰", "E. Trofico": "sin datos", "A. TURB": "sin datos", "A. MON": "sin datos", "PACiano": "❓ no se estima" }, "geometry": { "type": "Point", "coordinates": [ -58.59217821, -34.36870564 ] } },
{ "type": "Feature", "properties": { "CodPunto": "ANQ", "Nombre": "RA (Rio Anquetera)", "Municipio": "Tigre", "Tipo": "Rio", "Laguna Rio": "Rio Anquetera", "Alerta": null, "S2 Fecha": null, "S3 Fecha": "7/8/2026", "Fecha": "7/8/2026", "Cloro": null, "Turb": null, "MON": null, "B5": null, "info": "SIN DATOS", "Dinamica": "SIN DATOS", "E. Trofico": "sin datos", "A. TURB": "sin datos", "A. MON": "sin datos", "PACiano": "❓ no se estima" }, "geometry": { "type": "Point", "coordinates": [ -58.583167, -34.318306 ] } },
{ "type": "Feature", "properties": { "CodPunto": "RCAP", "Nombre": "RCARA (Rio Carapachay)", "Municipio": "Tigre", "Tipo": "Rio", "Laguna Rio": "Rio Carapachay", "Alerta": null, "S2 Fecha": null, "S3 Fecha": "7/8/2026", "Fecha": "7/8/2026", "Cloro": null, "Turb": null, "MON": null, "B5": null, "info": "SIN DATOS", "Dinamica": "SIN DATOS", "E. Trofico": "sin datos", "A. TURB": "sin datos", "A. MON": "sin datos", "PACiano": "❓ no se estima" }, "geometry": { "type": "Point", "coordinates": [ -58.62675, -34.361611 ] } },
{ "type": "Feature", "properties": { "CodPunto": "PERLA", "Nombre": "RSALP (Arroyo La Perla y Rio Sarmiento)", "Municipio": "Tigre", "Tipo": "Arroyo", "Laguna Rio": "Arroyo La Perla Intereseccion Rio Sarmiento", "Alerta": 1, "S2 Fecha": null, "S3 Fecha": "7/8/2026", "Fecha": "7/8/2026", "Cloro": null, "Turb": null, "MON": null, "B5": null, "info": "Alerta verde, riesgo nulo a bajo y estable", "Dinamica": "🟰", "E. Trofico": "sin datos", "A. TURB": "sin datos", "A. MON": "sin datos", "PACiano": "❓ no se estima" }, "geometry": { "type": "Point", "coordinates": [ -58.558833, -34.382361 ] } },
{ "type": "Feature", "properties": { "CodPunto": "SARCUR", "Nombre": "RSARC (Rio Sarmiento entre Arroyo Reyes y Curubica)", "Municipio": "Tigre", "Tipo": "Rio", "Laguna Rio": "Rio Sarmiento Entre Arroyo Reyes Arroyo Curubica", "Alerta": 1, "S2 Fecha": "7/6/2026", "S3 Fecha": "7/8/2026", "Fecha": "7/8/2026", "Cloro": null, "Turb": null, "MON": null, "B5": null, "info": "Alerta verde, riesgo nulo a bajo y estable", "Dinamica": "🟰", "E. Trofico": "sin datos", "A. TURB": "sin datos", "A. MON": "sin datos", "PACiano": "❓ no se estima" }, "geometry": { "type": "Point", "coordinates": [ -58.57761458, -34.38570002 ] } },
{ "type": "Feature", "properties": { "CodPunto": "DPLP", "Nombre": "Dique Paso de las Piedras", "Municipio": "Tornquist", "Tipo": "Dique", "Laguna Rio": "Dique Paso De Las Piedras", "Alerta": null, "S2 Fecha": "7/1/2026", "S3 Fecha": "7/7/2026", "Fecha": "7/7/2026", "Cloro": null, "Turb": null, "MON": null, "B5": null, "info": "SIN DATOS", "Dinamica": "SIN DATOS", "E. Trofico": "sin datos", "A. TURB": "sin datos", "A. MON": "sin datos", "PACiano": "❓ no se estima" }, "geometry": { "type": "Point", "coordinates": [ -62.1857487, -38.263378 ] } },
{ "type": "Feature", "properties": { "CodPunto": "DLP2", "Nombre": "Dique Las Piedras 2", "Municipio": "Tornquist", "Tipo": "Dique", "Laguna Rio": "Dique Las Piedras", "Alerta": 1, "S2 Fecha": "7/6/2026", "S3 Fecha": "7/7/2026", "Fecha": "7/7/2026", "Cloro": 31.0, "Turb": 21.1, "MON": 1.038, "B5": 0.033, "info": "Alerta verde, riesgo nulo a bajo y estable", "Dinamica": "🟰", "E. Trofico": "Mesotrofico", "A. TURB": "Baja", "A. MON": "Media", "PACiano": "✅✅ (precisión muy alta)" }, "geometry": { "type": "Point", "coordinates": [ -61.75836664, -38.37272735 ] } },
{ "type": "Feature", "properties": { "CodPunto": "CZ2", "Nombre": "Laguna Cuero de Zorro 2", "Municipio": "Trenque Lauquen", "Tipo": "Laguna", "Laguna Rio": "Cuero De Zorro", "Alerta": 1, "S2 Fecha": "7/2/2026", "S3 Fecha": "7/7/2026", "Fecha": "7/7/2026", "Cloro": 101.4, "Turb": 28.0, "MON": 10.855, "B5": 0.02, "info": "Alerta verde, riesgo nulo a bajo pero en aumento", "Dinamica": "⬆️", "E. Trofico": "Eutrofico", "A. TURB": "Baja", "A. MON": "Muy alta", "PACiano": "✅✅ (precisión muy alta)" }, "geometry": { "type": "Point", "coordinates": [ -62.90764975, -35.78476218 ] } },
{ "type": "Feature", "properties": { "CodPunto": "HINOJO", "Nombre": "Laguna Hinojo", "Municipio": "Trenque Lauquen", "Tipo": "Laguna", "Laguna Rio": "Laguna Hinojo", "Alerta": 3, "S2 Fecha": null, "S3 Fecha": "7/7/2026", "Fecha": "7/7/2026", "Cloro": null, "Turb": null, "MON": null, "B5": null, "info": "Alerta naranja, riesgo moderado a alto, estable", "Dinamica": "🟰", "E. Trofico": "sin datos", "A. TURB": "sin datos", "A. MON": "sin datos", "PACiano": "❓ no se estima" }, "geometry": { "type": "Point", "coordinates": [ -62.49421275, -35.9256205 ] } },
{ "type": "Feature", "properties": { "CodPunto": "TUN1", "Nombre": "Las Tunas 1", "Municipio": "Trenque Lauquen", "Tipo": "Laguna", "Laguna Rio": "Laguna Las Tunas", "Alerta": 1, "S2 Fecha": null, "S3 Fecha": "7/7/2026", "Fecha": "7/7/2026", "Cloro": null, "Turb": null, "MON": null, "B5": null, "info": "Alerta verde, riesgo nulo a bajo y estable", "Dinamica": "🟰", "E. Trofico": "sin datos", "A. TURB": "sin datos", "A. MON": "sin datos", "PACiano": "❓ no se estima" }, "geometry": { "type": "Point", "coordinates": [ -62.43452697, -35.97278686 ] } },
{ "type": "Feature", "properties": { "CodPunto": "TUN2", "Nombre": "Las Tunas 2", "Municipio": "Trenque Lauquen", "Tipo": "Laguna", "Laguna Rio": "Laguna Las Tunas", "Alerta": 1, "S2 Fecha": null, "S3 Fecha": "7/7/2026", "Fecha": "7/7/2026", "Cloro": null, "Turb": null, "MON": null, "B5": null, "info": "Alerta verde, riesgo nulo a bajo y estable", "Dinamica": "🟰", "E. Trofico": "sin datos", "A. TURB": "sin datos", "A. MON": "sin datos", "PACiano": "❓ no se estima" }, "geometry": { "type": "Point", "coordinates": [ -62.50829928, -36.01268186 ] } },
{ "type": "Feature", "properties": { "CodPunto": "TIG", "Nombre": "Laguna Tres Arroyos", "Municipio": "Tres Arroyos", "Tipo": "Laguna", "Laguna Rio": "La Tigra", "Alerta": 1, "S2 Fecha": "7/6/2026", "S3 Fecha": "7/7/2026", "Fecha": "7/7/2026", "Cloro": 26.9, "Turb": 36.0, "MON": 0.444, "B5": 0.078, "info": "Alerta verde, riesgo nulo a bajo y estable", "Dinamica": "🟰", "E. Trofico": "Mesotrofico", "A. TURB": "Media", "A. MON": "Baja", "PACiano": "✅✅ (precisión muy alta)" }, "geometry": { "type": "Point", "coordinates": [ -60.362609519071299, -38.346405216060184 ] } },
{ "type": "Feature", "properties": { "CodPunto": "VLZ1", "Nombre": "Rio de La Plata 2 - Vicente Lopez", "Municipio": "Vicente Lopez", "Tipo": "Rio", "Laguna Rio": "Rio De La Plata", "Alerta": 1, "S2 Fecha": "7/6/2026", "S3 Fecha": "7/8/2026", "Fecha": "7/8/2026", "Cloro": null, "Turb": null, "MON": null, "B5": null, "info": "Alerta verde, riesgo nulo a bajo y estable", "Dinamica": "🟰", "E. Trofico": "sin datos", "A. TURB": "sin datos", "A. MON": "sin datos", "PACiano": "❓ no se estima" }, "geometry": { "type": "Point", "coordinates": [ -58.46470993, -34.51650797 ] } },
{ "type": "Feature", "properties": { "CodPunto": "CHAS", "Nombre": "Laguna Chasicó", "Municipio": "Villarino", "Tipo": "Laguna", "Laguna Rio": "Chasico", "Alerta": 1, "S2 Fecha": "7/1/2026", "S3 Fecha": "7/7/2026", "Fecha": "7/7/2026", "Cloro": 1.6, "Turb": 9.2, "MON": 0.984, "B5": 0.017, "info": "Alerta verde, riesgo nulo a bajo y estable", "Dinamica": "🟰", "E. Trofico": "oligotrofico", "A. TURB": "Baja", "A. MON": "Media", "PACiano": "✅✅ (precisión muy alta)" }, "geometry": { "type": "Point", "coordinates": [ -63.07155844, -38.63126477 ] } },
{ "type": "Feature", "properties": { "CodPunto": "GALL", "Nombre": "Laguna Las Gallaretas", "Municipio": "Mercedes", "Tipo": "Laguna", "Laguna Rio": "Laguna de las Gallaretas", "Alerta": null, "S2 Fecha": "7/1/2026", "S3 Fecha": "7/7/2026", "Fecha": "7/7/2026", "Cloro": null, "Turb": null, "MON": null, "B5": null, "info": "SIN DATOS", "Dinamica": "SIN DATOS", "E. Trofico": "sin datos", "A. TURB": "sin datos", "A. MON": "sin datos", "PACiano": "❓ no se estima" }, "geometry": { "type": "Point", "coordinates": [ -59.301559488831074, -34.642917019552833 ] } },
{ "type": "Feature", "properties": { "CodPunto": "GLI", "Nombre": "Laguna Gloptodontes", "Municipio": "Mercedes", "Tipo": "Laguna", "Laguna Rio": "Laguna Gliptodontes", "Alerta": null, "S2 Fecha": "7/1/2026", "S3 Fecha": "7/7/2026", "Fecha": "7/7/2026", "Cloro": null, "Turb": null, "MON": null, "B5": null, "info": "SIN DATOS", "Dinamica": "SIN DATOS", "E. Trofico": "sin datos", "A. TURB": "sin datos", "A. MON": "sin datos", "PACiano": "❓ no se estima" }, "geometry": { "type": "Point", "coordinates": [ -59.300483640201364, -34.644440421212508 ] } },
{ "type": "Feature", "properties": { "CodPunto": "RMUN", "Nombre": "Balneario Municiipal Rauch - Laguna", "Municipio": "Rauch", "Tipo": "Arroyo", "Laguna Rio": "Lago del balneario", "Alerta": null, "S2 Fecha": null, "S3 Fecha": "7/7/2026", "Fecha": "7/7/2026", "Cloro": null, "Turb": null, "MON": null, "B5": null, "info": "SIN DATOS", "Dinamica": "SIN DATOS", "E. Trofico": "sin datos", "A. TURB": "sin datos", "A. MON": "sin datos", "PACiano": "❓ no se estima" }, "geometry": { "type": "Point", "coordinates": [ -59.103861544634825, -36.768410909755545 ] } }
]
}
