{
"type": "FeatureCollection",
"name": "CianoAlert_ADA_20260902",
"crs": { "type": "name", "properties": { "name": "urn:ogc:def:crs:OGC:1.3:CRS84" } },
"features": [
{ "type": "Feature", "properties": { "CodPunto": "PUAN", "Nombre": "Laguna Puan", "Municipio": "Puan", "Tipo": "Laguna", "Laguna Rio": "Laguna Puan", "Alerta": 1, "S2 Fecha": "28/08/2026", "S3 Fecha": "30/08/2026", "Fecha": "30/08/2026", "Dinamica": "🟰", "info": "Alerta verde, riesgo nulo a bajo y estable", "PACiano": "✅✅ (precisión muy alta)", "Cloro": 5.6, "Turb": 25.885, "MON": 0.915, "B5": 0.028, "E. Trofico": "oligotrofico", "A. Turb": "Baja", "A. MON": "Media" }, "geometry": { "type": "Point", "coordinates": [ -62.801683474524971, -37.557180659074071 ] } },
{ "type": "Feature", "properties": { "CodPunto": "LCHIL", "Nombre": "Laguna los Chilenos", "Municipio": "Saavedra", "Tipo": "Laguna", "Laguna Rio": "Laguna Los Chilenos", "Alerta": 1, "S2 Fecha": "28/08/2026", "S3 Fecha": "30/08/2026", "Fecha": "30/08/2026", "Dinamica": "🟰", "info": "Alerta verde, riesgo nulo a bajo y estable", "PACiano": "✅✅ (precisión muy alta)", "Cloro": 0.7, "Turb": 28.301, "MON": 0.37, "B5": 0.084, "E. Trofico": "oligotrofico", "A. Turb": "Baja", "A. MON": "Baja" }, "geometry": { "type": "Point", "coordinates": [ -62.566592, -37.882703548219162 ] } },
{ "type": "Feature", "properties": { "CodPunto": "VDO", "Nombre": "Laguna Del Venado", "Municipio": "Guamini", "Tipo": "Laguna", "Laguna Rio": "Laguna Del Venado", "Alerta": 1, "S2 Fecha": "28/08/2026", "S3 Fecha": "30/08/2026", "Fecha": "30/08/2026", "Dinamica": "⬆️", "info": "Alerta verde, riesgo nulo a bajo pero en aumento", "PACiano": "✅ (precisión alta)", "Cloro": 258.4, "Turb": 7.621, "MON": 1.353, "B5": 0.033, "E. Trofico": "Hipereutrofico", "A. Turb": "Baja", "A. MON": "Media" }, "geometry": { "type": "Point", "coordinates": [ -62.626374472478915, -37.064198424691071 ] } },
{ "type": "Feature", "properties": { "CodPunto": "BGRDE", "Nombre": "Laguna Blanca Grande", "Municipio": "Olavarria", "Tipo": "Laguna", "Laguna Rio": "Laguna Blanca Grande", "Alerta": 1, "S2 Fecha": "28/08/2026", "S3 Fecha": "30/08/2026", "Fecha": "30/08/2026", "Dinamica": "🟰", "info": "Alerta verde, riesgo nulo a bajo y estable", "PACiano": "✅✅ (precisión muy alta)", "Cloro": 52.2, "Turb": 46.554, "MON": 1.15, "B5": 0.029, "E. Trofico": "Eutrofico", "A. Turb": "Alta", "A. MON": "Media" }, "geometry": { "type": "Point", "coordinates": [ -60.898894948473597, -36.486416109942539 ] } },
{ "type": "Feature", "properties": { "CodPunto": "MULT", "Nombre": "Laguna Las Mulitas", "Municipio": "25 de Mayo", "Tipo": "Laguna", "Laguna Rio": "Laguna Las Mulitas", "Alerta": null, "S2 Fecha": "28/08/2026", "S3 Fecha": "30/08/2026", "Fecha": "30/08/2026", "Dinamica": "SIN DATOS", "info": "SIN DATOS", "PACiano": "❓ no se estima", "Cloro": 187.3, "Turb": 44.701, "MON": 2.367, "B5": 0.037, "E. Trofico": "Eutrofico", "A. Turb": "Media", "A. MON": "Alta" }, "geometry": { "type": "Point", "coordinates": [ -60.156361, -35.437639 ] } },
{ "type": "Feature", "properties": { "CodPunto": "RSN1", "Nombre": "Rio Salado Puente R3", "Municipio": "25 de Mayo", "Tipo": "Rio", "Laguna Rio": "Rio Salado Puente Ruta Tres", "Alerta": 1, "S2 Fecha": "30/08/2026", "S3 Fecha": "30/08/2026", "Fecha": "30/08/2026", "Dinamica": "🟰", "info": "Alerta verde, riesgo nulo a bajo, se detectan plantas acuáticas", "PACiano": "❓ no se estima", "Cloro": 124.2, "Turb": 55.048, "MON": 0.393, "B5": 0.089, "E. Trofico": "Eutrofico", "A. Turb": "Alta", "A. MON": "Baja" }, "geometry": { "type": "Point", "coordinates": [ -59.71791297, -35.22213683 ] } },
{ "type": "Feature", "properties": { "CodPunto": "PSM1", "Nombre": "Laguna del Parque Gral. San Martín", "Municipio": "9 de Julio", "Tipo": "Laguna", "Laguna Rio": "Gral San Martin", "Alerta": 1, "S2 Fecha": "28/08/2026", "S3 Fecha": "30/08/2026", "Fecha": "30/08/2026", "Dinamica": "🟰", "info": "Alerta verde, riesgo nulo a bajo, se detectan plantas acuáticas", "PACiano": "❓ no se estima", "Cloro": 374.7, "Turb": 21.491, "MON": 12.497, "B5": 0.027, "E. Trofico": "Hipereutrofico", "A. Turb": "Baja", "A. MON": "Muy Alta" }, "geometry": { "type": "Point", "coordinates": [ -60.876439738442798, -35.438888971259267 ] } },
{ "type": "Feature", "properties": { "CodPunto": "EPEC", "Nombre": "Epecuen Adolfo  Alsina", "Municipio": "Adolfo Alsina", "Tipo": "Laguna", "Laguna Rio": "Laguna Epecuen", "Alerta": 1, "S2 Fecha": "28/08/2026", "S3 Fecha": "30/08/2026", "Fecha": "30/08/2026", "Dinamica": "🟰", "info": "Alerta verde, riesgo nulo a bajo y estable", "PACiano": "✅✅ (precisión muy alta)", "Cloro": 2.4, "Turb": 5.497, "MON": 0.933, "B5": 0.018, "E. Trofico": "oligotrofico", "A. Turb": "Baja", "A. MON": "Media" }, "geometry": { "type": "Point", "coordinates": [ -62.8466267, -37.14601186 ] } },
{ "type": "Feature", "properties": { "CodPunto": "RIO2", "Nombre": "Puente Achupallas Indacochea RIo Río Salado - Alberti", "Municipio": "Alberti", "Tipo": "Rio", "Laguna Rio": "Puente Achupallas Indacochea Rio Salado", "Alerta": 3, "S2 Fecha": "28/08/2026", "S3 Fecha": "30/08/2026", "Fecha": "30/08/2026", "Dinamica": "🟰", "info": "Alerta naranja, riesgo moderado a alto, estable", "PACiano": "❓ no se estima", "Cloro": null, "Turb": null, "MON": null, "B5": null, "E. Trofico": "sin datos", "A. Turb": "sin datos", "A. MON": "sin datos" }, "geometry": { "type": "Point", "coordinates": [ -60.110403, -35.0887449 ] } },
{ "type": "Feature", "properties": { "CodPunto": "RIO1", "Nombre": "Rio Salado - Puente Ladaga, Alberti_Alberti", "Municipio": "Alberti", "Tipo": "Rio", "Laguna Rio": "Rio Salado Puente Ladaga Alberti", "Alerta": 3, "S2 Fecha": "28/08/2026", "S3 Fecha": "30/08/2026", "Fecha": "30/08/2026", "Dinamica": "🟰", "info": "Alerta naranja, riesgo moderado a alto, estable", "PACiano": "❓ no se estima", "Cloro": 225.7, "Turb": 61.245, "MON": 0.556, "B5": 0.071, "E. Trofico": "Eutrofico", "A. Turb": "Alta", "A. MON": "Media" }, "geometry": { "type": "Point", "coordinates": [ -60.24290343, -35.06801733 ] } },
{ "type": "Feature", "properties": { "CodPunto": "RIO3", "Nombre": "Rio Salado - Ruta 5", "Municipio": "Alberti", "Tipo": "Rio", "Laguna Rio": "Rio Salado Ruta Cinco", "Alerta": 1, "S2 Fecha": "28/08/2026", "S3 Fecha": "30/08/2026", "Fecha": "30/08/2026", "Dinamica": "🟰", "info": "Alerta verde, riesgo nulo a bajo, se detectan plantas acuáticas", "PACiano": "❓ no se estima", "Cloro": 237.8, "Turb": 60.617, "MON": 0.608, "B5": 0.073, "E. Trofico": "Eutrofico", "A. Turb": "Alta", "A. MON": "Media" }, "geometry": { "type": "Point", "coordinates": [ -60.292083, -35.061111 ] } },
{ "type": "Feature", "properties": { "CodPunto": "RDLP", "Nombre": "Rio de La Plata  Avellaneda", "Municipio": "Avellaneda", "Tipo": "Rio", "Laguna Rio": "Rio De La Plata", "Alerta": 1, "S2 Fecha": "30/08/2026", "S3 Fecha": "30/08/2026", "Fecha": "30/08/2026", "Dinamica": "🟰", "info": "Alerta verde, riesgo nulo a bajo y estable", "PACiano": "✅✅ (precisión muy alta)", "Cloro": 2.5, "Turb": 61.014, "MON": 0.667, "B5": 0.067, "E. Trofico": "oligotrofico", "A. Turb": "Alta", "A. MON": "Media" }, "geometry": { "type": "Point", "coordinates": [ -58.29888937, -34.66026369 ] } },
{ "type": "Feature", "properties": { "CodPunto": "SALA1", "Nombre": "Laguna la Saladita Norte", "Municipio": "Avellaneda", "Tipo": "Laguna", "Laguna Rio": "Laguna La Saladita Norte", "Alerta": null, "S2 Fecha": "30/08/2026", "S3 Fecha": "30/08/2026", "Fecha": "30/08/2026", "Dinamica": "SIN DATOS", "info": "SIN DATOS", "PACiano": "❓ no se estima", "Cloro": null, "Turb": null, "MON": null, "B5": null, "E. Trofico": "sin datos", "A. Turb": "sin datos", "A. MON": "sin datos" }, "geometry": { "type": "Point", "coordinates": [ -58.34021914, -34.66571025 ] } },
{ "type": "Feature", "properties": { "CodPunto": "SALA2", "Nombre": "Laguna La Saladita Sur", "Municipio": "Avellaneda", "Tipo": "Laguna", "Laguna Rio": "Laguna La Saladita Sur", "Alerta": 4, "S2 Fecha": "30/08/2026", "S3 Fecha": "30/08/2026", "Fecha": "30/08/2026", "Dinamica": "🟰", "info": "Alerta roja, riesgo alto, estable", "PACiano": "❓ no se estima", "Cloro": 551.5, "Turb": 80.098, "MON": 0.708, "B5": 0.115, "E. Trofico": "Hipereutrofico", "A. Turb": "Muy alta", "A. MON": "Alta" }, "geometry": { "type": "Point", "coordinates": [ -58.34046988, -34.672424429999985 ] } },
{ "type": "Feature", "properties": { "CodPunto": "LAB", "Nombre": "La Laguna La Brava", "Municipio": "Balcarce", "Tipo": "Laguna", "Laguna Rio": "Laguna La Brava", "Alerta": 4, "S2 Fecha": null, "S3 Fecha": "30/08/2026", "Fecha": "30/08/2026", "Dinamica": "🟰", "info": "Alerta roja, riesgo alto, estable", "PACiano": "❓ no se estima", "Cloro": null, "Turb": null, "MON": null, "B5": null, "E. Trofico": "sin datos", "A. Turb": "sin datos", "A. MON": "sin datos" }, "geometry": { "type": "Point", "coordinates": [ -57.97720112, -37.88000183 ] } },
{ "type": "Feature", "properties": { "CodPunto": "ELCH", "Nombre": "Laguna El Chifle", "Municipio": "Benito Juarez", "Tipo": "Laguna", "Laguna Rio": "Laguna El Chifle", "Alerta": 3, "S2 Fecha": "30/08/2026", "S3 Fecha": "30/08/2026", "Fecha": "30/08/2026", "Dinamica": "🟰", "info": "Alerta naranja, riesgo moderado a alto, estable", "PACiano": "❓ no se estima", "Cloro": 140.8, "Turb": 21.044, "MON": 0.592, "B5": 0.069, "E. Trofico": "Eutrofico", "A. Turb": "Baja", "A. MON": "Baja" }, "geometry": { "type": "Point", "coordinates": [ -59.79925, -37.406806 ] } },
{ "type": "Feature", "properties": { "CodPunto": "SANA", "Nombre": "Laguna San Antonio", "Municipio": "Benito Juarez", "Tipo": "Laguna", "Laguna Rio": "Laguna San Antonio", "Alerta": 1, "S2 Fecha": "30/08/2026", "S3 Fecha": "30/08/2026", "Fecha": "30/08/2026", "Dinamica": "🟰", "info": "Alerta verde, riesgo nulo a bajo y estable", "PACiano": "✅✅ (precisión muy alta)", "Cloro": 4.2, "Turb": 26.298, "MON": 0.47, "B5": 0.047, "E. Trofico": "oligotrofico", "A. Turb": "Baja", "A. MON": "Baja" }, "geometry": { "type": "Point", "coordinates": [ -59.874806, -37.629917 ] } },
{ "type": "Feature", "properties": { "CodPunto": "BALN", "Nombre": "Rio de La Plata Balneario Berazategui", "Municipio": "Berazategui", "Tipo": "Rio", "Laguna Rio": "Rio De La Plata", "Alerta": 1, "S2 Fecha": "30/08/2026", "S3 Fecha": "30/08/2026", "Fecha": "30/08/2026", "Dinamica": "🟰", "info": "Alerta verde, riesgo nulo a bajo y estable", "PACiano": "✅✅ (precisión muy alta)", "Cloro": 1.5, "Turb": 62.846, "MON": 0.583, "B5": 0.081, "E. Trofico": "oligotrofico", "A. Turb": "Alta", "A. MON": "Media" }, "geometry": { "type": "Point", "coordinates": [ -58.09891056, -34.73645769 ] } },
{ "type": "Feature", "properties": { "CodPunto": "SGO", "Nombre": "Rio Parana Berisso", "Municipio": "Berisso", "Tipo": "Rio", "Laguna Rio": "Rio Parana", "Alerta": 1, "S2 Fecha": "30/08/2026", "S3 Fecha": "30/08/2026", "Fecha": "30/08/2026", "Dinamica": "🟰", "info": "Alerta verde, riesgo nulo a bajo y estable", "PACiano": "✅✅ (precisión muy alta)", "Cloro": 14.7, "Turb": 25.897, "MON": 0.354, "B5": 0.068, "E. Trofico": "oligotrofico", "A. Turb": "Baja", "A. MON": "Baja" }, "geometry": { "type": "Point", "coordinates": [ -57.88881991, -34.852258379999988 ] } },
{ "type": "Feature", "properties": { "CodPunto": "BERI", "Nombre": "Rio de La Plata Balnerio Berisso-2", "Municipio": "Berisso", "Tipo": "Rio", "Laguna Rio": "Rio De La Plata", "Alerta": 1, "S2 Fecha": "30/08/2026", "S3 Fecha": "30/08/2026", "Fecha": "30/08/2026", "Dinamica": "🟰", "info": "Alerta verde, riesgo nulo a bajo y estable", "PACiano": "✅✅ (precisión muy alta)", "Cloro": 2.1, "Turb": 65.908, "MON": 0.588, "B5": 0.085, "E. Trofico": "oligotrofico", "A. Turb": "Alta", "A. MON": "Media" }, "geometry": { "type": "Point", "coordinates": [ -57.737605251849132, -34.910371474377904 ] } },
{ "type": "Feature", "properties": { "CodPunto": "PALO", "Nombre": "Rio de La Plata Palo Blanco Berisso-3", "Municipio": "Berisso", "Tipo": "Rio", "Laguna Rio": "Rio De La Plata", "Alerta": 1, "S2 Fecha": "30/08/2026", "S3 Fecha": "30/08/2026", "Fecha": "30/08/2026", "Dinamica": "🟰", "info": "Alerta verde, riesgo nulo a bajo y estable", "PACiano": "✅✅ (precisión muy alta)", "Cloro": 1.7, "Turb": 60.166, "MON": 0.601, "B5": 0.078, "E. Trofico": "oligotrofico", "A. Turb": "Alta", "A. MON": "Media" }, "geometry": { "type": "Point", "coordinates": [ -57.83581294, -34.85263799 ] } },
{ "type": "Feature", "properties": { "CodPunto": "RIO4", "Nombre": "Rio Santiago Berisso - 4", "Municipio": "Berisso", "Tipo": "Rio", "Laguna Rio": "Rio Santiago", "Alerta": 1, "S2 Fecha": "30/08/2026", "S3 Fecha": "30/08/2026", "Fecha": "30/08/2026", "Dinamica": "🟰", "info": "Alerta verde, riesgo nulo a bajo y estable", "PACiano": "✅✅ (precisión muy alta)", "Cloro": 2.9, "Turb": 44.352, "MON": 0.326, "B5": 0.075, "E. Trofico": "oligotrofico", "A. Turb": "Media", "A. MON": "Baja" }, "geometry": { "type": "Point", "coordinates": [ -57.87943121, -34.83406603 ] } },
{ "type": "Feature", "properties": { "CodPunto": "BAL", "Nombre": "Rio de La Plata - La Balandra", "Municipio": "Berisso", "Tipo": "Rio", "Laguna Rio": "Rio De La Plata", "Alerta": 1, "S2 Fecha": "30/08/2026", "S3 Fecha": "30/08/2026", "Fecha": "30/08/2026", "Dinamica": "🟰", "info": "Alerta verde, riesgo nulo a bajo y estable", "PACiano": "✅✅ (precisión muy alta)", "Cloro": 2.0, "Turb": 65.522, "MON": 0.598, "B5": 0.083, "E. Trofico": "oligotrofico", "A. Turb": "Alta", "A. MON": "Media" }, "geometry": { "type": "Point", "coordinates": [ -57.713183362077423, -34.91887312298401 ] } },
{ "type": "Feature", "properties": { "CodPunto": "JCHO", "Nombre": "Laguna Juancho", "Municipio": "Bolivar", "Tipo": "Laguna", "Laguna Rio": "Laguna De Juancho", "Alerta": 2, "S2 Fecha": "28/08/2026", "S3 Fecha": "30/08/2026", "Fecha": "30/08/2026", "Dinamica": "🟰", "info": "Alerta amarillo, riesgo bajo a moderado, estable", "PACiano": "✅✅ (precisión muy alta)", "Cloro": 210.1, "Turb": 9.796, "MON": 0.623, "B5": 0.07, "E. Trofico": "Eutrofico", "A. Turb": "Baja", "A. MON": "Baja" }, "geometry": { "type": "Point", "coordinates": [ -61.50824282, -36.69663593 ] } },
{ "type": "Feature", "properties": { "CodPunto": "BRAG", "Nombre": "Laguna Bragado", "Municipio": "Bragado", "Tipo": "Laguna", "Laguna Rio": "Laguna De Bragado", "Alerta": 3, "S2 Fecha": "28/08/2026", "S3 Fecha": "30/08/2026", "Fecha": "30/08/2026", "Dinamica": "⬇️", "info": "Alerta naranja, riesgo moderado a alto, en disminución", "PACiano": "✅ (precisión alta)", "Cloro": 186.2, "Turb": 50.379, "MON": 0.691, "B5": 0.047, "E. Trofico": "Eutrofico", "A. Turb": "Alta", "A. MON": "Baja" }, "geometry": { "type": "Point", "coordinates": [ -60.47505778, -35.08147353 ] } },
{ "type": "Feature", "properties": { "CodPunto": "ROCH", "Nombre": "Camping De Rocha, Rocha", "Municipio": "Bragado", "Tipo": "Laguna", "Laguna Rio": "Camping Laguna De Rocha", "Alerta": 4, "S2 Fecha": "28/08/2026", "S3 Fecha": "30/08/2026", "Fecha": "30/08/2026", "Dinamica": "🟰", "info": "Alerta roja, riesgo alto, estable", "PACiano": "✅✅ (precisión muy alta)", "Cloro": 342.6, "Turb": 65.965, "MON": 0.862, "B5": 0.075, "E. Trofico": "Hipereutrofico", "A. Turb": "Alta", "A. MON": "Alta" }, "geometry": { "type": "Point", "coordinates": [ -60.68567662000001, -34.69990796 ] } },
{ "type": "Feature", "properties": { "CodPunto": "CCAR1", "Nombre": "Compuerta Balneario C. Areco", "Municipio": "Carmen de Areco", "Tipo": "Rio", "Laguna Rio": "Rio Areco", "Alerta": null, "S2 Fecha": "28/08/2026", "S3 Fecha": "30/08/2026", "Fecha": "30/08/2026", "Dinamica": "SIN DATOS", "info": "SIN DATOS", "PACiano": "❓ no se estima", "Cloro": null, "Turb": null, "MON": null, "B5": null, "E. Trofico": "sin datos", "A. Turb": "sin datos", "A. MON": "sin datos" }, "geometry": { "type": "Point", "coordinates": [ -59.8172978721052, -34.351939932340251 ] } },
{ "type": "Feature", "properties": { "CodPunto": "ADE", "Nombre": "Laguna Adela", "Municipio": "Chascomus", "Tipo": "Laguna", "Laguna Rio": "Laguna Adela", "Alerta": 4, "S2 Fecha": "30/08/2026", "S3 Fecha": "30/08/2026", "Fecha": "30/08/2026", "Dinamica": "🟰", "info": "Alerta roja, riesgo alto, estable", "PACiano": "✅✅ (precisión muy alta)", "Cloro": 423.1, "Turb": 71.82, "MON": 0.702, "B5": 0.094, "E. Trofico": "Hipereutrofico", "A. Turb": "Alta", "A. MON": "Alta" }, "geometry": { "type": "Point", "coordinates": [ -57.99356866, -35.68609728 ] } },
{ "type": "Feature", "properties": { "CodPunto": "BURR", "Nombre": "Laguna del Burro", "Municipio": "Chascomus", "Tipo": "Laguna", "Laguna Rio": "Laguna Del Burro", "Alerta": 3, "S2 Fecha": "30/08/2026", "S3 Fecha": "30/08/2026", "Fecha": "30/08/2026", "Dinamica": "⬆️", "info": "Alerta naranja, riesgo moderado a alto, en aumento", "PACiano": "✅ (precisión alta)", "Cloro": 342.8, "Turb": 63.082, "MON": 0.956, "B5": 0.071, "E. Trofico": "Hipereutrofico", "A. Turb": "Alta", "A. MON": "Muy Alta" }, "geometry": { "type": "Point", "coordinates": [ -57.92938006, -35.68509433 ] } },
{ "type": "Feature", "properties": { "CodPunto": "ESQ1", "Nombre": "Laguna Esquivel", "Municipio": "Chascomus", "Tipo": "Laguna", "Laguna Rio": "Laguna Esquivel", "Alerta": null, "S2 Fecha": "30/08/2026", "S3 Fecha": "30/08/2026", "Fecha": "30/08/2026", "Dinamica": "SIN DATOS", "info": "SIN DATOS", "PACiano": "❓ no se estima", "Cloro": null, "Turb": null, "MON": 3.649, "B5": null, "E. Trofico": "sin datos", "A. Turb": "sin datos", "A. MON": "sin datos" }, "geometry": { "type": "Point", "coordinates": [ -58.22290918, -35.79297381 ] } },
{ "type": "Feature", "properties": { "CodPunto": "CHAS2", "Nombre": "Laguna Chascomús", "Municipio": "Chascomus", "Tipo": "Laguna", "Laguna Rio": "Laguna De Chascomus", "Alerta": 3, "S2 Fecha": "30/08/2026", "S3 Fecha": "30/08/2026", "Fecha": "30/08/2026", "Dinamica": "⬆️", "info": "Alerta naranja, riesgo moderado a alto, en aumento", "PACiano": "✅ (precisión alta)", "Cloro": 333.6, "Turb": 59.985, "MON": 0.854, "B5": 0.062, "E. Trofico": "Hipereutrofico", "A. Turb": "Alta", "A. MON": "Media" }, "geometry": { "type": "Point", "coordinates": [ -58.00152607, -35.59030192 ] } },
{ "type": "Feature", "properties": { "CodPunto": "CHASMUELLE", "Nombre": "Muellle Laguna Chascomús", "Municipio": "Chascomus", "Tipo": "Laguna", "Laguna Rio": "Laguna De Chascomus", "Alerta": 3, "S2 Fecha": "30/08/2026", "S3 Fecha": "30/08/2026", "Fecha": "30/08/2026", "Dinamica": "⬆️", "info": "Alerta naranja, riesgo moderado a alto, en aumento", "PACiano": "✅ (precisión alta)", "Cloro": 324.1, "Turb": 61.846, "MON": 0.745, "B5": 0.069, "E. Trofico": "Hipereutrofico", "A. Turb": "Alta", "A. MON": "Alta" }, "geometry": { "type": "Point", "coordinates": [ -58.027604, -35.59141631 ] } },
{ "type": "Feature", "properties": { "CodPunto": "LIM1", "Nombre": "La Laguna La Limipia", "Municipio": "Chascomus", "Tipo": "Laguna", "Laguna Rio": "Laguna La Limpia", "Alerta": 1, "S2 Fecha": "30/08/2026", "S3 Fecha": "30/08/2026", "Fecha": "30/08/2026", "Dinamica": "🟰", "info": "Alerta verde, riesgo nulo a bajo y estable", "PACiano": "✅✅ (precisión muy alta)", "Cloro": 15.0, "Turb": 28.2, "MON": 0.199, "B5": 0.134, "E. Trofico": "oligotrofico", "A. Turb": "Baja", "A. MON": "Baja" }, "geometry": { "type": "Point", "coordinates": [ -57.81513465, -35.60999172 ] } },
{ "type": "Feature", "properties": { "CodPunto": "MUL1", "Nombre": "Laguna Las Mulas", "Municipio": "Chascomus", "Tipo": "Laguna", "Laguna Rio": "Laguna Las Mulas", "Alerta": 1, "S2 Fecha": "30/08/2026", "S3 Fecha": "30/08/2026", "Fecha": "30/08/2026", "Dinamica": "🟰", "info": "Alerta verde, riesgo nulo a bajo, se detectan plantas acuáticas", "PACiano": "❓ no se estima", "Cloro": null, "Turb": null, "MON": 0.589, "B5": null, "E. Trofico": "sin datos", "A. Turb": "sin datos", "A. MON": "sin datos" }, "geometry": { "type": "Point", "coordinates": [ -57.90108163, -35.53351702 ] } },
{ "type": "Feature", "properties": { "CodPunto": "VIT1", "Nombre": "Laguna Vitel", "Municipio": "Chascomus", "Tipo": "Laguna", "Laguna Rio": "Laguna Vitel", "Alerta": 1, "S2 Fecha": "30/08/2026", "S3 Fecha": "30/08/2026", "Fecha": "30/08/2026", "Dinamica": "🟰", "info": "Alerta verde, riesgo nulo a bajo y estable", "PACiano": "✅✅ (precisión muy alta)", "Cloro": 47.5, "Turb": 23.818, "MON": 0.921, "B5": 0.036, "E. Trofico": "Mesotrofico", "A. Turb": "Baja", "A. MON": "Media" }, "geometry": { "type": "Point", "coordinates": [ -58.110802, -35.52930325 ] } },
{ "type": "Feature", "properties": { "CodPunto": "YAS1", "Nombre": "Laguna Yasica", "Municipio": "Chascomus", "Tipo": "Laguna", "Laguna Rio": "Laguna Yasica", "Alerta": 1, "S2 Fecha": "30/08/2026", "S3 Fecha": "30/08/2026", "Fecha": "30/08/2026", "Dinamica": "🟰", "info": "Alerta verde, riesgo nulo a bajo, se detectan plantas acuáticas", "PACiano": "✅✅ (precisión muy alta)", "Cloro": 103.1, "Turb": 43.864, "MON": 1.105, "B5": 0.029, "E. Trofico": "Eutrofico", "A. Turb": "Media", "A. MON": "Media" }, "geometry": { "type": "Point", "coordinates": [ -57.90670928, -35.5762537 ] } },
{ "type": "Feature", "properties": { "CodPunto": "RSCH", "Nombre": "Rio Salado Zona de recreo", "Municipio": "Chivilcoy", "Tipo": "Rio", "Laguna Rio": "Rio Salado Zona De Recreo", "Alerta": 1, "S2 Fecha": "28/08/2026", "S3 Fecha": "30/08/2026", "Fecha": "30/08/2026", "Dinamica": "🟰", "info": "Alerta verde, riesgo nulo a bajo, se detectan plantas acuáticas", "PACiano": "❓ no se estima", "Cloro": 167.6, "Turb": 59.502, "MON": 0.511, "B5": 0.086, "E. Trofico": "Eutrofico", "A. Turb": "Alta", "A. MON": "Baja" }, "geometry": { "type": "Point", "coordinates": [ -59.95569496000001, -35.12473955 ] } },
{ "type": "Feature", "properties": { "CodPunto": "CHIM", "Nombre": "Parque Lagunario Martija Campiing", "Municipio": "Chivilcoy", "Tipo": "Laguna", "Laguna Rio": "Laguna Chivilcoy", "Alerta": 1, "S2 Fecha": "28/08/2026", "S3 Fecha": "30/08/2026", "Fecha": "30/08/2026", "Dinamica": "🟰", "info": "Alerta verde, riesgo nulo a bajo y estable", "PACiano": "❓ no se estima", "Cloro": 67.1, "Turb": 51.381, "MON": 1.157, "B5": 0.034, "E. Trofico": "Eutrofico", "A. Turb": "Alta", "A. MON": "Media" }, "geometry": { "type": "Point", "coordinates": [ -60.104328395370636, -34.83785094859256 ] } },
{ "type": "Feature", "properties": { "CodPunto": "LGC", "Nombre": "Laguna Colón", "Municipio": "Colon", "Tipo": "Laguna", "Laguna Rio": "Lago Colon", "Alerta": 1, "S2 Fecha": "28/08/2026", "S3 Fecha": "30/08/2026", "Fecha": "30/08/2026", "Dinamica": "🟰", "info": "Alerta verde, riesgo nulo a bajo, se detectan plantas acuáticas", "PACiano": "❓ no se estima", "Cloro": 564.5, "Turb": 62.758, "MON": 2.614, "B5": 0.064, "E. Trofico": "Hipereutrofico", "A. Turb": "Alta", "A. MON": "Muy Alta" }, "geometry": { "type": "Point", "coordinates": [ -61.097298470306143, -33.920615779283402 ] } },
{ "type": "Feature", "properties": { "CodPunto": "DLP1", "Nombre": "Dique Las Piedras 1", "Municipio": "Coronel Pringles", "Tipo": "Dique", "Laguna Rio": "Dique Las Piedras", "Alerta": 1, "S2 Fecha": "28/08/2026", "S3 Fecha": "30/08/2026", "Fecha": "30/08/2026", "Dinamica": "⬆️", "info": "Alerta verde, riesgo nulo a bajo pero en aumento", "PACiano": "✅✅ (precisión muy alta)", "Cloro": 43.1, "Turb": 17.928, "MON": 0.409, "B5": 0.034, "E. Trofico": "Mesotrofico", "A. Turb": "Baja", "A. MON": "Baja" }, "geometry": { "type": "Point", "coordinates": [ -61.74454826, -38.419754409999989 ] } },
{ "type": "Feature", "properties": { "CodPunto": "ELJ", "Nombre": "Laguna El Juancho", "Municipio": "Daireaux", "Tipo": "Laguna", "Laguna Rio": "Laguna El Juancho", "Alerta": 1, "S2 Fecha": "28/08/2026", "S3 Fecha": "30/08/2026", "Fecha": "30/08/2026", "Dinamica": "⬆️", "info": "Alerta verde, riesgo nulo a bajo pero en aumento", "PACiano": "✅✅ (precisión muy alta)", "Cloro": 278.9, "Turb": 8.646, "MON": 2.033, "B5": 0.029, "E. Trofico": "Hipereutrofico", "A. Turb": "Baja", "A. MON": "Alta" }, "geometry": { "type": "Point", "coordinates": [ -61.55883592, -36.70867129 ] } },
{ "type": "Feature", "properties": { "CodPunto": "CLUB", "Nombre": "Rio de La Plata Club Pesca de Ensenada", "Municipio": "Ensenada", "Tipo": "Rio", "Laguna Rio": "Rio De La Plata", "Alerta": 1, "S2 Fecha": "30/08/2026", "S3 Fecha": "30/08/2026", "Fecha": "30/08/2026", "Dinamica": "🟰", "info": "Alerta verde, riesgo nulo a bajo y estable", "PACiano": "✅✅ (precisión muy alta)", "Cloro": 2.3, "Turb": 61.21, "MON": 0.631, "B5": 0.077, "E. Trofico": "oligotrofico", "A. Turb": "Alta", "A. MON": "Media" }, "geometry": { "type": "Point", "coordinates": [ -57.94353351, -34.82575485 ] } },
{ "type": "Feature", "properties": { "CodPunto": "CLUBR", "Nombre": "Rio Santiago Club Ensenada", "Municipio": "Ensenada", "Tipo": "Rio", "Laguna Rio": "Rio Santiago", "Alerta": 1, "S2 Fecha": "30/08/2026", "S3 Fecha": "30/08/2026", "Fecha": "30/08/2026", "Dinamica": "🟰", "info": "Alerta verde, riesgo nulo a bajo y estable", "PACiano": "✅✅ (precisión muy alta)", "Cloro": 51.3, "Turb": 17.712, "MON": 0.486, "B5": 0.047, "E. Trofico": "Eutrofico", "A. Turb": "Baja", "A. MON": "Baja" }, "geometry": { "type": "Point", "coordinates": [ -57.918268, -34.8397494 ] } },
{ "type": "Feature", "properties": { "CodPunto": "PERG", "Nombre": "Rio de La Plata Pergola Ensenada", "Municipio": "Ensenada", "Tipo": "Rio", "Laguna Rio": "Rio De La Plata", "Alerta": 1, "S2 Fecha": "30/08/2026", "S3 Fecha": "30/08/2026", "Fecha": "30/08/2026", "Dinamica": "🟰", "info": "Alerta verde, riesgo nulo a bajo y estable", "PACiano": "✅✅ (precisión muy alta)", "Cloro": 1.8, "Turb": 64.773, "MON": 0.647, "B5": 0.075, "E. Trofico": "oligotrofico", "A. Turb": "Alta", "A. MON": "Media" }, "geometry": { "type": "Point", "coordinates": [ -57.97633847, -34.79811973 ] } },
{ "type": "Feature", "properties": { "CodPunto": "PARA", "Nombre": "Rio de La Plata Parador Ensenada", "Municipio": "Ensenada", "Tipo": "Rio", "Laguna Rio": "Rio De La Plata", "Alerta": 1, "S2 Fecha": "30/08/2026", "S3 Fecha": "30/08/2026", "Fecha": "30/08/2026", "Dinamica": "🟰", "info": "Alerta verde, riesgo nulo a bajo y estable", "PACiano": "✅✅ (precisión muy alta)", "Cloro": 3.7, "Turb": 60.37, "MON": 0.613, "B5": 0.08, "E. Trofico": "oligotrofico", "A. Turb": "Alta", "A. MON": "Media" }, "geometry": { "type": "Point", "coordinates": [ -57.94851535, -34.8273528 ] } },
{ "type": "Feature", "properties": { "CodPunto": "CARI", "Nombre": "Canal Arias", "Municipio": "Escobar", "Tipo": "Rio", "Laguna Rio": "Interseccion Canal Arias En Rio Parana", "Alerta": 1, "S2 Fecha": "30/08/2026", "S3 Fecha": "30/08/2026", "Fecha": "30/08/2026", "Dinamica": "🟰", "info": "Alerta verde, riesgo nulo a bajo, se detectan plantas acuáticas", "PACiano": "❓ no se estima", "Cloro": 10.9, "Turb": 33.791, "MON": 0.334, "B5": 0.096, "E. Trofico": "oligotrofico", "A. Turb": "Media", "A. MON": "Baja" }, "geometry": { "type": "Point", "coordinates": [ -58.65464648, -34.272896349999989 ] } },
{ "type": "Feature", "properties": { "CodPunto": "RSM2", "Nombre": "Rio Salado Puente R3", "Municipio": "General Belgrano", "Tipo": "Rio", "Laguna Rio": "Rio Salado Puente Ruta Tres", "Alerta": 2, "S2 Fecha": "30/08/2026", "S3 Fecha": "30/08/2026", "Fecha": "30/08/2026", "Dinamica": "🟰", "info": "Alerta amarillo, riesgo bajo a moderado, estable", "PACiano": "❓ no se estima", "Cloro": 139.8, "Turb": 19.059, "MON": 0.528, "B5": 0.08, "E. Trofico": "Eutrofico", "A. Turb": "Baja", "A. MON": "Baja" }, "geometry": { "type": "Point", "coordinates": [ -58.84991815, -35.65020014 ] } },
{ "type": "Feature", "properties": { "CodPunto": "CARB", "Nombre": "Laguna El Carbón", "Municipio": "General Juan Madariaga", "Tipo": "Laguna", "Laguna Rio": "Laguna El Carbon", "Alerta": 3, "S2 Fecha": null, "S3 Fecha": "30/08/2026", "Fecha": "30/08/2026", "Dinamica": "🟰", "info": "Alerta naranja, riesgo moderado a alto, estable", "PACiano": "❓ no se estima", "Cloro": null, "Turb": null, "MON": null, "B5": null, "E. Trofico": "sin datos", "A. Turb": "sin datos", "A. MON": "sin datos" }, "geometry": { "type": "Point", "coordinates": [ -57.08335256, -36.94859847 ] } },
{ "type": "Feature", "properties": { "CodPunto": "LARG", "Nombre": "Laguna La Larga", "Municipio": "General Juan Madariaga", "Tipo": "Laguna", "Laguna Rio": "Laguna La Larga", "Alerta": 1, "S2 Fecha": null, "S3 Fecha": "30/08/2026", "Fecha": "30/08/2026", "Dinamica": "🟰", "info": "Alerta verde, riesgo nulo a bajo y estable", "PACiano": "❓ no se estima", "Cloro": null, "Turb": null, "MON": null, "B5": null, "E. Trofico": "sin datos", "A. Turb": "sin datos", "A. MON": "sin datos" }, "geometry": { "type": "Point", "coordinates": [ -57.11466679, -36.94659258 ] } },
{ "type": "Feature", "properties": { "CodPunto": "HORC", "Nombre": "Laguna Los Horcones", "Municipio": "General Juan Madariaga", "Tipo": "Laguna", "Laguna Rio": "Laguna Los Horcones", "Alerta": 1, "S2 Fecha": null, "S3 Fecha": "30/08/2026", "Fecha": "30/08/2026", "Dinamica": "🟰", "info": "Alerta verde, riesgo nulo a bajo y estable", "PACiano": "❓ no se estima", "Cloro": null, "Turb": null, "MON": null, "B5": null, "E. Trofico": "sin datos", "A. Turb": "sin datos", "A. MON": "sin datos" }, "geometry": { "type": "Point", "coordinates": [ -56.9915272, -37.06103997 ] } },
{ "type": "Feature", "properties": { "CodPunto": "CNAL", "Nombre": "Canal 2 Puente R11_General Lavalle", "Municipio": "General Lavalle", "Tipo": "Canal", "Laguna Rio": "Canal Dos Puente Ruta Once", "Alerta": 1, "S2 Fecha": null, "S3 Fecha": "30/08/2026", "Fecha": "30/08/2026", "Dinamica": "🟰", "info": "Alerta verde, riesgo nulo a bajo, se detectan plantas acuáticas", "PACiano": "❓ no se estima", "Cloro": null, "Turb": null, "MON": null, "B5": null, "E. Trofico": "sin datos", "A. Turb": "sin datos", "A. MON": "sin datos" }, "geometry": { "type": "Point", "coordinates": [ -57.00668284, -36.48851052 ] } },
{ "type": "Feature", "properties": { "CodPunto": "SALG", "Nombre": "Reserva natural Salada Grande", "Municipio": "General Lavalle", "Tipo": "Laguna", "Laguna Rio": "Reserva Natural Laguna Salada Grande", "Alerta": 3, "S2 Fecha": null, "S3 Fecha": "30/08/2026", "Fecha": "30/08/2026", "Dinamica": "🟰", "info": "Alerta naranja, riesgo moderado a alto, estable", "PACiano": "❓ no se estima", "Cloro": null, "Turb": null, "MON": null, "B5": null, "E. Trofico": "sin datos", "A. Turb": "sin datos", "A. MON": "sin datos" }, "geometry": { "type": "Point", "coordinates": [ -56.961667, -36.891111 ] } },
{ "type": "Feature", "properties": { "CodPunto": "RGUI1", "Nombre": "Rio Guido", "Municipio": "General Lavalle", "Tipo": "Rio", "Laguna Rio": "Rio Guido", "Alerta": null, "S2 Fecha": null, "S3 Fecha": "30/08/2026", "Fecha": "30/08/2026", "Dinamica": "SIN DATOS", "info": "SIN DATOS", "PACiano": "❓ no se estima", "Cloro": null, "Turb": null, "MON": null, "B5": null, "E. Trofico": "sin datos", "A. Turb": "sin datos", "A. MON": "sin datos" }, "geometry": { "type": "Point", "coordinates": [ -57.07616477, -36.49732809 ] } },
{ "type": "Feature", "properties": { "CodPunto": "RGUI2", "Nombre": "Rio Guido al mar", "Municipio": "General Lavalle", "Tipo": "Rio", "Laguna Rio": "Rio Guido Al Mar", "Alerta": 1, "S2 Fecha": null, "S3 Fecha": "30/08/2026", "Fecha": "30/08/2026", "Dinamica": "🟰", "info": "Alerta verde, riesgo nulo a bajo, se detectan plantas acuáticas", "PACiano": "❓ no se estima", "Cloro": null, "Turb": null, "MON": null, "B5": null, "E. Trofico": "sin datos", "A. Turb": "sin datos", "A. MON": "sin datos" }, "geometry": { "type": "Point", "coordinates": [ -57.04262177, -36.48696431 ] } },
{ "type": "Feature", "properties": { "CodPunto": "RANC", "Nombre": "Laguna de Ranchos", "Municipio": "General Paz", "Tipo": "Laguna", "Laguna Rio": "Laguna De Ranchos", "Alerta": null, "S2 Fecha": "30/08/2026", "S3 Fecha": "30/08/2026", "Fecha": "30/08/2026", "Dinamica": "SIN DATOS", "info": "SIN DATOS", "PACiano": "❓ no se estima", "Cloro": null, "Turb": null, "MON": null, "B5": null, "E. Trofico": "sin datos", "A. Turb": "sin datos", "A. MON": "sin datos" }, "geometry": { "type": "Point", "coordinates": [ -58.32590974, -35.506641 ] } },
{ "type": "Feature", "properties": { "CodPunto": "LPD1", "Nombre": "Laguna de Los Padres", "Municipio": "General Pueyrredon", "Tipo": "Laguna", "Laguna Rio": "Laguna De Los Padres", "Alerta": 1, "S2 Fecha": null, "S3 Fecha": "30/08/2026", "Fecha": "30/08/2026", "Dinamica": "🟰", "info": "Alerta verde, riesgo nulo a bajo y estable", "PACiano": "❓ no se estima", "Cloro": null, "Turb": null, "MON": null, "B5": null, "E. Trofico": "sin datos", "A. Turb": "sin datos", "A. MON": "sin datos" }, "geometry": { "type": "Point", "coordinates": [ -57.73326215, -37.93583254 ] } },
{ "type": "Feature", "properties": { "CodPunto": "SALP", "Nombre": "Laguna Salada Gral Pinto", "Municipio": "General Pinto", "Tipo": "Laguna", "Laguna Rio": "Laguna La Salada", "Alerta": 1, "S2 Fecha": "28/08/2026", "S3 Fecha": "30/08/2026", "Fecha": "30/08/2026", "Dinamica": "🟰", "info": "Alerta verde, riesgo nulo a bajo y estable", "PACiano": "✅✅ (precisión muy alta)", "Cloro": 1.0, "Turb": 31.594, "MON": 2.311, "B5": 0.019, "E. Trofico": "oligotrofico", "A. Turb": "Media", "A. MON": "Alta" }, "geometry": { "type": "Point", "coordinates": [ -62.187931640617414, -34.738329701347205 ] } },
{ "type": "Feature", "properties": { "CodPunto": "CARL", "Nombre": "Laguna Carlota", "Municipio": "General La Madrid", "Tipo": "Laguna", "Laguna Rio": "Laguna La Carlota", "Alerta": 1, "S2 Fecha": "28/08/2026", "S3 Fecha": "30/08/2026", "Fecha": "30/08/2026", "Dinamica": "🟰", "info": "Alerta verde, riesgo nulo a bajo y estable", "PACiano": "✅✅ (precisión muy alta)", "Cloro": 36.7, "Turb": 26.819, "MON": 0.403, "B5": 0.082, "E. Trofico": "Mesotrofico", "A. Turb": "Baja", "A. MON": "Baja" }, "geometry": { "type": "Point", "coordinates": [ -61.394456552632938, -37.676306107271003 ] } },
{ "type": "Feature", "properties": { "CodPunto": "ALS1", "Nombre": "Laguna Alsina 1", "Municipio": "Guamini", "Tipo": "Laguna", "Laguna Rio": "Laguna Alsina", "Alerta": 3, "S2 Fecha": "28/08/2026", "S3 Fecha": "30/08/2026", "Fecha": "30/08/2026", "Dinamica": "🟰", "info": "Alerta naranja, riesgo moderado a alto, estable", "PACiano": "✅✅ (precisión muy alta)", "Cloro": 88.8, "Turb": 56.089, "MON": 0.689, "B5": 0.059, "E. Trofico": "Eutrofico", "A. Turb": "Alta", "A. MON": "Baja" }, "geometry": { "type": "Point", "coordinates": [ -62.19693303, -36.876499 ] } },
{ "type": "Feature", "properties": { "CodPunto": "ALS2", "Nombre": "Laguna Alsina 2", "Municipio": "Guamini", "Tipo": "Laguna", "Laguna Rio": "Laguna Alsina", "Alerta": 3, "S2 Fecha": "28/08/2026", "S3 Fecha": "30/08/2026", "Fecha": "30/08/2026", "Dinamica": "🟰", "info": "Alerta naranja, riesgo moderado a alto, estable", "PACiano": "✅✅ (precisión muy alta)", "Cloro": 107.5, "Turb": 57.815, "MON": 0.671, "B5": 0.066, "E. Trofico": "Eutrofico", "A. Turb": "Alta", "A. MON": "Baja" }, "geometry": { "type": "Point", "coordinates": [ -62.0239804, -36.84172891 ] } },
{ "type": "Feature", "properties": { "CodPunto": "COCH", "Nombre": "Laguna Cochicó", "Municipio": "Guamini", "Tipo": "Laguna", "Laguna Rio": "Laguna Cochico", "Alerta": 1, "S2 Fecha": "28/08/2026", "S3 Fecha": "30/08/2026", "Fecha": "30/08/2026", "Dinamica": "🟰", "info": "Alerta verde, riesgo nulo a bajo y estable", "PACiano": "✅✅ (precisión muy alta)", "Cloro": 22.9, "Turb": 13.984, "MON": 0.498, "B5": 0.05, "E. Trofico": "Mesotrofico", "A. Turb": "Baja", "A. MON": "Baja" }, "geometry": { "type": "Point", "coordinates": [ -62.32571767, -36.92433273 ] } },
{ "type": "Feature", "properties": { "CodPunto": "DMONTE", "Nombre": "Laguna del Monte", "Municipio": "Guamini", "Tipo": "Laguna", "Laguna Rio": "Laguna Del Monte", "Alerta": 1, "S2 Fecha": "28/08/2026", "S3 Fecha": "30/08/2026", "Fecha": "30/08/2026", "Dinamica": "🟰", "info": "Alerta verde, riesgo nulo a bajo y estable", "PACiano": "✅✅ (precisión muy alta)", "Cloro": 12.2, "Turb": 4.74, "MON": 0.947, "B5": 0.019, "E. Trofico": "oligotrofico", "A. Turb": "Baja", "A. MON": "Media" }, "geometry": { "type": "Point", "coordinates": [ -62.476723, -37.020806 ] } },
{ "type": "Feature", "properties": { "CodPunto": "CAR1", "Nombre": "Laguna Carpincho", "Municipio": "Junin", "Tipo": "Laguna", "Laguna Rio": "Laguna El Carpincho", "Alerta": 4, "S2 Fecha": "28/08/2026", "S3 Fecha": "30/08/2026", "Fecha": "30/08/2026", "Dinamica": "⬇️", "info": "Alerta roja, riesgo alto, en disminución", "PACiano": "✅✅ (precisión muy alta)", "Cloro": 356.0, "Turb": 65.209, "MON": 1.207, "B5": 0.07, "E. Trofico": "Hipereutrofico", "A. Turb": "Alta", "A. MON": "Muy Alta" }, "geometry": { "type": "Point", "coordinates": [ -60.89518109, -34.57554254 ] } },
{ "type": "Feature", "properties": { "CodPunto": "GOMP", "Nombre": "Laguna Gómez", "Municipio": "Junin", "Tipo": "Laguna", "Laguna Rio": "Laguna Gomez", "Alerta": 4, "S2 Fecha": "28/08/2026", "S3 Fecha": "30/08/2026", "Fecha": "30/08/2026", "Dinamica": "⬇️", "info": "Alerta roja, riesgo alto, en disminución", "PACiano": "✅✅ (precisión muy alta)", "Cloro": 334.1, "Turb": 64.306, "MON": 0.881, "B5": 0.071, "E. Trofico": "Hipereutrofico", "A. Turb": "Alta", "A. MON": "Alta" }, "geometry": { "type": "Point", "coordinates": [ -61.13782807, -34.65028994 ] } },
{ "type": "Feature", "properties": { "CodPunto": "GOMEZ1", "Nombre": "Laguna Cómez 1", "Municipio": "Junin", "Tipo": "Laguna", "Laguna Rio": "Laguna Gomez", "Alerta": 4, "S2 Fecha": "28/08/2026", "S3 Fecha": "30/08/2026", "Fecha": "30/08/2026", "Dinamica": "⬇️", "info": "Alerta roja, riesgo alto, en disminución", "PACiano": "✅✅ (precisión muy alta)", "Cloro": 318.5, "Turb": 65.652, "MON": 0.856, "B5": 0.075, "E. Trofico": "Hipereutrofico", "A. Turb": "Alta", "A. MON": "Alta" }, "geometry": { "type": "Point", "coordinates": [ -61.03158186, -34.66692215 ] } },
{ "type": "Feature", "properties": { "CodPunto": "GOMEZ2", "Nombre": "Laguna Gómez 2", "Municipio": "Junin", "Tipo": "Laguna", "Laguna Rio": "Laguna Gomez", "Alerta": 4, "S2 Fecha": "28/08/2026", "S3 Fecha": "30/08/2026", "Fecha": "30/08/2026", "Dinamica": "⬇️", "info": "Alerta roja, riesgo alto, en disminución", "PACiano": "✅✅ (precisión muy alta)", "Cloro": 363.1, "Turb": 65.142, "MON": 0.944, "B5": 0.074, "E. Trofico": "Hipereutrofico", "A. Turb": "Alta", "A. MON": "Muy Alta" }, "geometry": { "type": "Point", "coordinates": [ -61.06077876, -34.65421815 ] } },
{ "type": "Feature", "properties": { "CodPunto": "MCHJ", "Nombre": "Laguna Mar Chiquita", "Municipio": "Junin", "Tipo": "Laguna", "Laguna Rio": "Laguna Mar Chiquita Junin", "Alerta": 4, "S2 Fecha": "28/08/2026", "S3 Fecha": "30/08/2026", "Fecha": "30/08/2026", "Dinamica": "⬇️", "info": "Alerta roja, riesgo alto, en disminución", "PACiano": "✅✅ (precisión muy alta)", "Cloro": 284.8, "Turb": 64.759, "MON": 0.778, "B5": 0.075, "E. Trofico": "Hipereutrofico", "A. Turb": "Alta", "A. MON": "Alta" }, "geometry": { "type": "Point", "coordinates": [ -61.1695184, -34.44942197 ] } },
{ "type": "Feature", "properties": { "CodPunto": "LAGO1", "Nombre": "Lago del Bosque de La Plata", "Municipio": "La Plata", "Tipo": "Laguna", "Laguna Rio": "Lago Del Bosque", "Alerta": 1, "S2 Fecha": "30/08/2026", "S3 Fecha": "30/08/2026", "Fecha": "30/08/2026", "Dinamica": "🟰", "info": "Alerta verde, riesgo nulo a bajo y estable", "PACiano": "❓ no se estima", "Cloro": 235.9, "Turb": 6.612, "MON": 0.62, "B5": 0.029, "E. Trofico": "Eutrofico", "A. Turb": "Baja", "A. MON": "Baja" }, "geometry": { "type": "Point", "coordinates": [ -57.93792252, -34.910498939999989 ] } },
{ "type": "Feature", "properties": { "CodPunto": "LAGO2", "Nombre": "Lago Republica Ninios de La Plata", "Municipio": "La Plata", "Tipo": "Laguna", "Laguna Rio": "Lago Republica Ninios", "Alerta": null, "S2 Fecha": "30/08/2026", "S3 Fecha": "30/08/2026", "Fecha": "30/08/2026", "Dinamica": "SIN DATOS", "info": "SIN DATOS", "PACiano": "❓ no se estima", "Cloro": null, "Turb": null, "MON": null, "B5": null, "E. Trofico": "sin datos", "A. Turb": "sin datos", "A. MON": "sin datos" }, "geometry": { "type": "Point", "coordinates": [ -58.017611, -34.882361 ] } },
{ "type": "Feature", "properties": { "CodPunto": "SAAV", "Nombre": "Parque Saavedra de La Plata", "Municipio": "La Plata", "Tipo": "Laguna", "Laguna Rio": "Laguna Parque Saavedra", "Alerta": null, "S2 Fecha": "30/08/2026", "S3 Fecha": "30/08/2026", "Fecha": "30/08/2026", "Dinamica": "SIN DATOS", "info": "SIN DATOS", "PACiano": "❓ no se estima", "Cloro": null, "Turb": null, "MON": null, "B5": null, "E. Trofico": "sin datos", "A. Turb": "sin datos", "A. MON": "sin datos" }, "geometry": { "type": "Point", "coordinates": [ -57.94185072, -34.93064494 ] } },
{ "type": "Feature", "properties": { "CodPunto": "LPR1", "Nombre": "Laguna del Paraíso", "Municipio": "Laprida", "Tipo": "Laguna", "Laguna Rio": "Laguna El Paraiso", "Alerta": 1, "S2 Fecha": "28/08/2026", "S3 Fecha": "30/08/2026", "Fecha": "30/08/2026", "Dinamica": "⬆️", "info": "Alerta verde, riesgo nulo a bajo pero en aumento", "PACiano": "✅✅ (precisión muy alta)", "Cloro": 98.2, "Turb": 22.958, "MON": 9.161, "B5": 0.018, "E. Trofico": "Eutrofico", "A. Turb": "Baja", "A. MON": "Muy Alta" }, "geometry": { "type": "Point", "coordinates": [ -60.79754351, -37.569146 ] } },
{ "type": "Feature", "properties": { "CodPunto": "LPR3", "Nombre": "Laguna Quilla Lauquen", "Municipio": "Laprida", "Tipo": "Laguna", "Laguna Rio": "Quilla Lauquen", "Alerta": 1, "S2 Fecha": "30/08/2026", "S3 Fecha": "30/08/2026", "Fecha": "30/08/2026", "Dinamica": "⬆️", "info": "Alerta verde, riesgo nulo a bajo pero en aumento", "PACiano": "❗ (precisión baja)", "Cloro": 254.0, "Turb": 11.542, "MON": 1.811, "B5": 0.044, "E. Trofico": "Hipereutrofico", "A. Turb": "Baja", "A. MON": "Alta" }, "geometry": { "type": "Point", "coordinates": [ -60.496604, -37.48183191 ] } },
{ "type": "Feature", "properties": { "CodPunto": "DIFM", "Nombre": "Laguna del Difunto Manuel", "Municipio": "Las Flores", "Tipo": "Laguna", "Laguna Rio": "Laguna Del Difunto Manuel", "Alerta": 1, "S2 Fecha": "30/08/2026", "S3 Fecha": "30/08/2026", "Fecha": "30/08/2026", "Dinamica": "🟰", "info": "Alerta verde, riesgo nulo a bajo y estable", "PACiano": "❓ no se estima", "Cloro": null, "Turb": null, "MON": 10.0, "B5": null, "E. Trofico": "sin datos", "A. Turb": "sin datos", "A. MON": "sin datos" }, "geometry": { "type": "Point", "coordinates": [ -59.0755, -36.009417 ] } },
{ "type": "Feature", "properties": { "CodPunto": "SANB", "Nombre": "Laguna San Bartolo", "Municipio": "Leandro N. Alem", "Tipo": "Laguna", "Laguna Rio": "Laguna San Bartolo Balneario Municipal Leandro Alem", "Alerta": 1, "S2 Fecha": "28/08/2026", "S3 Fecha": "30/08/2026", "Fecha": "30/08/2026", "Dinamica": "🟰", "info": "Alerta verde, riesgo nulo a bajo y estable", "PACiano": "✅✅ (precisión muy alta)", "Cloro": 26.2, "Turb": 30.84, "MON": 1.209, "B5": 0.041, "E. Trofico": "Mesotrofico", "A. Turb": "Media", "A. MON": "Media" }, "geometry": { "type": "Point", "coordinates": [ -61.48145927, -34.45842063 ] } },
{ "type": "Feature", "properties": { "CodPunto": "CCHI", "Nombre": "Laguna Chis Chis", "Municipio": "Lezama", "Tipo": "Laguna", "Laguna Rio": "Laguna Chis Chis", "Alerta": 4, "S2 Fecha": "30/08/2026", "S3 Fecha": "30/08/2026", "Fecha": "30/08/2026", "Dinamica": "🟰", "info": "Alerta roja, riesgo alto, estable", "PACiano": "✅✅ (precisión muy alta)", "Cloro": 487.0, "Turb": 83.71, "MON": 0.628, "B5": 0.114, "E. Trofico": "Hipereutrofico", "A. Turb": "Muy alta", "A. MON": "Media" }, "geometry": { "type": "Point", "coordinates": [ -57.99055982, -35.763212749999987 ] } },
{ "type": "Feature", "properties": { "CodPunto": "CHIS", "Nombre": "Laguna Chis Chis 2", "Municipio": "Lezama", "Tipo": "Laguna", "Laguna Rio": "Laguna Chis Chis", "Alerta": 4, "S2 Fecha": "30/08/2026", "S3 Fecha": "30/08/2026", "Fecha": "30/08/2026", "Dinamica": "🟰", "info": "Alerta roja, riesgo alto, estable", "PACiano": "✅✅ (precisión muy alta)", "Cloro": 531.4, "Turb": 85.206, "MON": 0.684, "B5": 0.113, "E. Trofico": "Hipereutrofico", "A. Turb": "Muy alta", "A. MON": "Media" }, "geometry": { "type": "Point", "coordinates": [ -57.94830023, -35.76032928 ] } },
{ "type": "Feature", "properties": { "CodPunto": "BARRC", "Nombre": "Laguna Las Barrancas", "Municipio": "Lezama", "Tipo": "Laguna", "Laguna Rio": "Laguna Las Barrancas", "Alerta": 4, "S2 Fecha": "30/08/2026", "S3 Fecha": "30/08/2026", "Fecha": "30/08/2026", "Dinamica": "🟰", "info": "Alerta roja, riesgo alto, estable", "PACiano": "✅✅ (precisión muy alta)", "Cloro": 392.2, "Turb": 76.647, "MON": 0.58, "B5": 0.101, "E. Trofico": "Hipereutrofico", "A. Turb": "Muy alta", "A. MON": "Media" }, "geometry": { "type": "Point", "coordinates": [ -58.04931927, -35.89171532 ] } },
{ "type": "Feature", "properties": { "CodPunto": "TABL", "Nombre": "Laguna La Tablilla", "Municipio": "Lezama", "Tipo": "Laguna", "Laguna Rio": "Laguna La Tablilla", "Alerta": 4, "S2 Fecha": "30/08/2026", "S3 Fecha": "30/08/2026", "Fecha": "30/08/2026", "Dinamica": "🟰", "info": "Alerta roja, riesgo alto, estable", "PACiano": "✅✅ (precisión muy alta)", "Cloro": 487.8, "Turb": 82.568, "MON": 0.615, "B5": 0.108, "E. Trofico": "Hipereutrofico", "A. Turb": "Muy alta", "A. MON": "Media" }, "geometry": { "type": "Point", "coordinates": [ -58.03739535, -35.80841501 ] } },
{ "type": "Feature", "properties": { "CodPunto": "LOBO", "Nombre": "Laguna de Lobos", "Municipio": "Lobos", "Tipo": "Laguna", "Laguna Rio": "Laguna De Lobos", "Alerta": 3, "S2 Fecha": "30/08/2026", "S3 Fecha": "30/08/2026", "Fecha": "30/08/2026", "Dinamica": "⬆️", "info": "Alerta naranja, riesgo moderado a alto, en aumento", "PACiano": "✅ (precisión alta)", "Cloro": 250.2, "Turb": 59.915, "MON": 0.741, "B5": 0.057, "E. Trofico": "Hipereutrofico", "A. Turb": "Alta", "A. MON": "Baja" }, "geometry": { "type": "Point", "coordinates": [ -59.12091231, -35.28236937 ] } },
{ "type": "Feature", "properties": { "CodPunto": "LUJ1", "Nombre": "Club Náutico Luján", "Municipio": "Lujan", "Tipo": "Rio", "Laguna Rio": "Club Nautico El Timon Rio Lujan", "Alerta": null, "S2 Fecha": "30/08/2026", "S3 Fecha": "30/08/2026", "Fecha": "30/08/2026", "Dinamica": "SIN DATOS", "info": "SIN DATOS", "PACiano": "❓ no se estima", "Cloro": null, "Turb": null, "MON": null, "B5": null, "E. Trofico": "sin datos", "A. Turb": "sin datos", "A. MON": "sin datos" }, "geometry": { "type": "Point", "coordinates": [ -59.195639, -34.593889 ] } },
{ "type": "Feature", "properties": { "CodPunto": "LUJ2", "Nombre": "Reserva Natural Quinta Cigordia", "Municipio": "Lujan", "Tipo": "Rio", "Laguna Rio": "Reserva Natural Quinta Cigordia", "Alerta": null, "S2 Fecha": "30/08/2026", "S3 Fecha": "30/08/2026", "Fecha": "30/08/2026", "Dinamica": "SIN DATOS", "info": "SIN DATOS", "PACiano": "❓ no se estima", "Cloro": null, "Turb": null, "MON": null, "B5": null, "E. Trofico": "sin datos", "A. Turb": "sin datos", "A. MON": "sin datos" }, "geometry": { "type": "Point", "coordinates": [ -59.133314, -34.577689 ] } },
{ "type": "Feature", "properties": { "CodPunto": "ATAL", "Nombre": "Rio de La Plata Atalaya", "Municipio": "Magdalena", "Tipo": "Rio", "Laguna Rio": "Rio De La Plata", "Alerta": 1, "S2 Fecha": "30/08/2026", "S3 Fecha": "30/08/2026", "Fecha": "30/08/2026", "Dinamica": "🟰", "info": "Alerta verde, riesgo nulo a bajo y estable", "PACiano": "✅✅ (precisión muy alta)", "Cloro": 2.3, "Turb": 71.105, "MON": 0.546, "B5": 0.096, "E. Trofico": "oligotrofico", "A. Turb": "Alta", "A. MON": "Media" }, "geometry": { "type": "Point", "coordinates": [ -57.52590481, -35.00115326 ] } },
{ "type": "Feature", "properties": { "CodPunto": "MAGD", "Nombre": "Rio de La Plata Magdalena", "Municipio": "Magdalena", "Tipo": "Rio", "Laguna Rio": "Rio De La Plata", "Alerta": 1, "S2 Fecha": "30/08/2026", "S3 Fecha": "30/08/2026", "Fecha": "30/08/2026", "Dinamica": "🟰", "info": "Alerta verde, riesgo nulo a bajo y estable", "PACiano": "✅✅ (precisión muy alta)", "Cloro": 2.9, "Turb": 74.859, "MON": 0.544, "B5": 0.099, "E. Trofico": "oligotrofico", "A. Turb": "Alta", "A. MON": "Media" }, "geometry": { "type": "Point", "coordinates": [ -57.49544978, -35.01544081 ] } },
{ "type": "Feature", "properties": { "CodPunto": "KHUI", "Nombre": "Laguna Kakel Huincul", "Municipio": "Maipu", "Tipo": "Laguna", "Laguna Rio": "Kakel Huincul", "Alerta": 1, "S2 Fecha": null, "S3 Fecha": "30/08/2026", "Fecha": "30/08/2026", "Dinamica": "🟰", "info": "Alerta verde, riesgo nulo a bajo y estable", "PACiano": "❓ no se estima", "Cloro": null, "Turb": null, "MON": null, "B5": null, "E. Trofico": "sin datos", "A. Turb": "sin datos", "A. MON": "sin datos" }, "geometry": { "type": "Point", "coordinates": [ -57.77552522, -36.79315564 ] } },
{ "type": "Feature", "properties": { "CodPunto": "YAM1", "Nombre": "Laguna Yamahuida", "Municipio": "Maipu", "Tipo": "Laguna", "Laguna Rio": "Laguna Yamahuida", "Alerta": 1, "S2 Fecha": null, "S3 Fecha": "30/08/2026", "Fecha": "30/08/2026", "Dinamica": "🟰", "info": "Alerta verde, riesgo nulo a bajo y estable", "PACiano": "❓ no se estima", "Cloro": null, "Turb": null, "MON": null, "B5": null, "E. Trofico": "sin datos", "A. Turb": "sin datos", "A. MON": "sin datos" }, "geometry": { "type": "Point", "coordinates": [ -57.70591791, -36.873878929999989 ] } },
{ "type": "Feature", "properties": { "CodPunto": "MCHIC", "Nombre": "Laguna Mar Chiquita", "Municipio": "Mar Chiquita", "Tipo": "Laguna", "Laguna Rio": "MarChiquita MarChiquita", "Alerta": 3, "S2 Fecha": null, "S3 Fecha": "30/08/2026", "Fecha": "30/08/2026", "Dinamica": "🟰", "info": "Alerta naranja, riesgo moderado a alto, estable", "PACiano": "❓ no se estima", "Cloro": null, "Turb": null, "MON": null, "B5": null, "E. Trofico": "sin datos", "A. Turb": "sin datos", "A. MON": "sin datos" }, "geometry": { "type": "Point", "coordinates": [ -57.39166781548176, -37.66800158551009 ] } },
{ "type": "Feature", "properties": { "CodPunto": "PMM", "Nombre": "Parque Municipal Merdeces", "Municipio": "Mercedes", "Tipo": "Rio", "Laguna Rio": "Rio Lujan", "Alerta": null, "S2 Fecha": "30/08/2026", "S3 Fecha": "30/08/2026", "Fecha": "30/08/2026", "Dinamica": "SIN DATOS", "info": "SIN DATOS", "PACiano": "❓ no se estima", "Cloro": null, "Turb": null, "MON": null, "B5": null, "E. Trofico": "sin datos", "A. Turb": "sin datos", "A. MON": "sin datos" }, "geometry": { "type": "Point", "coordinates": [ -59.439779813687586, -34.635556849256211 ] } },
{ "type": "Feature", "properties": { "CodPunto": "MONTE", "Nombre": "San Miguel del Monte", "Municipio": "Monte", "Tipo": "Laguna", "Laguna Rio": "San Miguel Del Monte", "Alerta": 4, "S2 Fecha": "30/08/2026", "S3 Fecha": "30/08/2026", "Fecha": "30/08/2026", "Dinamica": "🟰", "info": "Alerta roja, riesgo alto, estable", "PACiano": "✅✅ (precisión muy alta)", "Cloro": 211.9, "Turb": 69.033, "MON": 0.53, "B5": 0.088, "E. Trofico": "Eutrofico", "A. Turb": "Alta", "A. MON": "Media" }, "geometry": { "type": "Point", "coordinates": [ -58.805472, -35.461583 ] } },
{ "type": "Feature", "properties": { "CodPunto": "SALB1", "Nombre": "Canal Salado en Belgrano 1", "Municipio": "Monte", "Tipo": "Canal", "Laguna Rio": "Canal Salado En Belgrano", "Alerta": null, "S2 Fecha": "30/08/2026", "S3 Fecha": "30/08/2026", "Fecha": "30/08/2026", "Dinamica": "SIN DATOS", "info": "SIN DATOS", "PACiano": "❓ no se estima", "Cloro": null, "Turb": null, "MON": 0.865, "B5": null, "E. Trofico": "sin datos", "A. Turb": "sin datos", "A. MON": "sin datos" }, "geometry": { "type": "Point", "coordinates": [ -58.49660224, -35.74848197 ] } },
{ "type": "Feature", "properties": { "CodPunto": "SALB2", "Nombre": "Canal Salado en Belgrano 2", "Municipio": "Monte", "Tipo": "Canal", "Laguna Rio": "Canal Salado Aliviador En Belgrano", "Alerta": null, "S2 Fecha": "30/08/2026", "S3 Fecha": "30/08/2026", "Fecha": "30/08/2026", "Dinamica": "SIN DATOS", "info": "SIN DATOS", "PACiano": "❓ no se estima", "Cloro": null, "Turb": null, "MON": null, "B5": null, "E. Trofico": "sin datos", "A. Turb": "sin datos", "A. MON": "sin datos" }, "geometry": { "type": "Point", "coordinates": [ -58.50434722, -35.74558457 ] } },
{ "type": "Feature", "properties": { "CodPunto": "SALM", "Nombre": "Rio Saldao Puente R41", "Municipio": "Monte", "Tipo": "Rio", "Laguna Rio": "Rio Salado Puente Ruta CuarentaYuno", "Alerta": 1, "S2 Fecha": "30/08/2026", "S3 Fecha": "30/08/2026", "Fecha": "30/08/2026", "Dinamica": "🟰", "info": "Alerta verde, riesgo nulo a bajo, se detectan plantas acuáticas", "PACiano": "❓ no se estima", "Cloro": null, "Turb": null, "MON": 1.006, "B5": null, "E. Trofico": "sin datos", "A. Turb": "sin datos", "A. MON": "sin datos" }, "geometry": { "type": "Point", "coordinates": [ -58.53728428, -35.726159440000011 ] } },
{ "type": "Feature", "properties": { "CodPunto": "SAGRAN", "Nombre": "Laguna Sauce Grande", "Municipio": "Monte Hermoso", "Tipo": "Laguna", "Laguna Rio": "Laguna Sauce Grande", "Alerta": 3, "S2 Fecha": "28/08/2026", "S3 Fecha": "30/08/2026", "Fecha": "30/08/2026", "Dinamica": "🟰", "info": "Alerta naranja, riesgo moderado a alto, estable", "PACiano": "✅✅ (precisión muy alta)", "Cloro": 155.0, "Turb": 73.909, "MON": 0.321, "B5": 0.136, "E. Trofico": "Eutrofico", "A. Turb": "Alta", "A. MON": "Baja" }, "geometry": { "type": "Point", "coordinates": [ -61.383083, -38.934333 ] } },
{ "type": "Feature", "properties": { "CodPunto": "DROG", "Nombre": "Dique Roggero", "Municipio": "Moreno", "Tipo": "Dique", "Laguna Rio": "Dique Roggero", "Alerta": 1, "S2 Fecha": "30/08/2026", "S3 Fecha": "30/08/2026", "Fecha": "30/08/2026", "Dinamica": "🟰", "info": "Alerta verde, riesgo nulo a bajo y estable", "PACiano": "✅✅ (precisión muy alta)", "Cloro": 15.2, "Turb": 37.625, "MON": 0.436, "B5": 0.072, "E. Trofico": "Mesotrofico", "A. Turb": "Media", "A. MON": "Baja" }, "geometry": { "type": "Point", "coordinates": [ -58.86546382, -34.679654 ] } },
{ "type": "Feature", "properties": { "CodPunto": "CPNAV", "Nombre": "Club de Pesca Navarro", "Municipio": "Navarro", "Tipo": "Laguna", "Laguna Rio": "Laguna Navarro", "Alerta": 4, "S2 Fecha": "30/08/2026", "S3 Fecha": "30/08/2026", "Fecha": "30/08/2026", "Dinamica": "🟰", "info": "Alerta roja, riesgo alto, estable", "PACiano": "✅✅ (precisión muy alta)", "Cloro": 101.2, "Turb": 50.301, "MON": 1.72, "B5": 0.024, "E. Trofico": "Eutrofico", "A. Turb": "Alta", "A. MON": "Alta" }, "geometry": { "type": "Point", "coordinates": [ -59.286909327885894, -35.012444336128091 ] } },
{ "type": "Feature", "properties": { "CodPunto": "CANIAD", "Nombre": "Laguna Cañadón", "Municipio": "Pehuajo", "Tipo": "Laguna", "Laguna Rio": "Laguna Caniadon", "Alerta": 1, "S2 Fecha": "28/08/2026", "S3 Fecha": "30/08/2026", "Fecha": "30/08/2026", "Dinamica": "🟰", "info": "Alerta verde, riesgo nulo a bajo y estable", "PACiano": "✅✅ (precisión muy alta)", "Cloro": 0.3, "Turb": 17.36, "MON": 0.756, "B5": 0.023, "E. Trofico": "oligotrofico", "A. Turb": "Baja", "A. MON": "Media" }, "geometry": { "type": "Point", "coordinates": [ -61.84809208, -35.76604051000001 ] } },
{ "type": "Feature", "properties": { "CodPunto": "LASAL", "Nombre": "Laguna La Salada de Pehuajó", "Municipio": "Pehuajo", "Tipo": "Laguna", "Laguna Rio": "Laguna La Salada Pehuajo", "Alerta": 4, "S2 Fecha": "28/08/2026", "S3 Fecha": "30/08/2026", "Fecha": "30/08/2026", "Dinamica": "🟰", "info": "Alerta roja, riesgo alto, estable", "PACiano": "✅✅ (precisión muy alta)", "Cloro": 761.2, "Turb": 71.763, "MON": 1.538, "B5": 0.086, "E. Trofico": "Hipereutrofico", "A. Turb": "Alta", "A. MON": "Muy Alta" }, "geometry": { "type": "Point", "coordinates": [ -61.90826889, -35.78543081 ] } },
{ "type": "Feature", "properties": { "CodPunto": "PEJEC", "Nombre": "Rio de La Plata Club Pejerrey de Quilmes", "Municipio": "Quilmes", "Tipo": "Rio", "Laguna Rio": "Rio De La Plata", "Alerta": 1, "S2 Fecha": "30/08/2026", "S3 Fecha": "30/08/2026", "Fecha": "30/08/2026", "Dinamica": "🟰", "info": "Alerta verde, riesgo nulo a bajo y estable", "PACiano": "✅✅ (precisión muy alta)", "Cloro": 1.4, "Turb": 58.769, "MON": 0.622, "B5": 0.071, "E. Trofico": "oligotrofico", "A. Turb": "Alta", "A. MON": "Baja" }, "geometry": { "type": "Point", "coordinates": [ -58.20996141, -34.70172 ] } },
{ "type": "Feature", "properties": { "CodPunto": "RAMPAR", "Nombre": "Bajada Calle Gomendio", "Municipio": "Ramallo", "Tipo": "Rio", "Laguna Rio": "Rio Parana", "Alerta": 1, "S2 Fecha": "28/08/2026", "S3 Fecha": "30/08/2026", "Fecha": "30/08/2026", "Dinamica": "🟰", "info": "Alerta verde, riesgo nulo a bajo y estable", "PACiano": "✅✅ (precisión muy alta)", "Cloro": 10.6, "Turb": 31.139, "MON": 0.388, "B5": 0.075, "E. Trofico": "oligotrofico", "A. Turb": "Media", "A. MON": "Baja" }, "geometry": { "type": "Point", "coordinates": [ -59.99152814531881, -33.478637394002327 ] } },
{ "type": "Feature", "properties": { "CodPunto": "CZ1", "Nombre": "Laguna Cuero de Zorro -1", "Municipio": "Rivadavia", "Tipo": "Laguna", "Laguna Rio": "Cuero De Zorro", "Alerta": 1, "S2 Fecha": "28/08/2026", "S3 Fecha": "30/08/2026", "Fecha": "30/08/2026", "Dinamica": "⬆️", "info": "Alerta verde, riesgo nulo a bajo pero en aumento", "PACiano": "✅✅ (precisión muy alta)", "Cloro": 178.0, "Turb": 11.19, "MON": 0.806, "B5": 0.048, "E. Trofico": "Eutrofico", "A. Turb": "Baja", "A. MON": "Media" }, "geometry": { "type": "Point", "coordinates": [ -62.91277592, -35.75534241 ] } },
{ "type": "Feature", "properties": { "CodPunto": "RSALRP", "Nombre": "Rio Salado punto Roque Perez", "Municipio": "Roque Perez", "Tipo": "Rio", "Laguna Rio": "Rio Salado", "Alerta": 3, "S2 Fecha": "30/08/2026", "S3 Fecha": "30/08/2026", "Fecha": "30/08/2026", "Dinamica": "🟰", "info": "Alerta naranja, riesgo moderado a alto, estable", "PACiano": "❓ no se estima", "Cloro": 199.2, "Turb": 25.72, "MON": 0.668, "B5": 0.074, "E. Trofico": "Eutrofico", "A. Turb": "Baja", "A. MON": "Baja" }, "geometry": { "type": "Point", "coordinates": [ -59.32361902, -35.37374897 ] } },
{ "type": "Feature", "properties": { "CodPunto": "ARECOP", "Nombre": "club de pescadores, San Antonio de Areco, Rio Areco de San Antonio de Areco", "Municipio": "San Antonio de Areco", "Tipo": "Rio", "Laguna Rio": "Rio Areco Club De Pescadores", "Alerta": null, "S2 Fecha": "30/08/2026", "S3 Fecha": "30/08/2026", "Fecha": "30/08/2026", "Dinamica": "SIN DATOS", "info": "SIN DATOS", "PACiano": "❓ no se estima", "Cloro": null, "Turb": null, "MON": null, "B5": null, "E. Trofico": "sin datos", "A. Turb": "sin datos", "A. MON": "sin datos" }, "geometry": { "type": "Point", "coordinates": [ -59.49925, -34.240528 ] } },
{ "type": "Feature", "properties": { "CodPunto": "RPBAL", "Nombre": "Balneario San Antonio de Areco, Rio Areco de San Antonio de Areco", "Municipio": "San Antonio de Areco", "Tipo": "Rio", "Laguna Rio": "Rio Areco Balneario San Antonio De Areco", "Alerta": null, "S2 Fecha": "30/08/2026", "S3 Fecha": "30/08/2026", "Fecha": "30/08/2026", "Dinamica": "SIN DATOS", "info": "SIN DATOS", "PACiano": "❓ no se estima", "Cloro": null, "Turb": null, "MON": null, "B5": null, "E. Trofico": "sin datos", "A. Turb": "sin datos", "A. MON": "sin datos" }, "geometry": { "type": "Point", "coordinates": [ -59.476444, -34.240611 ] } },
{ "type": "Feature", "properties": { "CodPunto": "BORCH", "Nombre": "Destacamento Guardaparques A° Borches,_San Fernando", "Municipio": "San Fernando", "Tipo": "Arroyo", "Laguna Rio": "Destacamento Guardaparques Arroyo Borches", "Alerta": null, "S2 Fecha": "30/08/2026", "S3 Fecha": "30/08/2026", "Fecha": "30/08/2026", "Dinamica": "SIN DATOS", "info": "SIN DATOS", "PACiano": "❓ no se estima", "Cloro": null, "Turb": null, "MON": null, "B5": null, "E. Trofico": "sin datos", "A. Turb": "sin datos", "A. MON": "sin datos" }, "geometry": { "type": "Point", "coordinates": [ -58.443278, -34.074917 ] } },
{ "type": "Feature", "properties": { "CodPunto": "NESP", "Nombre": "Nueva Esperanza San Fernando", "Municipio": "San Fernando", "Tipo": "Rio", "Laguna Rio": "Rio Carabelas Grande En Nueva Esperanza", "Alerta": null, "S2 Fecha": "30/08/2026", "S3 Fecha": "30/08/2026", "Fecha": "30/08/2026", "Dinamica": "SIN DATOS", "info": "SIN DATOS", "PACiano": "❓ no se estima", "Cloro": null, "Turb": null, "MON": null, "B5": null, "E. Trofico": "sin datos", "A. Turb": "sin datos", "A. MON": "sin datos" }, "geometry": { "type": "Point", "coordinates": [ -58.783194, -34.108083 ] } },
{ "type": "Feature", "properties": { "CodPunto": "PNAUT", "Nombre": "Parque Nautico San Fernando de San Fernando", "Municipio": "San Fernando", "Tipo": "Rio", "Laguna Rio": "Parque Nautico San Fernando", "Alerta": 1, "S2 Fecha": "30/08/2026", "S3 Fecha": "30/08/2026", "Fecha": "30/08/2026", "Dinamica": "🟰", "info": "Alerta verde, riesgo nulo a bajo y estable", "PACiano": "❓ no se estima", "Cloro": 3.0, "Turb": 75.196, "MON": 0.322, "B5": 0.083, "E. Trofico": "oligotrofico", "A. Turb": "Muy alta", "A. MON": "Baja" }, "geometry": { "type": "Point", "coordinates": [ -58.53016266, -34.441899869999986 ] } },
{ "type": "Feature", "properties": { "CodPunto": "TAN1", "Nombre": "Dique Tandil", "Municipio": "Tandil", "Tipo": "Dique", "Laguna Rio": "Dique Tandil", "Alerta": 3, "S2 Fecha": "30/08/2026", "S3 Fecha": "30/08/2026", "Fecha": "30/08/2026", "Dinamica": "🟰", "info": "Alerta naranja, riesgo moderado a alto, estable", "PACiano": "❓ no se estima", "Cloro": null, "Turb": null, "MON": null, "B5": null, "E. Trofico": "sin datos", "A. Turb": "sin datos", "A. MON": "sin datos" }, "geometry": { "type": "Point", "coordinates": [ -59.130285, -37.34456748 ] } },
{ "type": "Feature", "properties": { "CodPunto": "TAP2", "Nombre": "Balneario sitio 3 Tapalque", "Municipio": "Tapalque", "Tipo": "Arroyo", "Laguna Rio": "Arroyo Tapalque Balneario Sitio Tres", "Alerta": null, "S2 Fecha": "30/08/2026", "S3 Fecha": "30/08/2026", "Fecha": "30/08/2026", "Dinamica": "SIN DATOS", "info": "SIN DATOS", "PACiano": "❓ no se estima", "Cloro": null, "Turb": null, "MON": null, "B5": null, "E. Trofico": "sin datos", "A. Turb": "sin datos", "A. MON": "sin datos" }, "geometry": { "type": "Point", "coordinates": [ -60.034861, -36.348417 ] } },
{ "type": "Feature", "properties": { "CodPunto": "PTELLO", "Nombre": "Punta Tello sitio 2", "Municipio": "Tapalque", "Tipo": "Arroyo", "Laguna Rio": "Arroyo Tapalque Punta Tello Sitio Dos", "Alerta": null, "S2 Fecha": "30/08/2026", "S3 Fecha": "30/08/2026", "Fecha": "30/08/2026", "Dinamica": "SIN DATOS", "info": "SIN DATOS", "PACiano": "❓ no se estima", "Cloro": null, "Turb": null, "MON": null, "B5": null, "E. Trofico": "sin datos", "A. Turb": "sin datos", "A. MON": "sin datos" }, "geometry": { "type": "Point", "coordinates": [ -60.031889, -36.372889 ] } },
{ "type": "Feature", "properties": { "CodPunto": "ABRV", "Nombre": "AVV (Arroyo Abravieja)", "Municipio": "Tigre", "Tipo": "Arroyo", "Laguna Rio": "Avv Arroyo Abravieja", "Alerta": null, "S2 Fecha": "30/08/2026", "S3 Fecha": "30/08/2026", "Fecha": "30/08/2026", "Dinamica": "SIN DATOS", "info": "SIN DATOS", "PACiano": "❓ no se estima", "Cloro": null, "Turb": null, "MON": null, "B5": null, "E. Trofico": "sin datos", "A. Turb": "sin datos", "A. MON": "sin datos" }, "geometry": { "type": "Point", "coordinates": [ -58.557389, -34.411222 ] } },
{ "type": "Feature", "properties": { "CodPunto": "GELVEZ", "Nombre": "D5 (Arroyo Gelvez)", "Municipio": "Tigre", "Tipo": "Arroyo", "Laguna Rio": "Arroyo Gelvez", "Alerta": null, "S2 Fecha": "30/08/2026", "S3 Fecha": "30/08/2026", "Fecha": "30/08/2026", "Dinamica": "SIN DATOS", "info": "SIN DATOS", "PACiano": "❓ no se estima", "Cloro": null, "Turb": null, "MON": null, "B5": null, "E. Trofico": "sin datos", "A. Turb": "sin datos", "A. MON": "sin datos" }, "geometry": { "type": "Point", "coordinates": [ -58.59217821, -34.36870564 ] } },
{ "type": "Feature", "properties": { "CodPunto": "ANQ", "Nombre": "RA (Rio Anquetera)", "Municipio": "Tigre", "Tipo": "Rio", "Laguna Rio": "Rio Anquetera", "Alerta": null, "S2 Fecha": "30/08/2026", "S3 Fecha": "30/08/2026", "Fecha": "30/08/2026", "Dinamica": "SIN DATOS", "info": "SIN DATOS", "PACiano": "❓ no se estima", "Cloro": null, "Turb": null, "MON": null, "B5": null, "E. Trofico": "sin datos", "A. Turb": "sin datos", "A. MON": "sin datos" }, "geometry": { "type": "Point", "coordinates": [ -58.583167, -34.318306 ] } },
{ "type": "Feature", "properties": { "CodPunto": "RCAP", "Nombre": "RCARA (Rio Carapachay)", "Municipio": "Tigre", "Tipo": "Rio", "Laguna Rio": "Rio Carapachay", "Alerta": null, "S2 Fecha": "30/08/2026", "S3 Fecha": "30/08/2026", "Fecha": "30/08/2026", "Dinamica": "SIN DATOS", "info": "SIN DATOS", "PACiano": "❓ no se estima", "Cloro": null, "Turb": null, "MON": null, "B5": null, "E. Trofico": "sin datos", "A. Turb": "sin datos", "A. MON": "sin datos" }, "geometry": { "type": "Point", "coordinates": [ -58.62675, -34.361611 ] } },
{ "type": "Feature", "properties": { "CodPunto": "PERLA", "Nombre": "RSALP (Arroyo La Perla y Rio Sarmiento)", "Municipio": "Tigre", "Tipo": "Arroyo", "Laguna Rio": "Arroyo La Perla Intereseccion Rio Sarmiento", "Alerta": null, "S2 Fecha": "30/08/2026", "S3 Fecha": "30/08/2026", "Fecha": "30/08/2026", "Dinamica": "SIN DATOS", "info": "SIN DATOS", "PACiano": "❓ no se estima", "Cloro": null, "Turb": null, "MON": null, "B5": null, "E. Trofico": "sin datos", "A. Turb": "sin datos", "A. MON": "sin datos" }, "geometry": { "type": "Point", "coordinates": [ -58.558833, -34.382361 ] } },
{ "type": "Feature", "properties": { "CodPunto": "SARCUR", "Nombre": "RSARC (Rio Sarmiento entre Arroyo Reyes y Curubica)", "Municipio": "Tigre", "Tipo": "Rio", "Laguna Rio": "Rio Sarmiento Entre Arroyo Reyes Arroyo Curubica", "Alerta": 1, "S2 Fecha": "30/08/2026", "S3 Fecha": "30/08/2026", "Fecha": "30/08/2026", "Dinamica": "🟰", "info": "Alerta verde, riesgo nulo a bajo, se detectan plantas acuáticas", "PACiano": "❓ no se estima", "Cloro": 2.7, "Turb": 53.554, "MON": 0.367, "B5": 0.078, "E. Trofico": "oligotrofico", "A. Turb": "Alta", "A. MON": "Baja" }, "geometry": { "type": "Point", "coordinates": [ -58.57761458, -34.385700019999987 ] } },
{ "type": "Feature", "properties": { "CodPunto": "DPLP", "Nombre": "Dique Paso de las Piedras", "Municipio": "Tornquist", "Tipo": "Dique", "Laguna Rio": "Dique Paso De Las Piedras", "Alerta": null, "S2 Fecha": "23/08/2026", "S3 Fecha": "30/08/2026", "Fecha": "30/08/2026", "Dinamica": "SIN DATOS", "info": "SIN DATOS", "PACiano": "❓ no se estima", "Cloro": null, "Turb": null, "MON": null, "B5": null, "E. Trofico": "sin datos", "A. Turb": "sin datos", "A. MON": "sin datos" }, "geometry": { "type": "Point", "coordinates": [ -62.1857487, -38.263378 ] } },
{ "type": "Feature", "properties": { "CodPunto": "DLP2", "Nombre": "Dique Las Piedras 2", "Municipio": "Tornquist", "Tipo": "Dique", "Laguna Rio": "Dique Las Piedras", "Alerta": 1, "S2 Fecha": "28/08/2026", "S3 Fecha": "30/08/2026", "Fecha": "30/08/2026", "Dinamica": "🟰", "info": "Alerta verde, riesgo nulo a bajo y estable", "PACiano": "✅✅ (precisión muy alta)", "Cloro": 39.7, "Turb": 17.61, "MON": 0.671, "B5": 0.033, "E. Trofico": "Mesotrofico", "A. Turb": "Baja", "A. MON": "Baja" }, "geometry": { "type": "Point", "coordinates": [ -61.75836664, -38.37272735 ] } },
{ "type": "Feature", "properties": { "CodPunto": "CZ2", "Nombre": "Laguna Cuero de Zorro 2", "Municipio": "Trenque Lauquen", "Tipo": "Laguna", "Laguna Rio": "Cuero De Zorro", "Alerta": 1, "S2 Fecha": "28/08/2026", "S3 Fecha": "30/08/2026", "Fecha": "30/08/2026", "Dinamica": "⬆️", "info": "Alerta verde, riesgo nulo a bajo pero en aumento", "PACiano": "✅✅ (precisión muy alta)", "Cloro": 193.6, "Turb": 10.672, "MON": 0.957, "B5": 0.046, "E. Trofico": "Eutrofico", "A. Turb": "Baja", "A. MON": "Media" }, "geometry": { "type": "Point", "coordinates": [ -62.90764975, -35.78476218 ] } },
{ "type": "Feature", "properties": { "CodPunto": "HINOJO", "Nombre": "Laguna Hinojo", "Municipio": "Trenque Lauquen", "Tipo": "Laguna", "Laguna Rio": "Laguna Hinojo", "Alerta": 4, "S2 Fecha": "28/08/2026", "S3 Fecha": "30/08/2026", "Fecha": "30/08/2026", "Dinamica": "🟰", "info": "Alerta roja, riesgo alto, estable", "PACiano": "✅✅ (precisión muy alta)", "Cloro": 461.5, "Turb": 68.565, "MON": 0.659, "B5": 0.085, "E. Trofico": "Hipereutrofico", "A. Turb": "Alta", "A. MON": "Media" }, "geometry": { "type": "Point", "coordinates": [ -62.49421275, -35.925620500000015 ] } },
{ "type": "Feature", "properties": { "CodPunto": "TUN1", "Nombre": "Las Tunas 1", "Municipio": "Trenque Lauquen", "Tipo": "Laguna", "Laguna Rio": "Laguna Las Tunas", "Alerta": 3, "S2 Fecha": "28/08/2026", "S3 Fecha": "30/08/2026", "Fecha": "30/08/2026", "Dinamica": "⬇️", "info": "Alerta naranja, riesgo moderado a alto, en disminución", "PACiano": "✅ (precisión alta)", "Cloro": 651.3, "Turb": 36.636, "MON": 4.998, "B5": 0.017, "E. Trofico": "Hipereutrofico", "A. Turb": "Media", "A. MON": "Muy Alta" }, "geometry": { "type": "Point", "coordinates": [ -62.43452697, -35.97278686 ] } },
{ "type": "Feature", "properties": { "CodPunto": "TUN2", "Nombre": "Las Tunas 2", "Municipio": "Trenque Lauquen", "Tipo": "Laguna", "Laguna Rio": "Laguna Las Tunas", "Alerta": 3, "S2 Fecha": "28/08/2026", "S3 Fecha": "30/08/2026", "Fecha": "30/08/2026", "Dinamica": "⬇️", "info": "Alerta naranja, riesgo moderado a alto, en disminución", "PACiano": "✅ (precisión alta)", "Cloro": 540.0, "Turb": 54.24, "MON": 1.098, "B5": 0.04, "E. Trofico": "Hipereutrofico", "A. Turb": "Alta", "A. MON": "Media" }, "geometry": { "type": "Point", "coordinates": [ -62.50829928, -36.01268186 ] } },
{ "type": "Feature", "properties": { "CodPunto": "TIG", "Nombre": "Laguna Tres Arroyos", "Municipio": "Tres Arroyos", "Tipo": "Laguna", "Laguna Rio": "La Tigra", "Alerta": 1, "S2 Fecha": null, "S3 Fecha": "30/08/2026", "Fecha": "30/08/2026", "Dinamica": "🟰", "info": "Alerta verde, riesgo nulo a bajo y estable", "PACiano": "❓ no se estima", "Cloro": null, "Turb": null, "MON": null, "B5": null, "E. Trofico": "sin datos", "A. Turb": "sin datos", "A. MON": "sin datos" }, "geometry": { "type": "Point", "coordinates": [ -60.362609519071306, -38.346405216060184 ] } },
{ "type": "Feature", "properties": { "CodPunto": "VLZ1", "Nombre": "Rio de La Plata 2 - Vicente Lopez", "Municipio": "Vicente Lopez", "Tipo": "Rio", "Laguna Rio": "Rio De La Plata", "Alerta": 1, "S2 Fecha": "30/08/2026", "S3 Fecha": "30/08/2026", "Fecha": "30/08/2026", "Dinamica": "🟰", "info": "Alerta verde, riesgo nulo a bajo y estable", "PACiano": "✅✅ (precisión muy alta)", "Cloro": 2.9, "Turb": 73.608, "MON": 0.584, "B5": 0.085, "E. Trofico": "oligotrofico", "A. Turb": "Alta", "A. MON": "Media" }, "geometry": { "type": "Point", "coordinates": [ -58.46470993, -34.51650797 ] } },
{ "type": "Feature", "properties": { "CodPunto": "CHAS", "Nombre": "Laguna Chasicó", "Municipio": "Villarino", "Tipo": "Laguna", "Laguna Rio": "Chasico", "Alerta": 1, "S2 Fecha": null, "S3 Fecha": "30/08/2026", "Fecha": "30/08/2026", "Dinamica": "🟰", "info": "Alerta verde, riesgo nulo a bajo y estable", "PACiano": "❓ no se estima", "Cloro": null, "Turb": null, "MON": null, "B5": null, "E. Trofico": "sin datos", "A. Turb": "sin datos", "A. MON": "sin datos" }, "geometry": { "type": "Point", "coordinates": [ -63.07155844, -38.63126477 ] } },
{ "type": "Feature", "properties": { "CodPunto": "GALL", "Nombre": "Laguna Las Gallaretas", "Municipio": "Mercedes", "Tipo": "Laguna", "Laguna Rio": "Laguna de las Gallaretas", "Alerta": null, "S2 Fecha": "30/08/2026", "S3 Fecha": "30/08/2026", "Fecha": "30/08/2026", "Dinamica": "SIN DATOS", "info": "SIN DATOS", "PACiano": "❓ no se estima", "Cloro": null, "Turb": null, "MON": null, "B5": null, "E. Trofico": "sin datos", "A. Turb": "sin datos", "A. MON": "sin datos" }, "geometry": { "type": "Point", "coordinates": [ -59.301559488831074, -34.642917019552826 ] } },
{ "type": "Feature", "properties": { "CodPunto": "GLI", "Nombre": "Laguna Gloptodontes", "Municipio": "Mercedes", "Tipo": "Laguna", "Laguna Rio": "Laguna Gliptodontes", "Alerta": null, "S2 Fecha": "30/08/2026", "S3 Fecha": "30/08/2026", "Fecha": "30/08/2026", "Dinamica": "SIN DATOS", "info": "SIN DATOS", "PACiano": "❓ no se estima", "Cloro": null, "Turb": null, "MON": null, "B5": null, "E. Trofico": "sin datos", "A. Turb": "sin datos", "A. MON": "sin datos" }, "geometry": { "type": "Point", "coordinates": [ -59.300483640201364, -34.644440421212515 ] } },
{ "type": "Feature", "properties": { "CodPunto": "RMUN", "Nombre": "Balneario Municiipal Rauch - Laguna", "Municipio": "Rauch", "Tipo": "Arroyo", "Laguna Rio": "Lago del balneario", "Alerta": null, "S2 Fecha": "30/08/2026", "S3 Fecha": "30/08/2026", "Fecha": "30/08/2026", "Dinamica": "SIN DATOS", "info": "SIN DATOS", "PACiano": "❓ no se estima", "Cloro": null, "Turb": null, "MON": null, "B5": null, "E. Trofico": "sin datos", "A. Turb": "sin datos", "A. MON": "sin datos" }, "geometry": { "type": "Point", "coordinates": [ -59.103861544634825, -36.768410909755545 ] } },
{ "type": "Feature", "properties": { "CodPunto": "RED", "Nombre": "La Redonda", "Municipio": "Trenque Lauquen", "Tipo": "Laguna", "Laguna Rio": "La Redonda", "Alerta": 2, "S2 Fecha": "28/08/2026", "S3 Fecha": "30/08/2026", "Fecha": "30/08/2026", "Dinamica": "🟰", "info": "Alerta amarillo, riesgo bajo a moderado, estable", "PACiano": "✅✅ (precisión muy alta)", "Cloro": 214.1, "Turb": 10.117, "MON": 0.549, "B5": 0.081, "E. Trofico": "Eutrofico", "A. Turb": "Baja", "A. MON": "Baja" }, "geometry": { "type": "Point", "coordinates": [ -62.566955753910435, -35.948585204500326 ] } }
]
}
